<?xml version="1.0" encoding="UTF-8"?>
<gpx creator="StravaGPX" version="1.1" xmlns="http://www.topografix.com/GPX/1/1" xmlns:xsi="http://www.w3.org/2001/XMLSchema-instance" xsi:schemaLocation="http://www.topografix.com/GPX/1/1 http://www.topografix.com/GPX/1/1/gpx.xsd">
 <metadata>
  <name>Morat-Fribourg</name>
  <author>
   <name>Jérémie Schouwey</name>
   <link href="https://www.strava.com/athletes/45886502"/>
  </author>
  <copyright author="OpenStreetMap contributors">
   <year>2020</year>
   <license>https://www.openstreetmap.org/copyright</license>
  </copyright>
  <link href="https://www.strava.com/routes/3462516631951810042"/>
 </metadata>
 <trk>
  <name>Morat-Fribourg</name>
  <link href="https://www.strava.com/routes/3462516631951810042"/>
  <type>running</type>
  <trkseg>
   <trkpt lat="46.93007" lon="7.117240000000001">
    <ele>436.27000000000004</ele>
   </trkpt>
   <trkpt lat="46.929790000000004" lon="7.116910000000001">
    <ele>436.21000000000004</ele>
   </trkpt>
   <trkpt lat="46.92954" lon="7.11666">
    <ele>436.3</ele>
   </trkpt>
   <trkpt lat="46.92931" lon="7.1163300000000005">
    <ele>436.27000000000004</ele>
   </trkpt>
   <trkpt lat="46.92888000000001" lon="7.11544">
    <ele>436.41</ele>
   </trkpt>
   <trkpt lat="46.92849500199619" lon="7.114754994993514">
    <ele>436.81</ele>
   </trkpt>
   <trkpt lat="46.928110000000004" lon="7.114070000000001">
    <ele>436.9</ele>
   </trkpt>
   <trkpt lat="46.927870000000006" lon="7.11371">
    <ele>437.15000000000003</ele>
   </trkpt>
   <trkpt lat="46.927730000000004" lon="7.113530000000001">
    <ele>437.27000000000004</ele>
   </trkpt>
   <trkpt lat="46.927580000000006" lon="7.11338">
    <ele>437.82000000000005</ele>
   </trkpt>
   <trkpt lat="46.92727000000001" lon="7.113110000000001">
    <ele>439.70000000000005</ele>
   </trkpt>
   <trkpt lat="46.92700000000001" lon="7.11284">
    <ele>441.94000000000005</ele>
   </trkpt>
   <trkpt lat="46.92689000000001" lon="7.1127">
    <ele>442.89000000000004</ele>
   </trkpt>
   <trkpt lat="46.926660000000005" lon="7.112220000000001">
    <ele>444.92</ele>
   </trkpt>
   <trkpt lat="46.9266" lon="7.11218">
    <ele>445.16</ele>
   </trkpt>
   <trkpt lat="46.92658" lon="7.112260000000001">
    <ele>445.59000000000003</ele>
   </trkpt>
   <trkpt lat="46.926500000000004" lon="7.112290000000001">
    <ele>445.33000000000004</ele>
   </trkpt>
   <trkpt lat="46.926460000000006" lon="7.112260000000001">
    <ele>445.33000000000004</ele>
   </trkpt>
   <trkpt lat="46.92643" lon="7.1122000000000005">
    <ele>445.33000000000004</ele>
   </trkpt>
   <trkpt lat="46.92622" lon="7.112330000000001">
    <ele>445.33000000000004</ele>
   </trkpt>
   <trkpt lat="46.925520001658256" lon="7.112960008295116">
    <ele>447.03000000000003</ele>
   </trkpt>
   <trkpt lat="46.924820000000004" lon="7.11359">
    <ele>447.96000000000004</ele>
   </trkpt>
   <trkpt lat="46.92457" lon="7.11303">
    <ele>448.26000000000005</ele>
   </trkpt>
   <trkpt lat="46.924260000000004" lon="7.112410000000001">
    <ele>448.31000000000006</ele>
   </trkpt>
   <trkpt lat="46.92412" lon="7.11225">
    <ele>448.45</ele>
   </trkpt>
   <trkpt lat="46.9239" lon="7.11209">
    <ele>448.48</ele>
   </trkpt>
   <trkpt lat="46.92354" lon="7.11188">
    <ele>448.3</ele>
   </trkpt>
   <trkpt lat="46.922760000000004" lon="7.11134">
    <ele>448.22</ele>
   </trkpt>
   <trkpt lat="46.92235" lon="7.111020000000001">
    <ele>448.19</ele>
   </trkpt>
   <trkpt lat="46.92211" lon="7.1108">
    <ele>448.3</ele>
   </trkpt>
   <trkpt lat="46.9215600032038" lon="7.1101899874357395">
    <ele>448.76000000000005</ele>
   </trkpt>
   <trkpt lat="46.92101000316766" lon="7.109579987395834">
    <ele>449.74</ele>
   </trkpt>
   <trkpt lat="46.920460000000006" lon="7.10897">
    <ele>450.63</ele>
   </trkpt>
   <trkpt lat="46.92031" lon="7.10885">
    <ele>450.73</ele>
   </trkpt>
   <trkpt lat="46.92016" lon="7.108790000000001">
    <ele>450.94000000000005</ele>
   </trkpt>
   <trkpt lat="46.920010000000005" lon="7.108770000000001">
    <ele>450.94000000000005</ele>
   </trkpt>
   <trkpt lat="46.91978" lon="7.108840000000001">
    <ele>451.44000000000005</ele>
   </trkpt>
   <trkpt lat="46.91899" lon="7.10927">
    <ele>451.70000000000005</ele>
   </trkpt>
   <trkpt lat="46.91883000000001" lon="7.109330000000001">
    <ele>451.66</ele>
   </trkpt>
   <trkpt lat="46.91841" lon="7.109540000000001">
    <ele>451.28000000000003</ele>
   </trkpt>
   <trkpt lat="46.917880000000004" lon="7.109940000000001">
    <ele>450.0</ele>
   </trkpt>
   <trkpt lat="46.91742000000001" lon="7.110360000000001">
    <ele>448.88000000000005</ele>
   </trkpt>
   <trkpt lat="46.917260000000006" lon="7.110410000000001">
    <ele>449.08000000000004</ele>
   </trkpt>
   <trkpt lat="46.91723" lon="7.110390000000001">
    <ele>449.08000000000004</ele>
   </trkpt>
   <trkpt lat="46.91715000000001" lon="7.1104">
    <ele>449.38000000000005</ele>
   </trkpt>
   <trkpt lat="46.91711" lon="7.11045">
    <ele>449.38000000000005</ele>
   </trkpt>
   <trkpt lat="46.917080000000006" lon="7.11052">
    <ele>449.38000000000005</ele>
   </trkpt>
   <trkpt lat="46.91704000000001" lon="7.11059">
    <ele>449.58000000000004</ele>
   </trkpt>
   <trkpt lat="46.91698" lon="7.11075">
    <ele>449.58000000000004</ele>
   </trkpt>
   <trkpt lat="46.91655500064458" lon="7.111155003278398">
    <ele>450.88000000000005</ele>
   </trkpt>
   <trkpt lat="46.91613" lon="7.111560000000001">
    <ele>452.76000000000005</ele>
   </trkpt>
   <trkpt lat="46.915910000000004" lon="7.111820000000001">
    <ele>454.75000000000006</ele>
   </trkpt>
   <trkpt lat="46.915710000000004" lon="7.112120000000001">
    <ele>455.37000000000006</ele>
   </trkpt>
   <trkpt lat="46.915370001658474" lon="7.112740003961186">
    <ele>460.87000000000006</ele>
   </trkpt>
   <trkpt lat="46.91503" lon="7.113360000000001">
    <ele>466.14000000000004</ele>
   </trkpt>
   <trkpt lat="46.9149" lon="7.11354">
    <ele>467.91</ele>
   </trkpt>
   <trkpt lat="46.91478" lon="7.11366">
    <ele>469.08000000000004</ele>
   </trkpt>
   <trkpt lat="46.914640000000006" lon="7.1137500000000005">
    <ele>471.17</ele>
   </trkpt>
   <trkpt lat="46.914460000000005" lon="7.113810000000001">
    <ele>472.31000000000006</ele>
   </trkpt>
   <trkpt lat="46.91423" lon="7.1138200000000005">
    <ele>474.0</ele>
   </trkpt>
   <trkpt lat="46.91378" lon="7.1137500000000005">
    <ele>477.95000000000005</ele>
   </trkpt>
   <trkpt lat="46.913450000000005" lon="7.113620000000001">
    <ele>479.52000000000004</ele>
   </trkpt>
   <trkpt lat="46.91286" lon="7.113250000000001">
    <ele>480.93</ele>
   </trkpt>
   <trkpt lat="46.91246" lon="7.11293">
    <ele>480.99</ele>
   </trkpt>
   <trkpt lat="46.911930001003626" lon="7.112434995045903">
    <ele>479.80000000000007</ele>
   </trkpt>
   <trkpt lat="46.9114" lon="7.111940000000001">
    <ele>478.25000000000006</ele>
   </trkpt>
   <trkpt lat="46.91093000089299" lon="7.1114899960647">
    <ele>476.5</ele>
   </trkpt>
   <trkpt lat="46.91046" lon="7.111040000000001">
    <ele>475.15000000000003</ele>
   </trkpt>
   <trkpt lat="46.91030000000001" lon="7.1109100000000005">
    <ele>474.46000000000004</ele>
   </trkpt>
   <trkpt lat="46.910090000000004" lon="7.1107700000000005">
    <ele>473.4200000000001</ele>
   </trkpt>
   <trkpt lat="46.909510000000004" lon="7.110530000000001">
    <ele>469.79</ele>
   </trkpt>
   <trkpt lat="46.909290000000006" lon="7.110500000000001">
    <ele>469.07000000000005</ele>
   </trkpt>
   <trkpt lat="46.90912" lon="7.110530000000001">
    <ele>468.97</ele>
   </trkpt>
   <trkpt lat="46.908860000000004" lon="7.110640000000001">
    <ele>468.9800000000001</ele>
   </trkpt>
   <trkpt lat="46.9084600003581" lon="7.110995002818359">
    <ele>470.13000000000005</ele>
   </trkpt>
   <trkpt lat="46.908060000000006" lon="7.111350000000001">
    <ele>472.75000000000006</ele>
   </trkpt>
   <trkpt lat="46.908060000000006" lon="7.111440000000001">
    <ele>473.30000000000007</ele>
   </trkpt>
   <trkpt lat="46.908030000000004" lon="7.11148">
    <ele>473.45000000000005</ele>
   </trkpt>
   <trkpt lat="46.907990000000005" lon="7.111490000000001">
    <ele>473.45000000000005</ele>
   </trkpt>
   <trkpt lat="46.90795000000001" lon="7.1114500000000005">
    <ele>473.62</ele>
   </trkpt>
   <trkpt lat="46.90773" lon="7.11164">
    <ele>474.16</ele>
   </trkpt>
   <trkpt lat="46.9074" lon="7.1118500000000004">
    <ele>475.6</ele>
   </trkpt>
   <trkpt lat="46.90746" lon="7.112010000000001">
    <ele>475.63000000000005</ele>
   </trkpt>
   <trkpt lat="46.9074" lon="7.1118500000000004">
    <ele>475.63000000000005</ele>
   </trkpt>
   <trkpt lat="46.907160000000005" lon="7.111960000000001">
    <ele>475.39000000000004</ele>
   </trkpt>
   <trkpt lat="46.906600000000005" lon="7.1121300000000005">
    <ele>476.63000000000005</ele>
   </trkpt>
   <trkpt lat="46.906490000000005" lon="7.112140000000001">
    <ele>476.82</ele>
   </trkpt>
   <trkpt lat="46.90641" lon="7.11209">
    <ele>476.82</ele>
   </trkpt>
   <trkpt lat="46.906180000000006" lon="7.11134">
    <ele>477.82</ele>
   </trkpt>
   <trkpt lat="46.906090000000006" lon="7.1112400000000004">
    <ele>478.04</ele>
   </trkpt>
   <trkpt lat="46.90598000000001" lon="7.111190000000001">
    <ele>478.99</ele>
   </trkpt>
   <trkpt lat="46.90552" lon="7.111140000000001">
    <ele>479.69000000000005</ele>
   </trkpt>
   <trkpt lat="46.905370000000005" lon="7.111090000000001">
    <ele>479.69000000000005</ele>
   </trkpt>
   <trkpt lat="46.905260000000006" lon="7.111040000000001">
    <ele>480.47</ele>
   </trkpt>
   <trkpt lat="46.90498" lon="7.110860000000001">
    <ele>481.06000000000006</ele>
   </trkpt>
   <trkpt lat="46.904610000000005" lon="7.110720000000001">
    <ele>482.2</ele>
   </trkpt>
   <trkpt lat="46.90424" lon="7.110640000000001">
    <ele>483.88</ele>
   </trkpt>
   <trkpt lat="46.90382" lon="7.110600000000001">
    <ele>484.85</ele>
   </trkpt>
   <trkpt lat="46.903560000000006" lon="7.110600000000001">
    <ele>485.42</ele>
   </trkpt>
   <trkpt lat="46.90337" lon="7.110620000000001">
    <ele>486.19000000000005</ele>
   </trkpt>
   <trkpt lat="46.90312" lon="7.1107000000000005">
    <ele>486.72</ele>
   </trkpt>
   <trkpt lat="46.903040000000004" lon="7.110740000000001">
    <ele>486.72</ele>
   </trkpt>
   <trkpt lat="46.90234" lon="7.1112">
    <ele>489.81</ele>
   </trkpt>
   <trkpt lat="46.90216" lon="7.11129">
    <ele>491.95000000000005</ele>
   </trkpt>
   <trkpt lat="46.901970000000006" lon="7.11136">
    <ele>491.95000000000005</ele>
   </trkpt>
   <trkpt lat="46.90169" lon="7.111420000000001">
    <ele>493.56000000000006</ele>
   </trkpt>
   <trkpt lat="46.901390000000006" lon="7.11141">
    <ele>496.09000000000003</ele>
   </trkpt>
   <trkpt lat="46.90073" lon="7.11127">
    <ele>499.38000000000005</ele>
   </trkpt>
   <trkpt lat="46.90037" lon="7.111260000000001">
    <ele>500.81000000000006</ele>
   </trkpt>
   <trkpt lat="46.8999" lon="7.11134">
    <ele>502.16</ele>
   </trkpt>
   <trkpt lat="46.89927500016716" lon="7.111475001554673">
    <ele>505.16</ele>
   </trkpt>
   <trkpt lat="46.89865" lon="7.111610000000001">
    <ele>509.48</ele>
   </trkpt>
   <trkpt lat="46.89813499990737" lon="7.111665000539555">
    <ele>511.76</ele>
   </trkpt>
   <trkpt lat="46.89762" lon="7.111720000000001">
    <ele>516.51</ele>
   </trkpt>
   <trkpt lat="46.8975" lon="7.11171">
    <ele>518.25</ele>
   </trkpt>
   <trkpt lat="46.897310000000004" lon="7.1116600000000005">
    <ele>518.25</ele>
   </trkpt>
   <trkpt lat="46.89682000039249" lon="7.111404997726735">
    <ele>521.19</ele>
   </trkpt>
   <trkpt lat="46.896330000000006" lon="7.11115">
    <ele>525.0799999999999</ele>
   </trkpt>
   <trkpt lat="46.895810000000004" lon="7.110950000000001">
    <ele>528.81</ele>
   </trkpt>
   <trkpt lat="46.8956" lon="7.1108400000000005">
    <ele>529.61</ele>
   </trkpt>
   <trkpt lat="46.89528000000001" lon="7.11061">
    <ele>531.0400000000001</ele>
   </trkpt>
   <trkpt lat="46.895100000000006" lon="7.1104400000000005">
    <ele>532.5500000000001</ele>
   </trkpt>
   <trkpt lat="46.89481000000001" lon="7.110250000000001">
    <ele>533.6700000000001</ele>
   </trkpt>
   <trkpt lat="46.89400666698744" lon="7.110046660564964">
    <ele>537.1700000000001</ele>
   </trkpt>
   <trkpt lat="46.893203333614835" lon="7.109843327221814">
    <ele>539.24</ele>
   </trkpt>
   <trkpt lat="46.8924" lon="7.109640000000001">
    <ele>540.7</ele>
   </trkpt>
   <trkpt lat="46.892140000000005" lon="7.109590000000001">
    <ele>541.9000000000001</ele>
   </trkpt>
   <trkpt lat="46.89197" lon="7.109610000000001">
    <ele>543.1400000000001</ele>
   </trkpt>
   <trkpt lat="46.891980000000004" lon="7.1096">
    <ele>545.61</ele>
   </trkpt>
   <trkpt lat="46.891830000000006" lon="7.109710000000001">
    <ele>546.52</ele>
   </trkpt>
   <trkpt lat="46.89171" lon="7.109870000000001">
    <ele>547.9000000000001</ele>
   </trkpt>
   <trkpt lat="46.891510000000004" lon="7.110430000000001">
    <ele>549.73</ele>
   </trkpt>
   <trkpt lat="46.89129000188896" lon="7.1110900027299895">
    <ele>552.7500000000001</ele>
   </trkpt>
   <trkpt lat="46.891070000000006" lon="7.111750000000001">
    <ele>556.28</ele>
   </trkpt>
   <trkpt lat="46.890980000000006" lon="7.11195">
    <ele>557.08</ele>
   </trkpt>
   <trkpt lat="46.8909" lon="7.1120600000000005">
    <ele>558.2</ele>
   </trkpt>
   <trkpt lat="46.8907" lon="7.112260000000001">
    <ele>560.2600000000001</ele>
   </trkpt>
   <trkpt lat="46.89058000000001" lon="7.11232">
    <ele>560.9000000000001</ele>
   </trkpt>
   <trkpt lat="46.89045" lon="7.112360000000001">
    <ele>562.13</ele>
   </trkpt>
   <trkpt lat="46.890330000000006" lon="7.112360000000001">
    <ele>562.13</ele>
   </trkpt>
   <trkpt lat="46.88958000028243" lon="7.112209995822372">
    <ele>567.3100000000001</ele>
   </trkpt>
   <trkpt lat="46.88883000036891" lon="7.112059995839744">
    <ele>570.01</ele>
   </trkpt>
   <trkpt lat="46.88808" lon="7.111910000000001">
    <ele>573.97</ele>
   </trkpt>
   <trkpt lat="46.887890000000006" lon="7.111890000000001">
    <ele>573.97</ele>
   </trkpt>
   <trkpt lat="46.8877" lon="7.1119">
    <ele>577.2400000000001</ele>
   </trkpt>
   <trkpt lat="46.887420000000006" lon="7.111980000000001">
    <ele>577.2400000000001</ele>
   </trkpt>
   <trkpt lat="46.88668000088974" lon="7.112435006284005">
    <ele>578.3900000000001</ele>
   </trkpt>
   <trkpt lat="46.885940000000005" lon="7.11289">
    <ele>577.52</ele>
   </trkpt>
   <trkpt lat="46.885780000000004" lon="7.1129500000000005">
    <ele>577.5400000000001</ele>
   </trkpt>
   <trkpt lat="46.885020000000004" lon="7.1131">
    <ele>574.64</ele>
   </trkpt>
   <trkpt lat="46.88483" lon="7.11317">
    <ele>573.08</ele>
   </trkpt>
   <trkpt lat="46.884710000000005" lon="7.113250000000001">
    <ele>573.08</ele>
   </trkpt>
   <trkpt lat="46.88459" lon="7.113370000000001">
    <ele>570.4200000000001</ele>
   </trkpt>
   <trkpt lat="46.88449000000001" lon="7.11352">
    <ele>570.4200000000001</ele>
   </trkpt>
   <trkpt lat="46.88439" lon="7.113740000000001">
    <ele>569.0400000000001</ele>
   </trkpt>
   <trkpt lat="46.884330000000006" lon="7.113970000000001">
    <ele>567.3900000000001</ele>
   </trkpt>
   <trkpt lat="46.884190036109665" lon="7.115145732702858">
    <ele>562.37</ele>
   </trkpt>
   <trkpt lat="46.8840500601822" lon="7.11632145927044">
    <ele>560.76</ele>
   </trkpt>
   <trkpt lat="46.88391007221776" lon="7.117497179702284">
    <ele>557.35</ele>
   </trkpt>
   <trkpt lat="46.883770072216436" lon="7.118672893997922">
    <ele>552.7700000000001</ele>
   </trkpt>
   <trkpt lat="46.883630060178376" lon="7.119848602156891">
    <ele>550.48</ele>
   </trkpt>
   <trkpt lat="46.8834900361037" lon="7.121024304178722">
    <ele>547.95</ele>
   </trkpt>
   <trkpt lat="46.88335000000001" lon="7.1222">
    <ele>544.97</ele>
   </trkpt>
   <trkpt lat="46.883300000000006" lon="7.122450000000001">
    <ele>544.2900000000001</ele>
   </trkpt>
   <trkpt lat="46.883210000000005" lon="7.122750000000001">
    <ele>544.2</ele>
   </trkpt>
   <trkpt lat="46.88308000000001" lon="7.123050000000001">
    <ele>544.6</ele>
   </trkpt>
   <trkpt lat="46.88293" lon="7.12328">
    <ele>545.22</ele>
   </trkpt>
   <trkpt lat="46.882410001734755" lon="7.123900005936524">
    <ele>547.83</ele>
   </trkpt>
   <trkpt lat="46.881890000000006" lon="7.12452">
    <ele>550.18</ele>
   </trkpt>
   <trkpt lat="46.88161" lon="7.124770000000001">
    <ele>550.9000000000001</ele>
   </trkpt>
   <trkpt lat="46.88145" lon="7.1248700000000005">
    <ele>551.4100000000001</ele>
   </trkpt>
   <trkpt lat="46.88127" lon="7.12497">
    <ele>552.08</ele>
   </trkpt>
   <trkpt lat="46.88046333413821" lon="7.125276675893348">
    <ele>556.08</ele>
   </trkpt>
   <trkpt lat="46.87965666745747" lon="7.125583342565181">
    <ele>562.07</ele>
   </trkpt>
   <trkpt lat="46.87885000000001" lon="7.125890000000001">
    <ele>565.9000000000001</ele>
   </trkpt>
   <trkpt lat="46.87807500073114" lon="7.126285005678759">
    <ele>569.52</ele>
   </trkpt>
   <trkpt lat="46.877300000000005" lon="7.12668">
    <ele>572.1500000000001</ele>
   </trkpt>
   <trkpt lat="46.87708000000001" lon="7.1267000000000005">
    <ele>572.33</ele>
   </trkpt>
   <trkpt lat="46.87691" lon="7.126690000000001">
    <ele>572.3000000000001</ele>
   </trkpt>
   <trkpt lat="46.87675" lon="7.126650000000001">
    <ele>572.21</ele>
   </trkpt>
   <trkpt lat="46.876110000000004" lon="7.1264">
    <ele>572.1800000000001</ele>
   </trkpt>
   <trkpt lat="46.875285001415754" lon="7.126072484901261">
    <ele>572.34</ele>
   </trkpt>
   <trkpt lat="46.874460001897454" lon="7.12574497987264">
    <ele>574.44</ele>
   </trkpt>
   <trkpt lat="46.87363500144517" lon="7.125417484913552">
    <ele>576.5600000000001</ele>
   </trkpt>
   <trkpt lat="46.87281" lon="7.12509">
    <ele>579.62</ele>
   </trkpt>
   <trkpt lat="46.872510000000005" lon="7.124910000000001">
    <ele>579.95</ele>
   </trkpt>
   <trkpt lat="46.87229000000001" lon="7.124720000000001">
    <ele>580.0000000000001</ele>
   </trkpt>
   <trkpt lat="46.87171000165906" lon="7.124089993116672">
    <ele>580.38</ele>
   </trkpt>
   <trkpt lat="46.87113" lon="7.123460000000001">
    <ele>580.2</ele>
   </trkpt>
   <trkpt lat="46.87068500081087" lon="7.122994996008151">
    <ele>580.23</ele>
   </trkpt>
   <trkpt lat="46.87024" lon="7.12253">
    <ele>580.22</ele>
   </trkpt>
   <trkpt lat="46.870000000000005" lon="7.122350000000001">
    <ele>580.1700000000001</ele>
   </trkpt>
   <trkpt lat="46.869800000000005" lon="7.122300000000001">
    <ele>580.1800000000001</ele>
   </trkpt>
   <trkpt lat="46.869620000000005" lon="7.1222900000000005">
    <ele>580.1500000000001</ele>
   </trkpt>
   <trkpt lat="46.86925" lon="7.12234">
    <ele>580.0300000000001</ele>
   </trkpt>
   <trkpt lat="46.8686" lon="7.122520000000001">
    <ele>579.26</ele>
   </trkpt>
   <trkpt lat="46.868590000000005" lon="7.1225000000000005">
    <ele>579.26</ele>
   </trkpt>
   <trkpt lat="46.86854" lon="7.12246">
    <ele>579.1</ele>
   </trkpt>
   <trkpt lat="46.868500000000004" lon="7.12248">
    <ele>579.0500000000001</ele>
   </trkpt>
   <trkpt lat="46.868480000000005" lon="7.12255">
    <ele>579.0500000000001</ele>
   </trkpt>
   <trkpt lat="46.86783000018449" lon="7.122745002355675">
    <ele>578.2900000000001</ele>
   </trkpt>
   <trkpt lat="46.867180000000005" lon="7.122940000000001">
    <ele>577.33</ele>
   </trkpt>
   <trkpt lat="46.8663300008197" lon="7.123355006537308">
    <ele>574.37</ele>
   </trkpt>
   <trkpt lat="46.865480000000005" lon="7.12377">
    <ele>572.6800000000001</ele>
   </trkpt>
   <trkpt lat="46.86544000000001" lon="7.1237">
    <ele>572.6800000000001</ele>
   </trkpt>
   <trkpt lat="46.865390000000005" lon="7.123690000000001">
    <ele>572.3600000000001</ele>
   </trkpt>
   <trkpt lat="46.86534" lon="7.123740000000001">
    <ele>572.3600000000001</ele>
   </trkpt>
   <trkpt lat="46.865320000000004" lon="7.123830000000001">
    <ele>572.3600000000001</ele>
   </trkpt>
   <trkpt lat="46.8652" lon="7.123880000000001">
    <ele>572.09</ele>
   </trkpt>
   <trkpt lat="46.86451500065821" lon="7.124105008614001">
    <ele>570.21</ele>
   </trkpt>
   <trkpt lat="46.86383000087556" lon="7.124330011485823">
    <ele>568.6</ele>
   </trkpt>
   <trkpt lat="46.86314500065204" lon="7.124555008615744">
    <ele>568.4100000000001</ele>
   </trkpt>
   <trkpt lat="46.862460000000006" lon="7.12478">
    <ele>568.74</ele>
   </trkpt>
   <trkpt lat="46.86206000000001" lon="7.12483">
    <ele>568.98</ele>
   </trkpt>
   <trkpt lat="46.861320000000006" lon="7.1247300000000005">
    <ele>569.5400000000001</ele>
   </trkpt>
   <trkpt lat="46.86093" lon="7.12478">
    <ele>569.6</ele>
   </trkpt>
   <trkpt lat="46.86094000000001" lon="7.124770000000001">
    <ele>569.6</ele>
   </trkpt>
   <trkpt lat="46.86046" lon="7.124980000000001">
    <ele>569.6800000000001</ele>
   </trkpt>
   <trkpt lat="46.85997000008005" lon="7.12521000216957">
    <ele>569.89</ele>
   </trkpt>
   <trkpt lat="46.859480000000005" lon="7.12544">
    <ele>570.52</ele>
   </trkpt>
   <trkpt lat="46.859480000000005" lon="7.1255500000000005">
    <ele>570.64</ele>
   </trkpt>
   <trkpt lat="46.859440000000006" lon="7.125630000000001">
    <ele>570.64</ele>
   </trkpt>
   <trkpt lat="46.8594" lon="7.12565">
    <ele>570.64</ele>
   </trkpt>
   <trkpt lat="46.85934" lon="7.12565">
    <ele>570.1400000000001</ele>
   </trkpt>
   <trkpt lat="46.859280000000005" lon="7.12558">
    <ele>570.1400000000001</ele>
   </trkpt>
   <trkpt lat="46.8592" lon="7.12565">
    <ele>570.1400000000001</ele>
   </trkpt>
   <trkpt lat="46.85909" lon="7.125780000000001">
    <ele>570.25</ele>
   </trkpt>
   <trkpt lat="46.859" lon="7.12591">
    <ele>570.3900000000001</ele>
   </trkpt>
   <trkpt lat="46.858470000000004" lon="7.126950000000001">
    <ele>572.72</ele>
   </trkpt>
   <trkpt lat="46.85826" lon="7.12736">
    <ele>574.0</ele>
   </trkpt>
   <trkpt lat="46.858000000000004" lon="7.127750000000001">
    <ele>574.8100000000001</ele>
   </trkpt>
   <trkpt lat="46.85775" lon="7.1280600000000005">
    <ele>575.83</ele>
   </trkpt>
   <trkpt lat="46.85736000000001" lon="7.128400000000001">
    <ele>576.49</ele>
   </trkpt>
   <trkpt lat="46.85705" lon="7.1286000000000005">
    <ele>576.76</ele>
   </trkpt>
   <trkpt lat="46.85650000044522" lon="7.128920003277961">
    <ele>577.2400000000001</ele>
   </trkpt>
   <trkpt lat="46.85595000000001" lon="7.12924">
    <ele>577.3600000000001</ele>
   </trkpt>
   <trkpt lat="46.85558" lon="7.129530000000001">
    <ele>577.86</ele>
   </trkpt>
   <trkpt lat="46.855140000000006" lon="7.1301000000000005">
    <ele>578.76</ele>
   </trkpt>
   <trkpt lat="46.8549" lon="7.13048">
    <ele>579.47</ele>
   </trkpt>
   <trkpt lat="46.854560000000006" lon="7.13095">
    <ele>580.3900000000001</ele>
   </trkpt>
   <trkpt lat="46.85427000000001" lon="7.13128">
    <ele>581.04</ele>
   </trkpt>
   <trkpt lat="46.854000000000006" lon="7.131530000000001">
    <ele>581.1800000000001</ele>
   </trkpt>
   <trkpt lat="46.853530000000006" lon="7.13187">
    <ele>580.5400000000001</ele>
   </trkpt>
   <trkpt lat="46.85307000009831" lon="7.132100002036051">
    <ele>579.22</ele>
   </trkpt>
   <trkpt lat="46.852610000000006" lon="7.1323300000000005">
    <ele>576.74</ele>
   </trkpt>
   <trkpt lat="46.852270000000004" lon="7.132560000000001">
    <ele>574.1400000000001</ele>
   </trkpt>
   <trkpt lat="46.85202" lon="7.1328000000000005">
    <ele>570.72</ele>
   </trkpt>
   <trkpt lat="46.851690000000005" lon="7.13323">
    <ele>570.72</ele>
   </trkpt>
   <trkpt lat="46.851385001386916" lon="7.133805003364721">
    <ele>564.67</ele>
   </trkpt>
   <trkpt lat="46.85108" lon="7.13438">
    <ele>562.55</ele>
   </trkpt>
   <trkpt lat="46.85087" lon="7.134640000000001">
    <ele>559.95</ele>
   </trkpt>
   <trkpt lat="46.85063" lon="7.1348400000000005">
    <ele>557.6300000000001</ele>
   </trkpt>
   <trkpt lat="46.85004000000001" lon="7.135140000000001">
    <ele>551.44</ele>
   </trkpt>
   <trkpt lat="46.84993" lon="7.135210000000001">
    <ele>551.44</ele>
   </trkpt>
   <trkpt lat="46.84982" lon="7.1353100000000005">
    <ele>550.19</ele>
   </trkpt>
   <trkpt lat="46.849610000000006" lon="7.13557">
    <ele>546.67</ele>
   </trkpt>
   <trkpt lat="46.849133337301595" lon="7.136243345256021">
    <ele>542.86</ele>
   </trkpt>
   <trkpt lat="46.84865667065489" lon="7.136916678560988">
    <ele>541.0</ele>
   </trkpt>
   <trkpt lat="46.848180000000006" lon="7.13759">
    <ele>540.5500000000001</ele>
   </trkpt>
   <trkpt lat="46.84761" lon="7.138350000000001">
    <ele>540.8000000000001</ele>
   </trkpt>
   <trkpt lat="46.84725" lon="7.138750000000001">
    <ele>541.35</ele>
   </trkpt>
   <trkpt lat="46.84711" lon="7.138870000000001">
    <ele>541.58</ele>
   </trkpt>
   <trkpt lat="46.84667" lon="7.13919">
    <ele>542.39</ele>
   </trkpt>
   <trkpt lat="46.846230000000006" lon="7.1394400000000005">
    <ele>543.62</ele>
   </trkpt>
   <trkpt lat="46.84611" lon="7.13949">
    <ele>544.1600000000001</ele>
   </trkpt>
   <trkpt lat="46.84593" lon="7.1395100000000005">
    <ele>544.3100000000001</ele>
   </trkpt>
   <trkpt lat="46.8453" lon="7.139480000000001">
    <ele>545.03</ele>
   </trkpt>
   <trkpt lat="46.84489000000001" lon="7.139430000000001">
    <ele>545.24</ele>
   </trkpt>
   <trkpt lat="46.84422000000001" lon="7.1392500000000005">
    <ele>546.08</ele>
   </trkpt>
   <trkpt lat="46.844010000000004" lon="7.13919">
    <ele>546.22</ele>
   </trkpt>
   <trkpt lat="46.84387" lon="7.139130000000001">
    <ele>546.4100000000001</ele>
   </trkpt>
   <trkpt lat="46.84364" lon="7.138960000000001">
    <ele>546.8100000000001</ele>
   </trkpt>
   <trkpt lat="46.84326000074194" lon="7.138544997055875">
    <ele>546.76</ele>
   </trkpt>
   <trkpt lat="46.84288" lon="7.13813">
    <ele>544.6800000000001</ele>
   </trkpt>
   <trkpt lat="46.84257" lon="7.13785">
    <ele>543.25</ele>
   </trkpt>
   <trkpt lat="46.84246" lon="7.13778">
    <ele>542.37</ele>
   </trkpt>
   <trkpt lat="46.84199" lon="7.137560000000001">
    <ele>540.8900000000001</ele>
   </trkpt>
   <trkpt lat="46.84161" lon="7.137340000000001">
    <ele>538.37</ele>
   </trkpt>
   <trkpt lat="46.841260000000005" lon="7.1371">
    <ele>537.5500000000001</ele>
   </trkpt>
   <trkpt lat="46.84109" lon="7.1370700000000005">
    <ele>537.47</ele>
   </trkpt>
   <trkpt lat="46.84098" lon="7.137090000000001">
    <ele>537.27</ele>
   </trkpt>
   <trkpt lat="46.840880000000006" lon="7.13717">
    <ele>537.1400000000001</ele>
   </trkpt>
   <trkpt lat="46.84084000000001" lon="7.13726">
    <ele>537.08</ele>
   </trkpt>
   <trkpt lat="46.840810000000005" lon="7.13738">
    <ele>537.08</ele>
   </trkpt>
   <trkpt lat="46.840810000000005" lon="7.137840000000001">
    <ele>539.39</ele>
   </trkpt>
   <trkpt lat="46.84076" lon="7.138020000000001">
    <ele>540.58</ele>
   </trkpt>
   <trkpt lat="46.840680000000006" lon="7.1381000000000006">
    <ele>541.5600000000001</ele>
   </trkpt>
   <trkpt lat="46.84058" lon="7.138140000000001">
    <ele>543.7700000000001</ele>
   </trkpt>
   <trkpt lat="46.840230000000005" lon="7.13815">
    <ele>546.96</ele>
   </trkpt>
   <trkpt lat="46.84006" lon="7.13813">
    <ele>548.1600000000001</ele>
   </trkpt>
   <trkpt lat="46.83955" lon="7.13799">
    <ele>555.4100000000001</ele>
   </trkpt>
   <trkpt lat="46.83937" lon="7.137980000000001">
    <ele>556.84</ele>
   </trkpt>
   <trkpt lat="46.83921" lon="7.13804">
    <ele>557.71</ele>
   </trkpt>
   <trkpt lat="46.83869000000001" lon="7.138310000000001">
    <ele>563.6000000000001</ele>
   </trkpt>
   <trkpt lat="46.838460000000005" lon="7.13848">
    <ele>565.91</ele>
   </trkpt>
   <trkpt lat="46.83831000000001" lon="7.1386400000000005">
    <ele>567.5400000000001</ele>
   </trkpt>
   <trkpt lat="46.837830000000004" lon="7.139290000000001">
    <ele>573.08</ele>
   </trkpt>
   <trkpt lat="46.83764" lon="7.13947">
    <ele>574.49</ele>
   </trkpt>
   <trkpt lat="46.83711" lon="7.13984">
    <ele>576.3000000000001</ele>
   </trkpt>
   <trkpt lat="46.83679" lon="7.139990000000001">
    <ele>576.8199999999999</ele>
   </trkpt>
   <trkpt lat="46.83617" lon="7.140130000000001">
    <ele>578.28</ele>
   </trkpt>
   <trkpt lat="46.835980000000006" lon="7.1401900000000005">
    <ele>578.89</ele>
   </trkpt>
   <trkpt lat="46.8357" lon="7.140350000000001">
    <ele>579.21</ele>
   </trkpt>
   <trkpt lat="46.835170000000005" lon="7.140720000000001">
    <ele>581.5100000000001</ele>
   </trkpt>
   <trkpt lat="46.83469" lon="7.141030000000001">
    <ele>586.01</ele>
   </trkpt>
   <trkpt lat="46.834540000000004" lon="7.141100000000001">
    <ele>586.9300000000001</ele>
   </trkpt>
   <trkpt lat="46.83446000000001" lon="7.14111">
    <ele>586.9300000000001</ele>
   </trkpt>
   <trkpt lat="46.834340000000005" lon="7.1410800000000005">
    <ele>587.62</ele>
   </trkpt>
   <trkpt lat="46.83428000000001" lon="7.14104">
    <ele>587.62</ele>
   </trkpt>
   <trkpt lat="46.83418" lon="7.140910000000001">
    <ele>587.62</ele>
   </trkpt>
   <trkpt lat="46.83413" lon="7.140790000000001">
    <ele>590.7</ele>
   </trkpt>
   <trkpt lat="46.83394000190474" lon="7.140124997575804">
    <ele>594.1</ele>
   </trkpt>
   <trkpt lat="46.83375" lon="7.139460000000001">
    <ele>596.8500000000001</ele>
   </trkpt>
   <trkpt lat="46.833670000000005" lon="7.139360000000001">
    <ele>598.5600000000001</ele>
   </trkpt>
   <trkpt lat="46.83357" lon="7.139390000000001">
    <ele>598.58</ele>
   </trkpt>
   <trkpt lat="46.83353" lon="7.13947">
    <ele>599.47</ele>
   </trkpt>
   <trkpt lat="46.833510000000004" lon="7.13963">
    <ele>600.32</ele>
   </trkpt>
   <trkpt lat="46.8335" lon="7.14057">
    <ele>604.1800000000001</ele>
   </trkpt>
   <trkpt lat="46.83346" lon="7.14085">
    <ele>605.7800000000001</ele>
   </trkpt>
   <trkpt lat="46.83341" lon="7.140950000000001">
    <ele>605.7800000000001</ele>
   </trkpt>
   <trkpt lat="46.83335" lon="7.14102">
    <ele>605.7800000000001</ele>
   </trkpt>
   <trkpt lat="46.8326766690782" lon="7.141543346426262">
    <ele>611.57</ele>
   </trkpt>
   <trkpt lat="46.83200333577118" lon="7.142066679738912">
    <ele>614.94</ele>
   </trkpt>
   <trkpt lat="46.83133" lon="7.14259">
    <ele>614.1500000000001</ele>
   </trkpt>
   <trkpt lat="46.83109" lon="7.142710000000001">
    <ele>612.75</ele>
   </trkpt>
   <trkpt lat="46.83090000000001" lon="7.1427700000000005">
    <ele>612.4200000000001</ele>
   </trkpt>
   <trkpt lat="46.83041000009257" lon="7.142870000901674">
    <ele>611.02</ele>
   </trkpt>
   <trkpt lat="46.82992" lon="7.142970000000001">
    <ele>610.59</ele>
   </trkpt>
   <trkpt lat="46.82972" lon="7.14303">
    <ele>610.7600000000001</ele>
   </trkpt>
   <trkpt lat="46.82940000000001" lon="7.1432">
    <ele>611.82</ele>
   </trkpt>
   <trkpt lat="46.82920000000001" lon="7.143350000000001">
    <ele>612.44</ele>
   </trkpt>
   <trkpt lat="46.829010000000004" lon="7.1435200000000005">
    <ele>613.96</ele>
   </trkpt>
   <trkpt lat="46.82882" lon="7.14376">
    <ele>614.83</ele>
   </trkpt>
   <trkpt lat="46.828630000000004" lon="7.1440600000000005">
    <ele>615.14</ele>
   </trkpt>
   <trkpt lat="46.82838" lon="7.144590000000001">
    <ele>615.41</ele>
   </trkpt>
   <trkpt lat="46.82827" lon="7.1447400000000005">
    <ele>615.2700000000001</ele>
   </trkpt>
   <trkpt lat="46.828230000000005" lon="7.14484">
    <ele>615.1800000000001</ele>
   </trkpt>
   <trkpt lat="46.828140000000005" lon="7.144880000000001">
    <ele>614.92</ele>
   </trkpt>
   <trkpt lat="46.828100000000006" lon="7.144940000000001">
    <ele>614.92</ele>
   </trkpt>
   <trkpt lat="46.82808000000001" lon="7.145060000000001">
    <ele>614.5400000000001</ele>
   </trkpt>
   <trkpt lat="46.828100000000006" lon="7.145160000000001">
    <ele>614.5400000000001</ele>
   </trkpt>
   <trkpt lat="46.82799000000001" lon="7.145460000000001">
    <ele>613.85</ele>
   </trkpt>
   <trkpt lat="46.827690000000004" lon="7.145860000000001">
    <ele>611.3100000000001</ele>
   </trkpt>
   <trkpt lat="46.82719500106508" lon="7.1463350042949045">
    <ele>605.4300000000001</ele>
   </trkpt>
   <trkpt lat="46.8267" lon="7.14681">
    <ele>601.21</ele>
   </trkpt>
   <trkpt lat="46.82641" lon="7.147050000000001">
    <ele>599.84</ele>
   </trkpt>
   <trkpt lat="46.826420000000006" lon="7.14719">
    <ele>599.0600000000001</ele>
   </trkpt>
   <trkpt lat="46.82638" lon="7.147270000000001">
    <ele>599.0600000000001</ele>
   </trkpt>
   <trkpt lat="46.82629000000001" lon="7.1473">
    <ele>599.1800000000001</ele>
   </trkpt>
   <trkpt lat="46.82623" lon="7.147240000000001">
    <ele>599.1800000000001</ele>
   </trkpt>
   <trkpt lat="46.8256000046411" lon="7.147837521028694">
    <ele>596.5100000000001</ele>
   </trkpt>
   <trkpt lat="46.824970006172926" lon="7.148435028052222">
    <ele>595.87</ele>
   </trkpt>
   <trkpt lat="46.824340004595605" lon="7.1490325210711525">
    <ele>595.4</ele>
   </trkpt>
   <trkpt lat="46.823710000000005" lon="7.14963">
    <ele>594.75</ele>
   </trkpt>
   <trkpt lat="46.823440000000005" lon="7.149900000000001">
    <ele>594.9100000000001</ele>
   </trkpt>
   <trkpt lat="46.82338000000001" lon="7.149830000000001">
    <ele>594.9100000000001</ele>
   </trkpt>
   <trkpt lat="46.82334" lon="7.149820000000001">
    <ele>594.9100000000001</ele>
   </trkpt>
   <trkpt lat="46.82327" lon="7.14986">
    <ele>594.96</ele>
   </trkpt>
   <trkpt lat="46.82323" lon="7.1499500000000005">
    <ele>594.96</ele>
   </trkpt>
   <trkpt lat="46.82323" lon="7.150030000000001">
    <ele>595.1200000000001</ele>
   </trkpt>
   <trkpt lat="46.82303" lon="7.15024">
    <ele>595.01</ele>
   </trkpt>
   <trkpt lat="46.82230500605247" lon="7.150920027498629">
    <ele>595.9000000000001</ele>
   </trkpt>
   <trkpt lat="46.821580008077675" lon="7.1516000366569">
    <ele>596.6600000000001</ele>
   </trkpt>
   <trkpt lat="46.820855006075824" lon="7.152280027475666">
    <ele>597.6700000000001</ele>
   </trkpt>
   <trkpt lat="46.820130000000006" lon="7.15296">
    <ele>599.13</ele>
   </trkpt>
   <trkpt lat="46.82003" lon="7.153040000000001">
    <ele>599.3000000000001</ele>
   </trkpt>
   <trkpt lat="46.819950000000006" lon="7.153020000000001">
    <ele>599.5500000000001</ele>
   </trkpt>
   <trkpt lat="46.819900000000004" lon="7.153060000000001">
    <ele>599.5500000000001</ele>
   </trkpt>
   <trkpt lat="46.81987" lon="7.153110000000001">
    <ele>599.6800000000001</ele>
   </trkpt>
   <trkpt lat="46.81985" lon="7.153200000000001">
    <ele>599.6800000000001</ele>
   </trkpt>
   <trkpt lat="46.819520000000004" lon="7.153480000000001">
    <ele>600.01</ele>
   </trkpt>
   <trkpt lat="46.819" lon="7.153830000000001">
    <ele>600.2</ele>
   </trkpt>
   <trkpt lat="46.81870000000001" lon="7.1539600000000005">
    <ele>600.4900000000001</ele>
   </trkpt>
   <trkpt lat="46.818580000000004" lon="7.154000000000001">
    <ele>600.6</ele>
   </trkpt>
   <trkpt lat="46.81774" lon="7.154420000000001">
    <ele>603.31</ele>
   </trkpt>
   <trkpt lat="46.817690000000006" lon="7.15446">
    <ele>603.31</ele>
   </trkpt>
   <trkpt lat="46.81759" lon="7.154610000000001">
    <ele>603.6600000000001</ele>
   </trkpt>
   <trkpt lat="46.816986667378906" lon="7.154900006517371">
    <ele>604.3900000000001</ele>
   </trkpt>
   <trkpt lat="46.81638333402535" lon="7.1551900065269916">
    <ele>604.9100000000001</ele>
   </trkpt>
   <trkpt lat="46.815780000000004" lon="7.155480000000001">
    <ele>605.33</ele>
   </trkpt>
   <trkpt lat="46.81552000000001" lon="7.155620000000001">
    <ele>605.59</ele>
   </trkpt>
   <trkpt lat="46.81528" lon="7.155830000000001">
    <ele>605.89</ele>
   </trkpt>
   <trkpt lat="46.81481500231702" lon="7.1565550062251315">
    <ele>606.5400000000001</ele>
   </trkpt>
   <trkpt lat="46.814350000000005" lon="7.157280000000001">
    <ele>604.58</ele>
   </trkpt>
   <trkpt lat="46.81419" lon="7.157470000000001">
    <ele>603.7300000000001</ele>
   </trkpt>
   <trkpt lat="46.814040000000006" lon="7.15758">
    <ele>603.7300000000001</ele>
   </trkpt>
   <trkpt lat="46.813660000000006" lon="7.158130000000001">
    <ele>601.13</ele>
   </trkpt>
   <trkpt lat="46.81342" lon="7.15831">
    <ele>599.1800000000001</ele>
   </trkpt>
   <trkpt lat="46.813250000000004" lon="7.15831">
    <ele>598.13</ele>
   </trkpt>
   <trkpt lat="46.81318" lon="7.15828">
    <ele>597.46</ele>
   </trkpt>
   <trkpt lat="46.812470000000005" lon="7.1578100000000004">
    <ele>593.22</ele>
   </trkpt>
   <trkpt lat="46.81233" lon="7.15774">
    <ele>589.7900000000001</ele>
   </trkpt>
   <trkpt lat="46.812000000000005" lon="7.157640000000001">
    <ele>588.31</ele>
   </trkpt>
   <trkpt lat="46.8117" lon="7.157640000000001">
    <ele>587.1</ele>
   </trkpt>
   <trkpt lat="46.81163" lon="7.1576900000000006">
    <ele>587.1</ele>
   </trkpt>
   <trkpt lat="46.811530000000005" lon="7.15772">
    <ele>587.1500000000001</ele>
   </trkpt>
   <trkpt lat="46.81129000000001" lon="7.157760000000001">
    <ele>586.4100000000001</ele>
   </trkpt>
   <trkpt lat="46.81112" lon="7.15774">
    <ele>585.86</ele>
   </trkpt>
   <trkpt lat="46.81067" lon="7.157920000000001">
    <ele>587.32</ele>
   </trkpt>
   <trkpt lat="46.810320000000004" lon="7.1580200000000005">
    <ele>587.53</ele>
   </trkpt>
   <trkpt lat="46.809670000000004" lon="7.15831">
    <ele>588.95</ele>
   </trkpt>
   <trkpt lat="46.80895" lon="7.158570000000001">
    <ele>591.1</ele>
   </trkpt>
   <trkpt lat="46.80846500022408" lon="7.158800002076846">
    <ele>593.75</ele>
   </trkpt>
   <trkpt lat="46.80798" lon="7.1590300000000004">
    <ele>596.75</ele>
   </trkpt>
   <trkpt lat="46.807880000000004" lon="7.1591000000000005">
    <ele>597.04</ele>
   </trkpt>
   <trkpt lat="46.807590000000005" lon="7.1596">
    <ele>598.2</ele>
   </trkpt>
   <trkpt lat="46.807460000000006" lon="7.16011">
    <ele>596.97</ele>
   </trkpt>
   <trkpt lat="46.807390000000005" lon="7.160270000000001">
    <ele>595.21</ele>
   </trkpt>
   <trkpt lat="46.80705000122202" lon="7.160795003284787">
    <ele>591.6300000000001</ele>
   </trkpt>
   <trkpt lat="46.80671" lon="7.161320000000001">
    <ele>589.8000000000001</ele>
   </trkpt>
   <trkpt lat="46.806540000000005" lon="7.161760000000001">
    <ele>588.9100000000001</ele>
   </trkpt>
   <trkpt lat="46.806490000000004" lon="7.16173">
    <ele>588.9100000000001</ele>
   </trkpt>
   <trkpt lat="46.80644" lon="7.161760000000001">
    <ele>588.97</ele>
   </trkpt>
   <trkpt lat="46.806430000000006" lon="7.161790000000001">
    <ele>588.97</ele>
   </trkpt>
   <trkpt lat="46.80630000000001" lon="7.161720000000001">
    <ele>589.21</ele>
   </trkpt>
   <trkpt lat="46.80624" lon="7.16166">
    <ele>589.4</ele>
   </trkpt>
   <trkpt lat="46.805910000000004" lon="7.161060000000001">
    <ele>591.09</ele>
   </trkpt>
   <trkpt lat="46.805640000000004" lon="7.1603900000000005">
    <ele>592.9100000000001</ele>
   </trkpt>
   <trkpt lat="46.805080000000004" lon="7.159440000000001">
    <ele>599.01</ele>
   </trkpt>
   <trkpt lat="46.80496" lon="7.159190000000001">
    <ele>599.35</ele>
   </trkpt>
   <trkpt lat="46.80463000401584" lon="7.158229994118529">
    <ele>605.34</ele>
   </trkpt>
   <trkpt lat="46.804300000000005" lon="7.1572700000000005">
    <ele>611.44</ele>
   </trkpt>
   <trkpt lat="46.804230000000004" lon="7.15699">
    <ele>612.77</ele>
   </trkpt>
   <trkpt lat="46.804230000000004" lon="7.156200000000001">
    <ele>615.62</ele>
   </trkpt>
   <trkpt lat="46.804300000000005" lon="7.156180000000001">
    <ele>615.6</ele>
   </trkpt>
   <trkpt lat="46.804320000000004" lon="7.156110000000001">
    <ele>616.01</ele>
   </trkpt>
   <trkpt lat="46.804300000000005" lon="7.156040000000001">
    <ele>616.01</ele>
   </trkpt>
   <trkpt lat="46.804570000000005" lon="7.155740000000001">
    <ele>616.56</ele>
   </trkpt>
   <trkpt lat="46.804640000000006" lon="7.155690000000001">
    <ele>616.7600000000001</ele>
   </trkpt>
  </trkseg>
 </trk>
</gpx>
