<?xml version="1.0" encoding="UTF-8"?>
<gpx creator="StravaGPX" version="1.1" xmlns="http://www.topografix.com/GPX/1/1" xmlns:xsi="http://www.w3.org/2001/XMLSchema-instance" xsi:schemaLocation="http://www.topografix.com/GPX/1/1 http://www.topografix.com/GPX/1/1/gpx.xsd">
 <metadata>
  <name>GPMF-18.03.2026</name>
  <author>
   <name>Jérémie Schouwey</name>
   <link href="https://www.strava.com/athletes/45886502"/>
  </author>
  <copyright author="OpenStreetMap contributors">
   <year>2020</year>
   <license>https://www.openstreetmap.org/copyright</license>
  </copyright>
  <link href="https://www.strava.com/routes/3469326532759572796"/>
 </metadata>
 <trk>
  <name>GPMF-18.03.2026</name>
  <link href="https://www.strava.com/routes/3469326532759572796"/>
  <type>running</type>
  <trkseg>
   <trkpt lat="46.799060000000004" lon="7.120680000000001">
    <ele>709.07</ele>
   </trkpt>
   <trkpt lat="46.79878" lon="7.120480000000001">
    <ele>709.2700000000001</ele>
   </trkpt>
   <trkpt lat="46.79805" lon="7.1207400000000005">
    <ele>709.1800000000001</ele>
   </trkpt>
   <trkpt lat="46.79804" lon="7.12058">
    <ele>709.76</ele>
   </trkpt>
   <trkpt lat="46.79796" lon="7.12009">
    <ele>710.38</ele>
   </trkpt>
   <trkpt lat="46.79796" lon="7.12002">
    <ele>710.38</ele>
   </trkpt>
   <trkpt lat="46.79798" lon="7.11997">
    <ele>710.38</ele>
   </trkpt>
   <trkpt lat="46.79793" lon="7.119890000000001">
    <ele>710.9700000000001</ele>
   </trkpt>
   <trkpt lat="46.79793" lon="7.119750000000001">
    <ele>711.19</ele>
   </trkpt>
   <trkpt lat="46.79798" lon="7.119680000000001">
    <ele>711.19</ele>
   </trkpt>
   <trkpt lat="46.797940000000004" lon="7.1196">
    <ele>711.7</ele>
   </trkpt>
   <trkpt lat="46.79793" lon="7.119540000000001">
    <ele>711.7</ele>
   </trkpt>
   <trkpt lat="46.797880000000006" lon="7.11896">
    <ele>712.23</ele>
   </trkpt>
   <trkpt lat="46.797880000000006" lon="7.118950000000001">
    <ele>712.23</ele>
   </trkpt>
   <trkpt lat="46.79787" lon="7.11873">
    <ele>712.5100000000001</ele>
   </trkpt>
   <trkpt lat="46.798100000000005" lon="7.117500000000001">
    <ele>714.3900000000001</ele>
   </trkpt>
   <trkpt lat="46.798140000000004" lon="7.1171500000000005">
    <ele>714.43</ele>
   </trkpt>
   <trkpt lat="46.79816" lon="7.1162600000000005">
    <ele>713.61</ele>
   </trkpt>
   <trkpt lat="46.79851500386547" lon="7.115315006297097">
    <ele>711.35</ele>
   </trkpt>
   <trkpt lat="46.79887" lon="7.114370000000001">
    <ele>709.96</ele>
   </trkpt>
   <trkpt lat="46.79916" lon="7.113900000000001">
    <ele>708.6500000000001</ele>
   </trkpt>
   <trkpt lat="46.79936000000001" lon="7.113550000000001">
    <ele>707.4200000000001</ele>
   </trkpt>
   <trkpt lat="46.79948" lon="7.1131400000000005">
    <ele>706.3900000000001</ele>
   </trkpt>
   <trkpt lat="46.7997" lon="7.1121300000000005">
    <ele>703.0500000000001</ele>
   </trkpt>
   <trkpt lat="46.79988" lon="7.11155">
    <ele>701.34</ele>
   </trkpt>
   <trkpt lat="46.80021000148129" lon="7.110945003917233">
    <ele>699.33</ele>
   </trkpt>
   <trkpt lat="46.800540000000005" lon="7.110340000000001">
    <ele>695.91</ele>
   </trkpt>
   <trkpt lat="46.800920000000005" lon="7.10986">
    <ele>693.13</ele>
   </trkpt>
   <trkpt lat="46.80136" lon="7.109420000000001">
    <ele>689.64</ele>
   </trkpt>
   <trkpt lat="46.80158" lon="7.10906">
    <ele>685.0500000000001</ele>
   </trkpt>
   <trkpt lat="46.80200000000001" lon="7.1079300000000005">
    <ele>674.71</ele>
   </trkpt>
   <trkpt lat="46.802110000000006" lon="7.107730000000001">
    <ele>673.0200000000001</ele>
   </trkpt>
   <trkpt lat="46.802550000000004" lon="7.10714">
    <ele>669.52</ele>
   </trkpt>
   <trkpt lat="46.802820000000004" lon="7.106700000000001">
    <ele>667.12</ele>
   </trkpt>
   <trkpt lat="46.802960000000006" lon="7.106560000000001">
    <ele>666.44</ele>
   </trkpt>
   <trkpt lat="46.803090000000005" lon="7.106960000000001">
    <ele>669.15</ele>
   </trkpt>
   <trkpt lat="46.80319" lon="7.1071800000000005">
    <ele>671.0500000000001</ele>
   </trkpt>
   <trkpt lat="46.80341000000001" lon="7.10751">
    <ele>673.4000000000001</ele>
   </trkpt>
   <trkpt lat="46.803290000000004" lon="7.107590000000001">
    <ele>674.4100000000001</ele>
   </trkpt>
   <trkpt lat="46.80344" lon="7.108480000000001">
    <ele>680.0600000000001</ele>
   </trkpt>
   <trkpt lat="46.80346" lon="7.10946">
    <ele>684.09</ele>
   </trkpt>
   <trkpt lat="46.80342" lon="7.109800000000001">
    <ele>684.8000000000001</ele>
   </trkpt>
   <trkpt lat="46.803360000000005" lon="7.110480000000001">
    <ele>686.1400000000001</ele>
   </trkpt>
   <trkpt lat="46.803340000000006" lon="7.1108400000000005">
    <ele>687.5100000000001</ele>
   </trkpt>
   <trkpt lat="46.80337" lon="7.1115">
    <ele>688.46</ele>
   </trkpt>
   <trkpt lat="46.803450000000005" lon="7.1126000000000005">
    <ele>690.8000000000001</ele>
   </trkpt>
   <trkpt lat="46.803625001864596" lon="7.113249997977452">
    <ele>692.1400000000001</ele>
   </trkpt>
   <trkpt lat="46.8038" lon="7.113900000000001">
    <ele>693.67</ele>
   </trkpt>
   <trkpt lat="46.80391" lon="7.114210000000001">
    <ele>693.9900000000001</ele>
   </trkpt>
   <trkpt lat="46.80393" lon="7.1144300000000005">
    <ele>694.5</ele>
   </trkpt>
   <trkpt lat="46.80402" lon="7.1147800000000005">
    <ele>695.01</ele>
   </trkpt>
   <trkpt lat="46.803990000000006" lon="7.115100000000001">
    <ele>696.4800000000001</ele>
   </trkpt>
   <trkpt lat="46.80404" lon="7.11554">
    <ele>696.9300000000001</ele>
   </trkpt>
   <trkpt lat="46.804030000000004" lon="7.1157200000000005">
    <ele>696.6000000000001</ele>
   </trkpt>
   <trkpt lat="46.80406000000001" lon="7.115850000000001">
    <ele>696.46</ele>
   </trkpt>
   <trkpt lat="46.80404" lon="7.115970000000001">
    <ele>696.46</ele>
   </trkpt>
   <trkpt lat="46.804050000000004" lon="7.116130000000001">
    <ele>696.37</ele>
   </trkpt>
   <trkpt lat="46.80409" lon="7.1163300000000005">
    <ele>696.3800000000001</ele>
   </trkpt>
   <trkpt lat="46.80407" lon="7.116740000000001">
    <ele>696.9200000000001</ele>
   </trkpt>
   <trkpt lat="46.80411" lon="7.117030000000001">
    <ele>697.2900000000001</ele>
   </trkpt>
   <trkpt lat="46.80409" lon="7.117500000000001">
    <ele>698.1</ele>
   </trkpt>
   <trkpt lat="46.804010000000005" lon="7.117590000000001">
    <ele>698.97</ele>
   </trkpt>
   <trkpt lat="46.80388000000001" lon="7.11784">
    <ele>699.72</ele>
   </trkpt>
   <trkpt lat="46.803740000000005" lon="7.11798">
    <ele>700.1500000000001</ele>
   </trkpt>
   <trkpt lat="46.803650000000005" lon="7.117540000000001">
    <ele>699.95</ele>
   </trkpt>
   <trkpt lat="46.80364" lon="7.11737">
    <ele>699.9000000000001</ele>
   </trkpt>
   <trkpt lat="46.80369" lon="7.11683">
    <ele>699.3600000000001</ele>
   </trkpt>
   <trkpt lat="46.803670000000004" lon="7.11648">
    <ele>699.11</ele>
   </trkpt>
   <trkpt lat="46.80348000219953" lon="7.115764997374348">
    <ele>698.9200000000001</ele>
   </trkpt>
   <trkpt lat="46.803290000000004" lon="7.115050000000001">
    <ele>699.62</ele>
   </trkpt>
   <trkpt lat="46.80324" lon="7.114990000000001">
    <ele>699.62</ele>
   </trkpt>
   <trkpt lat="46.80306" lon="7.11427">
    <ele>699.58</ele>
   </trkpt>
   <trkpt lat="46.80315" lon="7.114240000000001">
    <ele>698.9399999999999</ele>
   </trkpt>
   <trkpt lat="46.80306" lon="7.11427">
    <ele>699.58</ele>
   </trkpt>
   <trkpt lat="46.802860002660694" lon="7.113484996992387">
    <ele>698.57</ele>
   </trkpt>
   <trkpt lat="46.80266" lon="7.1127">
    <ele>697.98</ele>
   </trkpt>
   <trkpt lat="46.80243" lon="7.111870000000001">
    <ele>696.71</ele>
   </trkpt>
   <trkpt lat="46.80239" lon="7.11174">
    <ele>696.71</ele>
   </trkpt>
   <trkpt lat="46.8021" lon="7.11108">
    <ele>694.18</ele>
   </trkpt>
   <trkpt lat="46.802110000000006" lon="7.111090000000001">
    <ele>694.23</ele>
   </trkpt>
   <trkpt lat="46.80184500147412" lon="7.110484996746503">
    <ele>692.62</ele>
   </trkpt>
   <trkpt lat="46.80158" lon="7.10988">
    <ele>690.97</ele>
   </trkpt>
   <trkpt lat="46.80136" lon="7.109420000000001">
    <ele>689.64</ele>
   </trkpt>
   <trkpt lat="46.801230000000004" lon="7.1089">
    <ele>687.5300000000001</ele>
   </trkpt>
   <trkpt lat="46.801120000000004" lon="7.10871">
    <ele>686.67</ele>
   </trkpt>
   <trkpt lat="46.80089" lon="7.108420000000001">
    <ele>683.7800000000001</ele>
   </trkpt>
   <trkpt lat="46.800650000000005" lon="7.108230000000001">
    <ele>682.96</ele>
   </trkpt>
   <trkpt lat="46.80039000000001" lon="7.108110000000001">
    <ele>681.3</ele>
   </trkpt>
   <trkpt lat="46.800070000000005" lon="7.1080000000000005">
    <ele>679.91</ele>
   </trkpt>
   <trkpt lat="46.799420000000005" lon="7.1079300000000005">
    <ele>678.7200000000001</ele>
   </trkpt>
   <trkpt lat="46.798700000000004" lon="7.10796">
    <ele>678.1</ele>
   </trkpt>
   <trkpt lat="46.79814500004855" lon="7.107849998864582">
    <ele>678.0400000000001</ele>
   </trkpt>
   <trkpt lat="46.79759000000001" lon="7.107740000000001">
    <ele>678.27</ele>
   </trkpt>
   <trkpt lat="46.79751" lon="7.107740000000001">
    <ele>678.42</ele>
   </trkpt>
   <trkpt lat="46.79728" lon="7.107810000000001">
    <ele>679.1700000000001</ele>
   </trkpt>
   <trkpt lat="46.79712000000001" lon="7.1077900000000005">
    <ele>679.4</ele>
   </trkpt>
   <trkpt lat="46.79695" lon="7.107710000000001">
    <ele>680.0400000000001</ele>
   </trkpt>
   <trkpt lat="46.796580000000006" lon="7.107480000000001">
    <ele>679.9900000000001</ele>
   </trkpt>
   <trkpt lat="46.796220000000005" lon="7.107150000000001">
    <ele>680.19</ele>
   </trkpt>
   <trkpt lat="46.79616" lon="7.10707">
    <ele>680.37</ele>
   </trkpt>
   <trkpt lat="46.796150000000004" lon="7.10707">
    <ele>680.3800000000001</ele>
   </trkpt>
   <trkpt lat="46.79599" lon="7.10688">
    <ele>681.6300000000001</ele>
   </trkpt>
   <trkpt lat="46.795910000000006" lon="7.107730000000001">
    <ele>685.35</ele>
   </trkpt>
   <trkpt lat="46.795930000000006" lon="7.107850000000001">
    <ele>685.62</ele>
   </trkpt>
   <trkpt lat="46.79596" lon="7.10789">
    <ele>685.7200000000001</ele>
   </trkpt>
   <trkpt lat="46.796060000000004" lon="7.1079300000000005">
    <ele>685.91</ele>
   </trkpt>
   <trkpt lat="46.796060000000004" lon="7.10803">
    <ele>686.0200000000001</ele>
   </trkpt>
   <trkpt lat="46.79599" lon="7.108020000000001">
    <ele>685.5400000000001</ele>
   </trkpt>
   <trkpt lat="46.79585" lon="7.108320000000001">
    <ele>684.76</ele>
   </trkpt>
   <trkpt lat="46.79574" lon="7.108280000000001">
    <ele>684.7</ele>
   </trkpt>
   <trkpt lat="46.79567" lon="7.10801">
    <ele>683.59</ele>
   </trkpt>
   <trkpt lat="46.79556" lon="7.1078600000000005">
    <ele>683.1400000000001</ele>
   </trkpt>
   <trkpt lat="46.795460000000006" lon="7.107600000000001">
    <ele>681.91</ele>
   </trkpt>
   <trkpt lat="46.795410000000004" lon="7.107520000000001">
    <ele>680.8000000000001</ele>
   </trkpt>
   <trkpt lat="46.79471" lon="7.106980000000001">
    <ele>674.33</ele>
   </trkpt>
   <trkpt lat="46.794650000000004" lon="7.10695">
    <ele>674.33</ele>
   </trkpt>
   <trkpt lat="46.79459000000001" lon="7.10695">
    <ele>673.32</ele>
   </trkpt>
   <trkpt lat="46.79449" lon="7.107010000000001">
    <ele>672.74</ele>
   </trkpt>
   <trkpt lat="46.79444" lon="7.10707">
    <ele>672.49</ele>
   </trkpt>
   <trkpt lat="46.794410000000006" lon="7.1071800000000005">
    <ele>671.8400000000001</ele>
   </trkpt>
   <trkpt lat="46.794410000000006" lon="7.1072500000000005">
    <ele>671.8400000000001</ele>
   </trkpt>
   <trkpt lat="46.794320000000006" lon="7.107240000000001">
    <ele>671.98</ele>
   </trkpt>
   <trkpt lat="46.79431" lon="7.10709">
    <ele>672.3100000000001</ele>
   </trkpt>
   <trkpt lat="46.794320000000006" lon="7.106730000000001">
    <ele>672.08</ele>
   </trkpt>
   <trkpt lat="46.79430000000001" lon="7.106680000000001">
    <ele>671.86</ele>
   </trkpt>
   <trkpt lat="46.793980000000005" lon="7.106420000000001">
    <ele>667.61</ele>
   </trkpt>
   <trkpt lat="46.79388" lon="7.106380000000001">
    <ele>667.61</ele>
   </trkpt>
   <trkpt lat="46.793820000000004" lon="7.10639">
    <ele>667.61</ele>
   </trkpt>
   <trkpt lat="46.793730000000004" lon="7.106470000000001">
    <ele>667.03</ele>
   </trkpt>
   <trkpt lat="46.793670000000006" lon="7.10662">
    <ele>666.5300000000001</ele>
   </trkpt>
   <trkpt lat="46.79366" lon="7.10669">
    <ele>666.24</ele>
   </trkpt>
   <trkpt lat="46.79358001449351" lon="7.107980003836097">
    <ele>664.39</ele>
   </trkpt>
   <trkpt lat="46.79350001449343" lon="7.109270003837275">
    <ele>663.25</ele>
   </trkpt>
   <trkpt lat="46.793420000000005" lon="7.11056">
    <ele>659.03</ele>
   </trkpt>
   <trkpt lat="46.79339" lon="7.110550000000001">
    <ele>658.84</ele>
   </trkpt>
   <trkpt lat="46.79337" lon="7.110930000000001">
    <ele>656.6</ele>
   </trkpt>
   <trkpt lat="46.79339" lon="7.111560000000001">
    <ele>655.03</ele>
   </trkpt>
   <trkpt lat="46.793440000000004" lon="7.11202">
    <ele>654.0100000000001</ele>
   </trkpt>
   <trkpt lat="46.7935" lon="7.1122700000000005">
    <ele>653.88</ele>
   </trkpt>
   <trkpt lat="46.79357" lon="7.112520000000001">
    <ele>653.9100000000001</ele>
   </trkpt>
   <trkpt lat="46.79395" lon="7.113370000000001">
    <ele>656.72</ele>
   </trkpt>
   <trkpt lat="46.79388" lon="7.113480000000001">
    <ele>656.99</ele>
   </trkpt>
   <trkpt lat="46.793850000000006" lon="7.11359">
    <ele>657.1800000000001</ele>
   </trkpt>
   <trkpt lat="46.793870000000005" lon="7.11373">
    <ele>657.2900000000001</ele>
   </trkpt>
   <trkpt lat="46.793850000000006" lon="7.11406">
    <ele>657.36</ele>
   </trkpt>
   <trkpt lat="46.793490000000006" lon="7.1146">
    <ele>657.1600000000001</ele>
   </trkpt>
   <trkpt lat="46.79305" lon="7.114750000000001">
    <ele>656.97</ele>
   </trkpt>
   <trkpt lat="46.792439999935205" lon="7.114805000630421">
    <ele>661.32</ele>
   </trkpt>
   <trkpt lat="46.791830000000004" lon="7.11486">
    <ele>662.33</ele>
   </trkpt>
   <trkpt lat="46.79177000000001" lon="7.11493">
    <ele>662.36</ele>
   </trkpt>
   <trkpt lat="46.791720000000005" lon="7.1151100000000005">
    <ele>662.24</ele>
   </trkpt>
   <trkpt lat="46.79169" lon="7.115120000000001">
    <ele>662.24</ele>
   </trkpt>
   <trkpt lat="46.79169" lon="7.11516">
    <ele>662.03</ele>
   </trkpt>
   <trkpt lat="46.791340000000005" lon="7.115100000000001">
    <ele>658.4000000000001</ele>
   </trkpt>
   <trkpt lat="46.79110000000001" lon="7.115120000000001">
    <ele>657.32</ele>
   </trkpt>
   <trkpt lat="46.790910000000004" lon="7.11514">
    <ele>656.6200000000001</ele>
   </trkpt>
   <trkpt lat="46.790870000000005" lon="7.11516">
    <ele>656.6200000000001</ele>
   </trkpt>
   <trkpt lat="46.79077" lon="7.115240000000001">
    <ele>655.27</ele>
   </trkpt>
   <trkpt lat="46.79072" lon="7.115360000000001">
    <ele>655.27</ele>
   </trkpt>
   <trkpt lat="46.79053500442385" lon="7.116365003316501">
    <ele>648.24</ele>
   </trkpt>
   <trkpt lat="46.790350000000004" lon="7.11737">
    <ele>645.37</ele>
   </trkpt>
   <trkpt lat="46.790330000000004" lon="7.11758">
    <ele>645.48</ele>
   </trkpt>
   <trkpt lat="46.79034" lon="7.117680000000001">
    <ele>645.48</ele>
   </trkpt>
   <trkpt lat="46.790290000000006" lon="7.117800000000001">
    <ele>645.14</ele>
   </trkpt>
   <trkpt lat="46.79027000000001" lon="7.117920000000001">
    <ele>645.14</ele>
   </trkpt>
   <trkpt lat="46.79023" lon="7.117890000000001">
    <ele>645.36</ele>
   </trkpt>
   <trkpt lat="46.79027000000001" lon="7.117920000000001">
    <ele>645.14</ele>
   </trkpt>
   <trkpt lat="46.79025" lon="7.1180200000000005">
    <ele>644.87</ele>
   </trkpt>
   <trkpt lat="46.79019" lon="7.118060000000001">
    <ele>643.6200000000001</ele>
   </trkpt>
   <trkpt lat="46.78956" lon="7.118180000000001">
    <ele>637.2800000000001</ele>
   </trkpt>
   <trkpt lat="46.78958" lon="7.11856">
    <ele>636.95</ele>
   </trkpt>
   <trkpt lat="46.789260000000006" lon="7.1189100000000005">
    <ele>637.51</ele>
   </trkpt>
   <trkpt lat="46.788850000000004" lon="7.119790000000001">
    <ele>637.85</ele>
   </trkpt>
   <trkpt lat="46.788740000000004" lon="7.1200600000000005">
    <ele>638.1800000000001</ele>
   </trkpt>
   <trkpt lat="46.78918" lon="7.120340000000001">
    <ele>638.7400000000001</ele>
   </trkpt>
   <trkpt lat="46.789660000000005" lon="7.120870000000001">
    <ele>639.6200000000001</ele>
   </trkpt>
   <trkpt lat="46.789550000000006" lon="7.12105">
    <ele>640.35</ele>
   </trkpt>
   <trkpt lat="46.789280000000005" lon="7.122120000000001">
    <ele>647.2500000000001</ele>
   </trkpt>
   <trkpt lat="46.789120000000004" lon="7.12262">
    <ele>655.03</ele>
   </trkpt>
   <trkpt lat="46.789030000000004" lon="7.122820000000001">
    <ele>658.78</ele>
   </trkpt>
   <trkpt lat="46.78887" lon="7.123030000000001">
    <ele>661.19</ele>
   </trkpt>
   <trkpt lat="46.788650000000004" lon="7.1231800000000005">
    <ele>664.39</ele>
   </trkpt>
   <trkpt lat="46.78819000000001" lon="7.123590000000001">
    <ele>666.03</ele>
   </trkpt>
   <trkpt lat="46.78766" lon="7.124390000000001">
    <ele>661.27</ele>
   </trkpt>
   <trkpt lat="46.78755" lon="7.12452">
    <ele>659.49</ele>
   </trkpt>
   <trkpt lat="46.787490000000005" lon="7.124600000000001">
    <ele>658.3000000000001</ele>
   </trkpt>
   <trkpt lat="46.78728" lon="7.124770000000001">
    <ele>655.1</ele>
   </trkpt>
   <trkpt lat="46.787290000000006" lon="7.125190000000001">
    <ele>653.98</ele>
   </trkpt>
   <trkpt lat="46.78736000000001" lon="7.125780000000001">
    <ele>653.9</ele>
   </trkpt>
   <trkpt lat="46.787490000000005" lon="7.126580000000001">
    <ele>652.71</ele>
   </trkpt>
   <trkpt lat="46.787490000000005" lon="7.126570000000001">
    <ele>652.72</ele>
   </trkpt>
   <trkpt lat="46.787600000000005" lon="7.127260000000001">
    <ele>653.1600000000001</ele>
   </trkpt>
   <trkpt lat="46.787710000000004" lon="7.12769">
    <ele>653.96</ele>
   </trkpt>
   <trkpt lat="46.787890000000004" lon="7.127610000000001">
    <ele>655.6</ele>
   </trkpt>
   <trkpt lat="46.7879" lon="7.127630000000001">
    <ele>655.6</ele>
   </trkpt>
   <trkpt lat="46.78835" lon="7.12865">
    <ele>655.15</ele>
   </trkpt>
   <trkpt lat="46.7886" lon="7.129010000000001">
    <ele>655.4300000000001</ele>
   </trkpt>
   <trkpt lat="46.788810000000005" lon="7.12954">
    <ele>655.42</ele>
   </trkpt>
   <trkpt lat="46.788880000000006" lon="7.129840000000001">
    <ele>654.8900000000001</ele>
   </trkpt>
   <trkpt lat="46.788990000000005" lon="7.130190000000001">
    <ele>654.2900000000001</ele>
   </trkpt>
   <trkpt lat="46.78911" lon="7.130730000000001">
    <ele>652.96</ele>
   </trkpt>
   <trkpt lat="46.789260002758915" lon="7.131524997819325">
    <ele>652.42</ele>
   </trkpt>
   <trkpt lat="46.789410000000004" lon="7.132320000000001">
    <ele>653.05</ele>
   </trkpt>
   <trkpt lat="46.78989000000001" lon="7.132420000000001">
    <ele>658.15</ele>
   </trkpt>
   <trkpt lat="46.790330000000004" lon="7.132490000000001">
    <ele>662.66</ele>
   </trkpt>
   <trkpt lat="46.791030000000006" lon="7.13252">
    <ele>670.37</ele>
   </trkpt>
   <trkpt lat="46.79111602458355" lon="7.133707992394689">
    <ele>668.9300000000001</ele>
   </trkpt>
   <trkpt lat="46.791202036874985" lon="7.134895988586756">
    <ele>667.37</ele>
   </trkpt>
   <trkpt lat="46.791288036874214" lon="7.136083988575682">
    <ele>666.4300000000001</ele>
   </trkpt>
   <trkpt lat="46.79137402458119" lon="7.1372719923609464">
    <ele>665.78</ele>
   </trkpt>
   <trkpt lat="46.79146" lon="7.13846">
    <ele>666.81</ele>
   </trkpt>
   <trkpt lat="46.7914" lon="7.138520000000001">
    <ele>665.76</ele>
   </trkpt>
   <trkpt lat="46.79139000000001" lon="7.138610000000001">
    <ele>665.76</ele>
   </trkpt>
   <trkpt lat="46.791430000000005" lon="7.13869">
    <ele>665.6700000000001</ele>
   </trkpt>
   <trkpt lat="46.79149" lon="7.1387100000000006">
    <ele>665.6700000000001</ele>
   </trkpt>
   <trkpt lat="46.79162500170899" lon="7.139344998186219">
    <ele>667.1600000000001</ele>
   </trkpt>
   <trkpt lat="46.791760000000004" lon="7.13998">
    <ele>670.21</ele>
   </trkpt>
   <trkpt lat="46.79175" lon="7.13998">
    <ele>670.19</ele>
   </trkpt>
   <trkpt lat="46.79199000526335" lon="7.141074995308018">
    <ele>671.1</ele>
   </trkpt>
   <trkpt lat="46.79223" lon="7.142170000000001">
    <ele>671.34</ele>
   </trkpt>
   <trkpt lat="46.79229" lon="7.1422300000000005">
    <ele>671.46</ele>
   </trkpt>
   <trkpt lat="46.79238" lon="7.1422300000000005">
    <ele>671.46</ele>
   </trkpt>
   <trkpt lat="46.79245" lon="7.1421600000000005">
    <ele>671.6800000000001</ele>
   </trkpt>
   <trkpt lat="46.79269" lon="7.14193">
    <ele>671.91</ele>
   </trkpt>
   <trkpt lat="46.79287" lon="7.14193">
    <ele>671.35</ele>
   </trkpt>
   <trkpt lat="46.793060000000004" lon="7.141990000000001">
    <ele>670.1700000000001</ele>
   </trkpt>
   <trkpt lat="46.79327000000001" lon="7.142010000000001">
    <ele>668.51</ele>
   </trkpt>
   <trkpt lat="46.7937900000517" lon="7.1420299998086705">
    <ele>663.22</ele>
   </trkpt>
   <trkpt lat="46.79431" lon="7.14205">
    <ele>661.1400000000001</ele>
   </trkpt>
   <trkpt lat="46.79449" lon="7.142080000000001">
    <ele>660.78</ele>
   </trkpt>
   <trkpt lat="46.79491" lon="7.142180000000001">
    <ele>660.46</ele>
   </trkpt>
   <trkpt lat="46.7955000000345" lon="7.142334998282168">
    <ele>658.5300000000001</ele>
   </trkpt>
   <trkpt lat="46.79609000000001" lon="7.1424900000000004">
    <ele>653.97</ele>
   </trkpt>
   <trkpt lat="46.796110000000006" lon="7.14245">
    <ele>653.81</ele>
   </trkpt>
   <trkpt lat="46.79616" lon="7.14242">
    <ele>653.81</ele>
   </trkpt>
   <trkpt lat="46.79618000267674" lon="7.141635000557461">
    <ele>654.72</ele>
   </trkpt>
   <trkpt lat="46.796200000000006" lon="7.14085">
    <ele>655.6700000000001</ele>
   </trkpt>
   <trkpt lat="46.796150000000004" lon="7.139880000000001">
    <ele>657.21</ele>
   </trkpt>
   <trkpt lat="46.79607" lon="7.139060000000001">
    <ele>658.4100000000001</ele>
   </trkpt>
   <trkpt lat="46.79608" lon="7.138990000000001">
    <ele>659.75</ele>
   </trkpt>
   <trkpt lat="46.796130000000005" lon="7.1389000000000005">
    <ele>659.75</ele>
   </trkpt>
   <trkpt lat="46.79632" lon="7.138730000000001">
    <ele>660.49</ele>
   </trkpt>
   <trkpt lat="46.79641" lon="7.138610000000001">
    <ele>661.09</ele>
   </trkpt>
   <trkpt lat="46.79645000000001" lon="7.138510000000001">
    <ele>661.44</ele>
   </trkpt>
   <trkpt lat="46.79647000000001" lon="7.138090000000001">
    <ele>662.6200000000001</ele>
   </trkpt>
   <trkpt lat="46.796510000000005" lon="7.13778">
    <ele>663.1100000000001</ele>
   </trkpt>
   <trkpt lat="46.79647000000001" lon="7.137230000000001">
    <ele>664.9900000000001</ele>
   </trkpt>
   <trkpt lat="46.79634" lon="7.136660000000001">
    <ele>667.75</ele>
   </trkpt>
   <trkpt lat="46.79623" lon="7.136340000000001">
    <ele>669.12</ele>
   </trkpt>
   <trkpt lat="46.79583" lon="7.135560000000001">
    <ele>672.09</ele>
   </trkpt>
   <trkpt lat="46.79565" lon="7.135090000000001">
    <ele>673.52</ele>
   </trkpt>
   <trkpt lat="46.79552" lon="7.134830000000001">
    <ele>674.44</ele>
   </trkpt>
   <trkpt lat="46.79547" lon="7.134640000000001">
    <ele>676.37</ele>
   </trkpt>
   <trkpt lat="46.795440000000006" lon="7.1340900000000005">
    <ele>679.4100000000001</ele>
   </trkpt>
   <trkpt lat="46.79549" lon="7.13381">
    <ele>679.8900000000001</ele>
   </trkpt>
   <trkpt lat="46.79549" lon="7.133710000000001">
    <ele>680.44</ele>
   </trkpt>
   <trkpt lat="46.795390005708605" lon="7.132564997865424">
    <ele>683.9200000000001</ele>
   </trkpt>
   <trkpt lat="46.79529" lon="7.13142">
    <ele>686.49</ele>
   </trkpt>
   <trkpt lat="46.795230000000004" lon="7.1310400000000005">
    <ele>688.03</ele>
   </trkpt>
   <trkpt lat="46.79511" lon="7.13065">
    <ele>689.3</ele>
   </trkpt>
   <trkpt lat="46.79587" lon="7.130090000000001">
    <ele>695.37</ele>
   </trkpt>
   <trkpt lat="46.795930000000006" lon="7.13001">
    <ele>695.7700000000001</ele>
   </trkpt>
   <trkpt lat="46.795930000000006" lon="7.1299600000000005">
    <ele>695.7700000000001</ele>
   </trkpt>
   <trkpt lat="46.79589000000001" lon="7.1298900000000005">
    <ele>695.91</ele>
   </trkpt>
   <trkpt lat="46.796170000000004" lon="7.129340000000001">
    <ele>700.9300000000001</ele>
   </trkpt>
   <trkpt lat="46.79645000000001" lon="7.12912">
    <ele>705.11</ele>
   </trkpt>
   <trkpt lat="46.79656000000001" lon="7.1290000000000004">
    <ele>706.5100000000001</ele>
   </trkpt>
   <trkpt lat="46.796640000000004" lon="7.128850000000001">
    <ele>707.3600000000001</ele>
   </trkpt>
   <trkpt lat="46.79668" lon="7.128570000000001">
    <ele>707.8100000000001</ele>
   </trkpt>
   <trkpt lat="46.79668" lon="7.12825">
    <ele>709.44</ele>
   </trkpt>
   <trkpt lat="46.79675" lon="7.127910000000001">
    <ele>710.0000000000001</ele>
   </trkpt>
   <trkpt lat="46.79679" lon="7.127770000000001">
    <ele>710.37</ele>
   </trkpt>
   <trkpt lat="46.79703000000001" lon="7.12682">
    <ele>713.07</ele>
   </trkpt>
   <trkpt lat="46.797090000000004" lon="7.12635">
    <ele>715.25</ele>
   </trkpt>
   <trkpt lat="46.79702" lon="7.1256200000000005">
    <ele>717.23</ele>
   </trkpt>
   <trkpt lat="46.79690500507748" lon="7.124539997674117">
    <ele>718.7900000000001</ele>
   </trkpt>
   <trkpt lat="46.79679" lon="7.123460000000001">
    <ele>716.5</ele>
   </trkpt>
   <trkpt lat="46.796890000000005" lon="7.12255">
    <ele>714.45</ele>
   </trkpt>
   <trkpt lat="46.796980000000005" lon="7.122190000000001">
    <ele>713.5600000000001</ele>
   </trkpt>
   <trkpt lat="46.79701000000001" lon="7.122140000000001">
    <ele>713.5600000000001</ele>
   </trkpt>
   <trkpt lat="46.79726" lon="7.12194">
    <ele>710.43</ele>
   </trkpt>
   <trkpt lat="46.797470000000004" lon="7.121830000000001">
    <ele>710.43</ele>
   </trkpt>
   <trkpt lat="46.79789" lon="7.1216800000000005">
    <ele>709.62</ele>
   </trkpt>
   <trkpt lat="46.79793" lon="7.121650000000001">
    <ele>709.7800000000001</ele>
   </trkpt>
   <trkpt lat="46.79798" lon="7.121510000000001">
    <ele>709.7800000000001</ele>
   </trkpt>
   <trkpt lat="46.797990000000006" lon="7.121340000000001">
    <ele>709.0900000000001</ele>
   </trkpt>
   <trkpt lat="46.798140000000004" lon="7.121300000000001">
    <ele>708.77</ele>
   </trkpt>
   <trkpt lat="46.79806000000001" lon="7.120850000000001">
    <ele>709.45</ele>
   </trkpt>
   <trkpt lat="46.79805" lon="7.1207400000000005">
    <ele>709.45</ele>
   </trkpt>
   <trkpt lat="46.79878" lon="7.120480000000001">
    <ele>709.2700000000001</ele>
   </trkpt>
   <trkpt lat="46.7989" lon="7.12056">
    <ele>709.3600000000001</ele>
   </trkpt>
   <trkpt lat="46.79885" lon="7.12072">
    <ele>708.8700000000001</ele>
   </trkpt>
  </trkseg>
 </trk>
</gpx>
