<?xml version="1.0" encoding="UTF-8"?>
<gpx creator="Garmin Connect" version="1.1"
  xsi:schemaLocation="http://www.topografix.com/GPX/1/1 http://www.topografix.com/GPX/11.xsd"
  xmlns:ns3="http://www.garmin.com/xmlschemas/TrackPointExtension/v1"
  xmlns="http://www.topografix.com/GPX/1/1"
  xmlns:xsi="http://www.w3.org/2001/XMLSchema-instance" xmlns:ns2="http://www.garmin.com/xmlschemas/GpxExtensions/v3">
  <metadata>
    <name>GPMF_11.02.2026</name>
    <link href="connect.garmin.com">
      <text>Garmin Connect</text>
    </link>
    <time>2026-02-11T09:55:25.000Z</time>
  </metadata>
  <trk>
    <name>GPMF_11.02.2026</name>
    <trkseg>
      <trkpt lat="46.79906998760998" lon="7.120689935982227">
        <ele>709.57</ele>
      </trkpt>
      <trkpt lat="46.798924980685115" lon="7.120584910735488">
        <ele>709.98</ele>
      </trkpt>
      <trkpt lat="46.79877997376025" lon="7.12047996930778">
        <ele>710.37</ele>
      </trkpt>
      <trkpt lat="46.79853673093021" lon="7.120566554367542">
        <ele>710.87</ele>
      </trkpt>
      <trkpt lat="46.79829348810017" lon="7.120653223246336">
        <ele>711.47</ele>
      </trkpt>
      <trkpt lat="46.79804999381304" lon="7.120739975944161">
        <ele>712.05</ele>
      </trkpt>
      <trkpt lat="46.79803993552923" lon="7.120579965412617">
        <ele>712.52</ele>
      </trkpt>
      <trkpt lat="46.79799987003207" lon="7.120334375649691">
        <ele>712.94</ele>
      </trkpt>
      <trkpt lat="46.797959972172976" lon="7.1200899593532085">
        <ele>713.34</ele>
      </trkpt>
      <trkpt lat="46.797959972172976" lon="7.120019970461726">
        <ele>713.71</ele>
      </trkpt>
      <trkpt lat="46.797979921102524" lon="7.119969930499792">
        <ele>714.05</ele>
      </trkpt>
      <trkpt lat="46.79792996495962" lon="7.119889967143536">
        <ele>714.36</ele>
      </trkpt>
      <trkpt lat="46.79785997606814" lon="7.11989994160831">
        <ele>714.53</ele>
      </trkpt>
      <trkpt lat="46.79783994331956" lon="7.119749989360571">
        <ele>714.64</ele>
      </trkpt>
      <trkpt lat="46.79785997606814" lon="7.11989994160831">
        <ele>714.53</ele>
      </trkpt>
      <trkpt lat="46.79778998717666" lon="7.119929948821664">
        <ele>714.65</ele>
      </trkpt>
      <trkpt lat="46.797709772363305" lon="7.119549075141549">
        <ele>714.47</ele>
      </trkpt>
      <trkpt lat="46.79762997664511" lon="7.1191699616611">
        <ele>714.13</ele>
      </trkpt>
      <trkpt lat="46.79755479097366" lon="7.118944488465786">
        <ele>713.81</ele>
      </trkpt>
      <trkpt lat="46.79747994057834" lon="7.11871993727982">
        <ele>713.49</ele>
      </trkpt>
      <trkpt lat="46.79744993336499" lon="7.118679955601692">
        <ele>712.96</ele>
      </trkpt>
      <trkpt lat="46.79735999554396" lon="7.11862999945879">
        <ele>712.3</ele>
      </trkpt>
      <trkpt lat="46.79727994836867" lon="7.118549952283502">
        <ele>711.5</ele>
      </trkpt>
      <trkpt lat="46.79727994836867" lon="7.118489937856793">
        <ele>710.56</ele>
      </trkpt>
      <trkpt lat="46.79705673828721" lon="7.118523297831416">
        <ele>709.45</ele>
      </trkpt>
      <trkpt lat="46.79683352820575" lon="7.118556573987007">
        <ele>707.98</ele>
      </trkpt>
      <trkpt lat="46.79660998284817" lon="7.11858993396163">
        <ele>706.33</ele>
      </trkpt>
      <trkpt lat="46.796336732804775" lon="7.118623293936253">
        <ele>704.5</ele>
      </trkpt>
      <trkpt lat="46.796063566580415" lon="7.118656570091844">
        <ele>702.59</ele>
      </trkpt>
      <trkpt lat="46.795789981260896" lon="7.118689930066466">
        <ele>700.45</ele>
      </trkpt>
      <trkpt lat="46.79560507647693" lon="7.118679955601692">
        <ele>698.35</ele>
      </trkpt>
      <trkpt lat="46.79541992023587" lon="7.118669981136918">
        <ele>696.22</ele>
      </trkpt>
      <trkpt lat="46.79528991691768" lon="7.118619941174984">
        <ele>694.12</ele>
      </trkpt>
      <trkpt lat="46.79508992470801" lon="7.118449956178665">
        <ele>691.9</ele>
      </trkpt>
      <trkpt lat="46.79486973211169" lon="7.118164720013738">
        <ele>689.66</ele>
      </trkpt>
      <trkpt lat="46.794649958610535" lon="7.1178799867630005">
        <ele>687.53</ele>
      </trkpt>
      <trkpt lat="46.794609976932406" lon="7.117789965122938">
        <ele>685.65</ele>
      </trkpt>
      <trkpt lat="46.79463998414576" lon="7.117589972913265">
        <ele>683.84</ele>
      </trkpt>
      <trkpt lat="46.794779961928725" lon="7.117369947955012">
        <ele>682.23</ele>
      </trkpt>
      <trkpt lat="46.794799994677305" lon="7.117339940741658">
        <ele>680.74</ele>
      </trkpt>
      <trkpt lat="46.794799994677305" lon="7.117289984598756">
        <ele>679.34</ele>
      </trkpt>
      <trkpt lat="46.794889932498336" lon="7.117099966853857">
        <ele>678.04</ele>
      </trkpt>
      <trkpt lat="46.79493997246027" lon="7.117049926891923">
        <ele>676.8</ele>
      </trkpt>
      <trkpt lat="46.79498506709933" lon="7.11682939901948">
        <ele>675.53</ele>
      </trkpt>
      <trkpt lat="46.79502999410033" lon="7.116609960794449">
        <ele>674.31</ele>
      </trkpt>
      <trkpt lat="46.79504994302988" lon="7.116359928622842">
        <ele>673.11</ele>
      </trkpt>
      <trkpt lat="46.795039968565106" lon="7.116129929199815">
        <ele>671.97</ele>
      </trkpt>
      <trkpt lat="46.79497727192938" lon="7.11573145352304">
        <ele>670.81</ele>
      </trkpt>
      <trkpt lat="46.79491499438882" lon="7.115334989503026">
        <ele>669.7</ele>
      </trkpt>
      <trkpt lat="46.794852297753096" lon="7.114936513826251">
        <ele>668.66</ele>
      </trkpt>
      <trkpt lat="46.7947899363935" lon="7.1145399659872055">
        <ele>667.72</ele>
      </trkpt>
      <trkpt lat="46.794759929180145" lon="7.1145399659872055">
        <ele>666.99</ele>
      </trkpt>
      <trkpt lat="46.794708129018545" lon="7.1142074558883905">
        <ele>666.37</ele>
      </trkpt>
      <trkpt lat="46.79465641267598" lon="7.113874945789576">
        <ele>665.9</ele>
      </trkpt>
      <trkpt lat="46.7946049477905" lon="7.113544950261712">
        <ele>665.52</ele>
      </trkpt>
      <trkpt lat="46.7945531476289" lon="7.113212440162897">
        <ele>665.26</ele>
      </trkpt>
      <trkpt lat="46.7945013474673" lon="7.112880013883114">
        <ele>665.2</ele>
      </trkpt>
      <trkpt lat="46.79444996640086" lon="7.112549934536219">
        <ele>665.25</ele>
      </trkpt>
      <trkpt lat="46.79438995197415" lon="7.112219939008355">
        <ele>665.39</ele>
      </trkpt>
      <trkpt lat="46.79433999583125" lon="7.11207996122539">
        <ele>665.57</ele>
      </trkpt>
      <trkpt lat="46.79429993033409" lon="7.111809980124235">
        <ele>665.93</ele>
      </trkpt>
      <trkpt lat="46.79426992312074" lon="7.111502531915903">
        <ele>666.4</ele>
      </trkpt>
      <trkpt lat="46.79423983208835" lon="7.111195083707571">
        <ele>666.83</ele>
      </trkpt>
      <trkpt lat="46.79420999251306" lon="7.110889982432127">
        <ele>667.26</ele>
      </trkpt>
      <trkpt lat="46.79418987594545" lon="7.110508941113949">
        <ele>667.74</ele>
      </trkpt>
      <trkpt lat="46.7941699270159" lon="7.1101299952715635">
        <ele>668.21</ele>
      </trkpt>
      <trkpt lat="46.7941699270159" lon="7.109769992530346">
        <ele>668.66</ele>
      </trkpt>
      <trkpt lat="46.79418995976448" lon="7.109319968149066">
        <ele>669.07</ele>
      </trkpt>
      <trkpt lat="46.794211668893695" lon="7.108972370624542">
        <ele>669.53</ele>
      </trkpt>
      <trkpt lat="46.79423337802291" lon="7.10862485691905">
        <ele>669.86</ele>
      </trkpt>
      <trkpt lat="46.79425500333309" lon="7.108279941603541">
        <ele>670.02</ele>
      </trkpt>
      <trkpt lat="46.794276712462306" lon="7.107932427898049">
        <ele>670.18</ele>
      </trkpt>
      <trkpt lat="46.79429842159152" lon="7.107584830373526">
        <ele>670.31</ele>
      </trkpt>
      <trkpt lat="46.79431996308267" lon="7.1072399988770485">
        <ele>670.3</ele>
      </trkpt>
      <trkpt lat="46.7943099886179" lon="7.107089962810278">
        <ele>670.19</ele>
      </trkpt>
      <trkpt lat="46.79431996308267" lon="7.10672996006906">
        <ele>669.94</ele>
      </trkpt>
      <trkpt lat="46.79428995586932" lon="7.106669945642352">
        <ele>669.69</ele>
      </trkpt>
      <trkpt lat="46.79427998140454" lon="7.106669945642352">
        <ele>669.39</ele>
      </trkpt>
      <trkpt lat="46.79412994533777" lon="7.106544887647033">
        <ele>668.95</ele>
      </trkpt>
      <trkpt lat="46.79397999309003" lon="7.106419997289777">
        <ele>668.45</ele>
      </trkpt>
      <trkpt lat="46.7938799969852" lon="7.106379931792617">
        <ele>667.91</ele>
      </trkpt>
      <trkpt lat="46.79381998255849" lon="7.106389990076423">
        <ele>667.34</ele>
      </trkpt>
      <trkpt lat="46.79372996091843" lon="7.106469953432679">
        <ele>666.74</ele>
      </trkpt>
      <trkpt lat="46.79366994649172" lon="7.10661998949945">
        <ele>666.13</ele>
      </trkpt>
      <trkpt lat="46.79364907555282" lon="7.106949146836996">
        <ele>665.52</ele>
      </trkpt>
      <trkpt lat="46.793628204613924" lon="7.107278304174542">
        <ele>664.76</ele>
      </trkpt>
      <trkpt lat="46.79360750131309" lon="7.107604946941137">
        <ele>663.98</ele>
      </trkpt>
      <trkpt lat="46.79358654655516" lon="7.107934188097715">
        <ele>663.22</ele>
      </trkpt>
      <trkpt lat="46.793565675616264" lon="7.108263345435262">
        <ele>662.4</ele>
      </trkpt>
      <trkpt lat="46.79354497231543" lon="7.108589988201857">
        <ele>661.57</ele>
      </trkpt>
      <trkpt lat="46.79352410137653" lon="7.108919145539403">
        <ele>660.77</ele>
      </trkpt>
      <trkpt lat="46.793503230437636" lon="7.109248302876949">
        <ele>659.91</ele>
      </trkpt>
      <trkpt lat="46.79348244331777" lon="7.109574945643544">
        <ele>659.03</ele>
      </trkpt>
      <trkpt lat="46.793461572378874" lon="7.109904186800122">
        <ele>658.24</ele>
      </trkpt>
      <trkpt lat="46.79344070143998" lon="7.110233344137669">
        <ele>657.5</ele>
      </trkpt>
      <trkpt lat="46.79341999813914" lon="7.1105599869042635">
        <ele>656.72</ele>
      </trkpt>
      <trkpt lat="46.79338999092579" lon="7.110549928620458">
        <ele>656.05</ele>
      </trkpt>
      <trkpt lat="46.79337993264198" lon="7.110629975795746">
        <ele>655.41</ele>
      </trkpt>
      <trkpt lat="46.79338999092579" lon="7.110549928620458">
        <ele>656.05</ele>
      </trkpt>
      <trkpt lat="46.79336995817721" lon="7.110929964110255">
        <ele>654.28</ele>
      </trkpt>
      <trkpt lat="46.793380016461015" lon="7.111245794221759">
        <ele>653.77</ele>
      </trkpt>
      <trkpt lat="46.79338999092579" lon="7.111559947952628">
        <ele>653.41</ele>
      </trkpt>
      <trkpt lat="46.79341505281627" lon="7.111790534108877">
        <ele>653.21</ele>
      </trkpt>
      <trkpt lat="46.79343994706869" lon="7.112019946798682">
        <ele>653.15</ele>
      </trkpt>
      <trkpt lat="46.7934999614954" lon="7.112269978970289">
        <ele>653.27</ele>
      </trkpt>
      <trkpt lat="46.793579924851656" lon="7.1125399600714445">
        <ele>653.55</ele>
      </trkpt>
      <trkpt lat="46.793703474104404" lon="7.112817065790296">
        <ele>653.91</ele>
      </trkpt>
      <trkpt lat="46.79382702335715" lon="7.113094255328178">
        <ele>654.34</ele>
      </trkpt>
      <trkpt lat="46.79394998587668" lon="7.11336993612349">
        <ele>654.9</ele>
      </trkpt>
      <trkpt lat="46.7938799969852" lon="7.113479990512133">
        <ele>655.35</ele>
      </trkpt>
      <trkpt lat="46.79384998977184" lon="7.113589961081743">
        <ele>655.91</ele>
      </trkpt>
      <trkpt lat="46.79386993870139" lon="7.113729938864708">
        <ele>656.55</ele>
      </trkpt>
      <trkpt lat="46.79384998977184" lon="7.114039985463023">
        <ele>657.23</ele>
      </trkpt>
      <trkpt lat="46.79384998977184" lon="7.1140599343925714">
        <ele>657.87</ele>
      </trkpt>
      <trkpt lat="46.793669778853655" lon="7.114330250769854">
        <ele>658.53</ele>
      </trkpt>
      <trkpt lat="46.793489987030625" lon="7.114599980413914">
        <ele>659.2</ele>
      </trkpt>
      <trkpt lat="46.793270045891404" lon="7.114674914628267">
        <ele>659.69</ele>
      </trkpt>
      <trkpt lat="46.79304993711412" lon="7.114749932661653">
        <ele>660.2</ele>
      </trkpt>
      <trkpt lat="46.792800072580576" lon="7.114772479981184">
        <ele>660.68</ele>
      </trkpt>
      <trkpt lat="46.79254995658994" lon="7.114794943481684">
        <ele>661.13</ele>
      </trkpt>
      <trkpt lat="46.792300092056394" lon="7.1148174069821835">
        <ele>661.44</ele>
      </trkpt>
      <trkpt lat="46.792049976065755" lon="7.114839954301715">
        <ele>661.66</ele>
      </trkpt>
      <trkpt lat="46.7918299511075" lon="7.114859987050295">
        <ele>661.76</ele>
      </trkpt>
      <trkpt lat="46.791769936680794" lon="7.114929975941777">
        <ele>661.82</ele>
      </trkpt>
      <trkpt lat="46.79171998053789" lon="7.11510993540287">
        <ele>661.91</ele>
      </trkpt>
      <trkpt lat="46.79168997332454" lon="7.115119993686676">
        <ele>661.7</ele>
      </trkpt>
      <trkpt lat="46.79168997332454" lon="7.115159975364804">
        <ele>661.38</ele>
      </trkpt>
      <trkpt lat="46.79151504300535" lon="7.11512996815145">
        <ele>660.78</ele>
      </trkpt>
      <trkpt lat="46.791339945048094" lon="7.115099960938096">
        <ele>660.08</ele>
      </trkpt>
      <trkpt lat="46.791125033050776" lon="7.115119909867644">
        <ele>659.21</ele>
      </trkpt>
      <trkpt lat="46.790909953415394" lon="7.115139942616224">
        <ele>658.23</ele>
      </trkpt>
      <trkpt lat="46.790869971737266" lon="7.115159975364804">
        <ele>657.36</ele>
      </trkpt>
      <trkpt lat="46.79076997563243" lon="7.115239938721061">
        <ele>656.4</ele>
      </trkpt>
      <trkpt lat="46.790719935670495" lon="7.115359967574477">
        <ele>655.41</ele>
      </trkpt>
      <trkpt lat="46.79068992845714" lon="7.115479996427894">
        <ele>654.38</ele>
      </trkpt>
      <trkpt lat="46.7906248010695" lon="7.115840837359428">
        <ele>653.35</ele>
      </trkpt>
      <trkpt lat="46.79055992513895" lon="7.116199918091297">
        <ele>652.17</ele>
      </trkpt>
      <trkpt lat="46.790489768609405" lon="7.1165909338742495">
        <ele>650.87</ele>
      </trkpt>
      <trkpt lat="46.79041961207986" lon="7.11698186583817">
        <ele>649.52</ele>
      </trkpt>
      <trkpt lat="46.7903499584645" lon="7.117369947955012">
        <ele>648.19</ele>
      </trkpt>
      <trkpt lat="46.79032992571592" lon="7.117579998448491">
        <ele>646.79</ele>
      </trkpt>
      <trkpt lat="46.79033998399973" lon="7.117679994553328">
        <ele>645.5</ele>
      </trkpt>
      <trkpt lat="46.790289944037795" lon="7.117799939587712">
        <ele>644.18</ele>
      </trkpt>
      <trkpt lat="46.79024996235967" lon="7.118019964545965">
        <ele>642.9</ele>
      </trkpt>
      <trkpt lat="46.79018994793296" lon="7.118059946224093">
        <ele>641.63</ele>
      </trkpt>
      <trkpt lat="46.789989955723286" lon="7.118099927902222">
        <ele>640.22</ele>
      </trkpt>
      <trkpt lat="46.78977504372597" lon="7.11813990958035">
        <ele>638.94</ele>
      </trkpt>
      <trkpt lat="46.789559964090586" lon="7.11817997507751">
        <ele>637.85</ele>
      </trkpt>
      <trkpt lat="46.789449993520975" lon="7.118189949542284">
        <ele>636.9</ele>
      </trkpt>
      <trkpt lat="46.78939995355904" lon="7.118169916793704">
        <ele>636.07</ele>
      </trkpt>
      <trkpt lat="46.78938997909427" lon="7.118229931220412">
        <ele>635.37</ele>
      </trkpt>
      <trkpt lat="46.789259975776076" lon="7.1180899534374475">
        <ele>634.71</ele>
      </trkpt>
      <trkpt lat="46.78920993581414" lon="7.118069920688868">
        <ele>634.21</ele>
      </trkpt>
      <trkpt lat="46.789149921387434" lon="7.1181099861860275">
        <ele>633.81</ele>
      </trkpt>
      <trkpt lat="46.78909996524453" lon="7.118189949542284">
        <ele>633.5</ele>
      </trkpt>
      <trkpt lat="46.7890599835664" lon="7.11815994232893">
        <ele>633.29</ele>
      </trkpt>
      <trkpt lat="46.7889497615397" lon="7.1184672228991985">
        <ele>633.2</ele>
      </trkpt>
      <trkpt lat="46.78883953951299" lon="7.118774503469467">
        <ele>633.12</ele>
      </trkpt>
      <trkpt lat="46.78872998803854" lon="7.119079940021038">
        <ele>633.16</ele>
      </trkpt>
      <trkpt lat="46.788569977506995" lon="7.119389986619353">
        <ele>633.26</ele>
      </trkpt>
      <trkpt lat="46.78842983208597" lon="7.11959014646709">
        <ele>633.37</ele>
      </trkpt>
      <trkpt lat="46.788289938122034" lon="7.119789971038699">
        <ele>633.47</ele>
      </trkpt>
      <trkpt lat="46.78806999698281" lon="7.1200899593532085">
        <ele>633.62</ele>
      </trkpt>
      <trkpt lat="46.788009982556105" lon="7.120179980993271">
        <ele>633.69</ele>
      </trkpt>
      <trkpt lat="46.787799932062626" lon="7.12036999873817">
        <ele>633.7</ele>
      </trkpt>
      <trkpt lat="46.787579990923405" lon="7.120514921844006">
        <ele>633.67</ele>
      </trkpt>
      <trkpt lat="46.78735996596515" lon="7.120659928768873">
        <ele>633.56</ele>
      </trkpt>
      <trkpt lat="46.787149999290705" lon="7.120849946513772">
        <ele>633.45</ele>
      </trkpt>
      <trkpt lat="46.78709995932877" lon="7.120819939300418">
        <ele>633.34</ele>
      </trkpt>
      <trkpt lat="46.78700993768871" lon="7.120839972048998">
        <ele>633.19</ele>
      </trkpt>
      <trkpt lat="46.78678999654949" lon="7.121099978685379">
        <ele>632.99</ele>
      </trkpt>
      <trkpt lat="46.786679942160845" lon="7.1213199198246">
        <ele>632.95</ele>
      </trkpt>
      <trkpt lat="46.78657994605601" lon="7.121579926460981">
        <ele>632.99</ele>
      </trkpt>
      <trkpt lat="46.786489924415946" lon="7.121889973059297">
        <ele>633.01</ele>
      </trkpt>
      <trkpt lat="46.786419935524464" lon="7.122189961373806">
        <ele>632.89</ele>
      </trkpt>
      <trkpt lat="46.78638992831111" lon="7.1225199569016695">
        <ele>632.75</ele>
      </trkpt>
      <trkpt lat="46.78638992831111" lon="7.122759930789471">
        <ele>632.57</ele>
      </trkpt>
      <trkpt lat="46.78642999380827" lon="7.122819945216179">
        <ele>632.45</ele>
      </trkpt>
      <trkpt lat="46.78642546758056" lon="7.123168632388115">
        <ele>632.28</ele>
      </trkpt>
      <trkpt lat="46.786421025171876" lon="7.123517319560051">
        <ele>632.1</ele>
      </trkpt>
      <trkpt lat="46.78641666658223" lon="7.123863324522972">
        <ele>631.91</ele>
      </trkpt>
      <trkpt lat="46.786412140354514" lon="7.124212011694908">
        <ele>631.56</ele>
      </trkpt>
      <trkpt lat="46.78640769794583" lon="7.124560698866844">
        <ele>631.13</ele>
      </trkpt>
      <trkpt lat="46.786403339356184" lon="7.124906620010734">
        <ele>630.8</ele>
      </trkpt>
      <trkpt lat="46.78639881312847" lon="7.12525530718267">
        <ele>630.38</ele>
      </trkpt>
      <trkpt lat="46.78639437071979" lon="7.125603994354606">
        <ele>629.68</ele>
      </trkpt>
      <trkpt lat="46.78638992831111" lon="7.125949999317527">
        <ele>628.83</ele>
      </trkpt>
      <trkpt lat="46.78638657554984" lon="7.1263008657842875">
        <ele>627.92</ele>
      </trkpt>
      <trkpt lat="46.786383306607604" lon="7.12665181607008">
        <ele>627.14</ele>
      </trkpt>
      <trkpt lat="46.786379953846335" lon="7.126999916508794">
        <ele>626.57</ele>
      </trkpt>
      <trkpt lat="46.78640996105969" lon="7.127169985324144">
        <ele>626.22</ele>
      </trkpt>
      <trkpt lat="46.7865199316293" lon="7.127519929781556">
        <ele>626.15</ele>
      </trkpt>
      <trkpt lat="46.7865199316293" lon="7.1275899186730385">
        <ele>625.78</ele>
      </trkpt>
      <trkpt lat="46.78647994995117" lon="7.1276099514216185">
        <ele>625.4</ele>
      </trkpt>
      <trkpt lat="46.786439968273044" lon="7.127669965848327">
        <ele>625.03</ele>
      </trkpt>
      <trkpt lat="46.78642999380827" lon="7.127739954739809">
        <ele>624.77</ele>
      </trkpt>
      <trkpt lat="46.78645991720259" lon="7.1278199180960655">
        <ele>624.68</ele>
      </trkpt>
      <trkpt lat="46.786529989913106" lon="7.12784992530942">
        <ele>624.68</ele>
      </trkpt>
      <trkpt lat="46.786569971591234" lon="7.1278199180960655">
        <ele>624.71</ele>
      </trkpt>
      <trkpt lat="46.78672009147704" lon="7.128043547272682">
        <ele>624.75</ele>
      </trkpt>
      <trkpt lat="46.78687029518187" lon="7.128267092630267">
        <ele>624.64</ele>
      </trkpt>
      <trkpt lat="46.787019995972514" lon="7.128489967435598">
        <ele>624.57</ele>
      </trkpt>
      <trkpt lat="46.78722007200122" lon="7.1287234872579575">
        <ele>624.64</ele>
      </trkpt>
      <trkpt lat="46.787420231848955" lon="7.128956923261285">
        <ele>624.79</ele>
      </trkpt>
      <trkpt lat="46.78761997260153" lon="7.129189940169454">
        <ele>624.98</ele>
      </trkpt>
      <trkpt lat="46.78777017630637" lon="7.1294403076171875">
        <ele>625.08</ele>
      </trkpt>
      <trkpt lat="46.78792029619217" lon="7.12969059124589">
        <ele>625.27</ele>
      </trkpt>
      <trkpt lat="46.78806999698281" lon="7.129939952865243">
        <ele>625.42</ele>
      </trkpt>
      <trkpt lat="46.78823512047529" lon="7.130170203745365">
        <ele>625.46</ele>
      </trkpt>
      <trkpt lat="46.788399992510676" lon="7.130399951711297">
        <ele>625.36</ele>
      </trkpt>
      <trkpt lat="46.78847995586693" lon="7.130539929494262">
        <ele>625.4</ele>
      </trkpt>
      <trkpt lat="46.78860995918512" lon="7.130909990519285">
        <ele>625.42</ele>
      </trkpt>
      <trkpt lat="46.78866997361183" lon="7.131189946085215">
        <ele>625.56</ele>
      </trkpt>
      <trkpt lat="46.7887200973928" lon="7.131611052900553">
        <ele>625.62</ele>
      </trkpt>
      <trkpt lat="46.78876996971667" lon="7.132029980421066">
        <ele>625.5</ele>
      </trkpt>
      <trkpt lat="46.788719929754734" lon="7.13203995488584">
        <ele>625.53</ele>
      </trkpt>
      <trkpt lat="46.78876996971667" lon="7.132029980421066">
        <ele>625.5</ele>
      </trkpt>
      <trkpt lat="46.78880341351032" lon="7.132357461377978">
        <ele>626.73</ele>
      </trkpt>
      <trkpt lat="46.788836773484945" lon="7.13268494233489">
        <ele>627.4</ele>
      </trkpt>
      <trkpt lat="46.788869965821505" lon="7.133009992539883">
        <ele>628.25</ele>
      </trkpt>
      <trkpt lat="46.78881992585957" lon="7.133039999753237">
        <ele>628.96</ele>
      </trkpt>
      <trkpt lat="46.78882495500147" lon="7.133290618658066">
        <ele>630.04</ele>
      </trkpt>
      <trkpt lat="46.788829984143376" lon="7.133539980277419">
        <ele>631.35</ele>
      </trkpt>
      <trkpt lat="46.78881992585957" lon="7.1338708139956">
        <ele>632.88</ele>
      </trkpt>
      <trkpt lat="46.788809867575765" lon="7.13420164771378">
        <ele>634.7</ele>
      </trkpt>
      <trkpt lat="46.78879997693002" lon="7.13452996686101">
        <ele>636.49</ele>
      </trkpt>
      <trkpt lat="46.78883995860815" lon="7.134839929640293">
        <ele>638.21</ele>
      </trkpt>
      <trkpt lat="46.78890994749963" lon="7.13506992906332">
        <ele>639.93</ele>
      </trkpt>
      <trkpt lat="46.78902008570731" lon="7.135285260155797">
        <ele>641.68</ele>
      </trkpt>
      <trkpt lat="46.789129972457886" lon="7.13549992069602">
        <ele>643.42</ele>
      </trkpt>
      <trkpt lat="46.789169954136014" lon="7.13553998619318">
        <ele>645.08</ele>
      </trkpt>
      <trkpt lat="46.78930850699544" lon="7.135800328105688">
        <ele>646.84</ele>
      </trkpt>
      <trkpt lat="46.789447059854865" lon="7.136060670018196">
        <ele>648.61</ele>
      </trkpt>
      <trkpt lat="46.78958494216204" lon="7.136319922283292">
        <ele>650.16</ele>
      </trkpt>
      <trkpt lat="46.78972349502146" lon="7.1365803480148315">
        <ele>651.64</ele>
      </trkpt>
      <trkpt lat="46.78986204788089" lon="7.1368406899273396">
        <ele>653.07</ele>
      </trkpt>
      <trkpt lat="46.78999993018806" lon="7.137099942192435">
        <ele>654.45</ele>
      </trkpt>
      <trkpt lat="46.79014996625483" lon="7.137419963255525">
        <ele>655.57</ele>
      </trkpt>
      <trkpt lat="46.79014996625483" lon="7.1374099887907505">
        <ele>656.57</ele>
      </trkpt>
      <trkpt lat="46.790240155532956" lon="7.137655410915613">
        <ele>657.44</ele>
      </trkpt>
      <trkpt lat="46.79032992571592" lon="7.137899994850159">
        <ele>658.21</ele>
      </trkpt>
      <trkpt lat="46.790406787768006" lon="7.138287574052811">
        <ele>658.96</ele>
      </trkpt>
      <trkpt lat="46.79048364982009" lon="7.138675153255463">
        <ele>659.61</ele>
      </trkpt>
      <trkpt lat="46.79055992513895" lon="7.139059966430068">
        <ele>660.21</ele>
      </trkpt>
      <trkpt lat="46.790605103597045" lon="7.139320559799671">
        <ele>660.82</ele>
      </trkpt>
      <trkpt lat="46.79064994677901" lon="7.13957997970283">
        <ele>661.33</ele>
      </trkpt>
      <trkpt lat="46.790719935670495" lon="7.1397999208420515">
        <ele>661.83</ele>
      </trkpt>
      <trkpt lat="46.79079009220004" lon="7.140128239989281">
        <ele>662.26</ele>
      </trkpt>
      <trkpt lat="46.79085999727249" lon="7.140454966574907">
        <ele>662.61</ele>
      </trkpt>
      <trkpt lat="46.79093015380204" lon="7.140783201903105">
        <ele>662.98</ele>
      </trkpt>
      <trkpt lat="46.790999975055456" lon="7.141109928488731">
        <ele>663.16</ele>
      </trkpt>
      <trkpt lat="46.79102998226881" lon="7.141109928488731">
        <ele>663.36</ele>
      </trkpt>
      <trkpt lat="46.79111011326313" lon="7.141465740278363">
        <ele>663.4</ele>
      </trkpt>
      <trkpt lat="46.791189992800355" lon="7.1418199595063925">
        <ele>663.39</ele>
      </trkpt>
      <trkpt lat="46.791279930621386" lon="7.142079966142774">
        <ele>663.51</ele>
      </trkpt>
      <trkpt lat="46.79138512350619" lon="7.1422952972352505">
        <ele>663.68</ele>
      </trkpt>
      <trkpt lat="46.791489981114864" lon="7.142509957775474">
        <ele>663.76</ele>
      </trkpt>
      <trkpt lat="46.791579918935895" lon="7.142649935558438">
        <ele>663.71</ele>
      </trkpt>
      <trkpt lat="46.7917350679636" lon="7.142830062657595">
        <ele>663.64</ele>
      </trkpt>
      <trkpt lat="46.79188996553421" lon="7.143009938299656">
        <ele>663.52</ele>
      </trkpt>
      <trkpt lat="46.792159946635365" lon="7.143219988793135">
        <ele>663.44</ele>
      </trkpt>
      <trkpt lat="46.79231995716691" lon="7.143299952149391">
        <ele>663.19</ele>
      </trkpt>
      <trkpt lat="46.792499916628" lon="7.143349992111325">
        <ele>662.78</ele>
      </trkpt>
      <trkpt lat="46.792799988761544" lon="7.143379999324679">
        <ele>662.21</ele>
      </trkpt>
      <trkpt lat="46.79304650053382" lon="7.143353344872594">
        <ele>661.51</ele>
      </trkpt>
      <trkpt lat="46.793293012306094" lon="7.143326690420508">
        <ele>660.79</ele>
      </trkpt>
      <trkpt lat="46.79353994317353" lon="7.143299952149391">
        <ele>660.1</ele>
      </trkpt>
      <trkpt lat="46.793734822422266" lon="7.143294923007488">
        <ele>659.33</ele>
      </trkpt>
      <trkpt lat="46.7939299531281" lon="7.143289977684617">
        <ele>658.49</ele>
      </trkpt>
      <trkpt lat="46.79403992369771" lon="7.143309926614165">
        <ele>657.63</ele>
      </trkpt>
      <trkpt lat="46.79420999251306" lon="7.143379999324679">
        <ele>656.72</ele>
      </trkpt>
      <trkpt lat="46.7943599447608" lon="7.14348996989429">
        <ele>655.76</ele>
      </trkpt>
      <trkpt lat="46.79452012293041" lon="7.1437001042068005">
        <ele>654.69</ele>
      </trkpt>
      <trkpt lat="46.79467996582389" lon="7.143909987062216">
        <ele>653.75</ele>
      </trkpt>
      <trkpt lat="46.79486017674208" lon="7.1441927924752235">
        <ele>652.87</ele>
      </trkpt>
      <trkpt lat="46.795039968565106" lon="7.1444749273359776">
        <ele>652.1</ele>
      </trkpt>
      <trkpt lat="46.795220179483294" lon="7.144757816568017">
        <ele>651.4</ele>
      </trkpt>
      <trkpt lat="46.795399971306324" lon="7.145039951428771">
        <ele>650.79</ele>
      </trkpt>
      <trkpt lat="46.795570123940706" lon="7.145260144025087">
        <ele>650.21</ele>
      </trkpt>
      <trkpt lat="46.79573994129896" lon="7.145479917526245">
        <ele>649.64</ele>
      </trkpt>
      <trkpt lat="46.79573994129896" lon="7.145579997450113">
        <ele>649.32</ele>
      </trkpt>
      <trkpt lat="46.79573994129896" lon="7.145479917526245">
        <ele>649.64</ele>
      </trkpt>
      <trkpt lat="46.795829962939024" lon="7.145589971914887">
        <ele>648.9</ele>
      </trkpt>
      <trkpt lat="46.795939933508635" lon="7.14567999355495">
        <ele>648.79</ele>
      </trkpt>
      <trkpt lat="46.79596994072199" lon="7.145579997450113">
        <ele>648.83</ele>
      </trkpt>
      <trkpt lat="46.795939933508635" lon="7.145479917526245">
        <ele>648.99</ele>
      </trkpt>
      <trkpt lat="46.79599257186055" lon="7.145071467384696">
        <ele>649.28</ele>
      </trkpt>
      <trkpt lat="46.796044958755374" lon="7.144664945080876">
        <ele>649.65</ele>
      </trkpt>
      <trkpt lat="46.79609759710729" lon="7.1442564111202955">
        <ele>650.04</ele>
      </trkpt>
      <trkpt lat="46.79614998400211" lon="7.143849972635508">
        <ele>650.33</ele>
      </trkpt>
      <trkpt lat="46.79617001675069" lon="7.143472284078598">
        <ele>650.71</ele>
      </trkpt>
      <trkpt lat="46.79619004949927" lon="7.14309467934072">
        <ele>651.25</ele>
      </trkpt>
      <trkpt lat="46.79620999842882" lon="7.142719924449921">
        <ele>651.58</ele>
      </trkpt>
      <trkpt lat="46.796239921823144" lon="7.14262998662889">
        <ele>651.64</ele>
      </trkpt>
      <trkpt lat="46.79624998010695" lon="7.142529990524054">
        <ele>651.66</ele>
      </trkpt>
      <trkpt lat="46.796199940145016" lon="7.142509957775474">
        <ele>651.58</ele>
      </trkpt>
      <trkpt lat="46.79642985574901" lon="7.142569972202182">
        <ele>650.97</ele>
      </trkpt>
      <trkpt lat="46.796659771353006" lon="7.142629902809858">
        <ele>650.3</ele>
      </trkpt>
      <trkpt lat="46.7968899384141" lon="7.1426899172365665">
        <ele>649.64</ele>
      </trkpt>
      <trkpt lat="46.79706486873329" lon="7.142724953591824">
        <ele>649.08</ele>
      </trkpt>
      <trkpt lat="46.79723996669054" lon="7.142759989947081">
        <ele>648.6</ele>
      </trkpt>
      <trkpt lat="46.79754481650889" lon="7.142769964411855">
        <ele>648.11</ele>
      </trkpt>
      <trkpt lat="46.79784991778433" lon="7.142779938876629">
        <ele>647.83</ele>
      </trkpt>
      <trkpt lat="46.79794513620436" lon="7.143000299111009">
        <ele>647.62</ele>
      </trkpt>
      <trkpt lat="46.79803993552923" lon="7.143219988793135">
        <ele>647.49</ele>
      </trkpt>
      <trkpt lat="46.798019986599684" lon="7.143239937722683">
        <ele>647.31</ele>
      </trkpt>
      <trkpt lat="46.79813515394926" lon="7.14350706897676">
        <ele>647.33</ele>
      </trkpt>
      <trkpt lat="46.79825032129884" lon="7.143774200230837">
        <ele>647.29</ele>
      </trkpt>
      <trkpt lat="46.798364985734224" lon="7.144039990380406">
        <ele>647.26</ele>
      </trkpt>
      <trkpt lat="46.7984801530838" lon="7.144307121634483">
        <ele>647.37</ele>
      </trkpt>
      <trkpt lat="46.79859532043338" lon="7.144574169069529">
        <ele>647.59</ele>
      </trkpt>
      <trkpt lat="46.798709984868765" lon="7.144839959219098">
        <ele>647.83</ele>
      </trkpt>
      <trkpt lat="46.798709984868765" lon="7.144829984754324">
        <ele>648.13</ele>
      </trkpt>
      <trkpt lat="46.79882992990315" lon="7.145109940320253">
        <ele>648.47</ele>
      </trkpt>
      <trkpt lat="46.79884996265173" lon="7.145089991390705">
        <ele>648.91</ele>
      </trkpt>
      <trkpt lat="46.79889991879463" lon="7.1451399475336075">
        <ele>649.38</ele>
      </trkpt>
      <trkpt lat="46.79895993322134" lon="7.145129973068833">
        <ele>649.94</ele>
      </trkpt>
      <trkpt lat="46.79902992211282" lon="7.145099965855479">
        <ele>650.54</ele>
      </trkpt>
      <trkpt lat="46.79921993985772" lon="7.1451599802821875">
        <ele>651.2</ele>
      </trkpt>
      <trkpt lat="46.799379950389266" lon="7.145239943638444">
        <ele>651.71</ele>
      </trkpt>
      <trkpt lat="46.79951992817223" lon="7.145279925316572">
        <ele>652.21</ele>
      </trkpt>
      <trkpt lat="46.79968999698758" lon="7.145269950851798">
        <ele>652.62</ele>
      </trkpt>
      <trkpt lat="46.79977993480861" lon="7.14522996917367">
        <ele>653.0</ele>
      </trkpt>
      <trkpt lat="46.799889989197254" lon="7.145149921998382">
        <ele>653.31</ele>
      </trkpt>
      <trkpt lat="46.80000993423164" lon="7.144999969750643">
        <ele>653.62</ele>
      </trkpt>
      <trkpt lat="46.800129963085055" lon="7.144789919257164">
        <ele>653.97</ele>
      </trkpt>
      <trkpt lat="46.80028351955116" lon="7.144456068053842">
        <ele>654.34</ele>
      </trkpt>
      <trkpt lat="46.80043715983629" lon="7.144122216850519">
        <ele>654.62</ele>
      </trkpt>
      <trkpt lat="46.80058996193111" lon="7.143789958208799">
        <ele>654.74</ele>
      </trkpt>
      <trkpt lat="46.80062994360924" lon="7.143789958208799">
        <ele>654.66</ele>
      </trkpt>
      <trkpt lat="46.800689958035946" lon="7.143739918246865">
        <ele>654.53</ele>
      </trkpt>
      <trkpt lat="46.80082993581891" lon="7.143699936568737">
        <ele>654.23</ele>
      </trkpt>
      <trkpt lat="46.80082993581891" lon="7.143719969317317">
        <ele>653.9</ele>
      </trkpt>
      <trkpt lat="46.8009099829942" lon="7.143709994852543">
        <ele>653.41</ele>
      </trkpt>
      <trkpt lat="46.80101995356381" lon="7.143689962103963">
        <ele>652.93</ele>
      </trkpt>
      <trkpt lat="46.80106999352574" lon="7.143699936568737">
        <ele>652.39</ele>
      </trkpt>
      <trkpt lat="46.801269985735416" lon="7.144039990380406">
        <ele>651.69</ele>
      </trkpt>
      <trkpt lat="46.801439970731735" lon="7.144269989803433">
        <ele>650.95</ele>
      </trkpt>
      <trkpt lat="46.80146997794509" lon="7.144209975376725">
        <ele>650.33</ele>
      </trkpt>
      <trkpt lat="46.80162009783089" lon="7.1443951316177845">
        <ele>649.57</ele>
      </trkpt>
      <trkpt lat="46.8017699662596" lon="7.144579952582717">
        <ele>648.82</ele>
      </trkpt>
      <trkpt lat="46.80189996957779" lon="7.14477994479239">
        <ele>648.13</ele>
      </trkpt>
      <trkpt lat="46.80198999121785" lon="7.145009944215417">
        <ele>647.49</ele>
      </trkpt>
      <trkpt lat="46.802019998431206" lon="7.14522996917367">
        <ele>646.9</ele>
      </trkpt>
      <trkpt lat="46.80204254575074" lon="7.145605897530913">
        <ele>646.44</ele>
      </trkpt>
      <trkpt lat="46.802064925432205" lon="7.145979981869459">
        <ele>646.11</ele>
      </trkpt>
      <trkpt lat="46.80208755657077" lon="7.146355910226703">
        <ele>645.81</ele>
      </trkpt>
      <trkpt lat="46.802109936252236" lon="7.1467299945652485">
        <ele>645.45</ele>
      </trkpt>
      <trkpt lat="46.80223993957043" lon="7.1467099618166685">
        <ele>645.39</ele>
      </trkpt>
      <trkpt lat="46.80251486599445" lon="7.146614994853735">
        <ele>645.45</ele>
      </trkpt>
      <trkpt lat="46.80278996005654" lon="7.14651994407177">
        <ele>645.57</ele>
      </trkpt>
      <trkpt lat="46.80299992673099" lon="7.146509969606996">
        <ele>645.76</ele>
      </trkpt>
      <trkpt lat="46.80325993336737" lon="7.14653997682035">
        <ele>646.05</ele>
      </trkpt>
      <trkpt lat="46.803439976647496" lon="7.14664994738996">
        <ele>646.47</ele>
      </trkpt>
      <trkpt lat="46.80351994000375" lon="7.1467299945652485">
        <ele>646.99</ele>
      </trkpt>
      <trkpt lat="46.80350996553898" lon="7.1467299945652485">
        <ele>647.56</ele>
      </trkpt>
      <trkpt lat="46.803629994392395" lon="7.146849939599633">
        <ele>648.32</ele>
      </trkpt>
      <trkpt lat="46.80365991778672" lon="7.146809957921505">
        <ele>649.1</ele>
      </trkpt>
      <trkpt lat="46.80369998328388" lon="7.146819932386279">
        <ele>650.03</ele>
      </trkpt>
      <trkpt lat="46.80372999049723" lon="7.146659921854734">
        <ele>651.05</ele>
      </trkpt>
      <trkpt lat="46.80371657945216" lon="7.146342499181628">
        <ele>652.18</ele>
      </trkpt>
      <trkpt lat="46.803703252226114" lon="7.14602499268949">
        <ele>653.39</ele>
      </trkpt>
      <trkpt lat="46.80368992500007" lon="7.145709916949272">
        <ele>654.72</ele>
      </trkpt>
      <trkpt lat="46.80374993942678" lon="7.1455699391663074">
        <ele>656.37</ele>
      </trkpt>
      <trkpt lat="46.80382998660207" lon="7.145539931952953">
        <ele>658.24</ele>
      </trkpt>
      <trkpt lat="46.804080018773675" lon="7.145775044336915">
        <ele>660.66</ele>
      </trkpt>
      <trkpt lat="46.80432996712625" lon="7.146009989082813">
        <ele>662.98</ele>
      </trkpt>
      <trkpt lat="46.80436994880438" lon="7.145989956334233">
        <ele>664.93</ele>
      </trkpt>
      <trkpt lat="46.80432996712625" lon="7.146009989082813">
        <ele>662.98</ele>
      </trkpt>
      <trkpt lat="46.80447497405112" lon="7.146145021542907">
        <ele>668.84</ele>
      </trkpt>
      <trkpt lat="46.804619980975986" lon="7.1462799701839685">
        <ele>670.84</ele>
      </trkpt>
      <trkpt lat="46.804809998720884" lon="7.146409973502159">
        <ele>672.86</ele>
      </trkpt>
      <trkpt lat="46.80511996150017" lon="7.146439980715513">
        <ele>675.01</ele>
      </trkpt>
      <trkpt lat="46.80533319711685" lon="7.146419947966933">
        <ele>677.0</ele>
      </trkpt>
      <trkpt lat="46.805546432733536" lon="7.146399999037385">
        <ele>678.92</ele>
      </trkpt>
      <trkpt lat="46.805759919807315" lon="7.146379966288805">
        <ele>680.7</ele>
      </trkpt>
      <trkpt lat="46.80597994476557" lon="7.146329926326871">
        <ele>682.4</ele>
      </trkpt>
      <trkpt lat="46.80606996640563" lon="7.1462299302220345">
        <ele>684.08</ele>
      </trkpt>
      <trkpt lat="46.80624992586672" lon="7.146139992401004">
        <ele>685.69</ele>
      </trkpt>
      <trkpt lat="46.80632997304201" lon="7.146019963547587">
        <ele>687.26</ele>
      </trkpt>
      <trkpt lat="46.80628655478358" lon="7.145618973299861">
        <ele>688.78</ele>
      </trkpt>
      <trkpt lat="46.80624305270612" lon="7.145217899233103">
        <ele>690.05</ele>
      </trkpt>
      <trkpt lat="46.80619996972382" lon="7.144819926470518">
        <ele>691.16</ele>
      </trkpt>
      <trkpt lat="46.806146493181586" lon="7.144494708627462">
        <ele>692.21</ele>
      </trkpt>
      <trkpt lat="46.80609301663935" lon="7.144169490784407">
        <ele>693.07</ele>
      </trkpt>
      <trkpt lat="46.806039959192276" lon="7.143846619874239">
        <ele>693.78</ele>
      </trkpt>
      <trkpt lat="46.80598648265004" lon="7.143521402031183">
        <ele>694.28</ele>
      </trkpt>
      <trkpt lat="46.80593300610781" lon="7.143196100369096">
        <ele>694.66</ele>
      </trkpt>
      <trkpt lat="46.80587994866073" lon="7.14287331327796">
        <ele>694.91</ele>
      </trkpt>
      <trkpt lat="46.8058264721185" lon="7.142548011615872">
        <ele>695.02</ele>
      </trkpt>
      <trkpt lat="46.80577299557626" lon="7.142222793772817">
        <ele>695.06</ele>
      </trkpt>
      <trkpt lat="46.80571993812919" lon="7.141899922862649">
        <ele>695.0</ele>
      </trkpt>
      <trkpt lat="46.80564978159964" lon="7.141559114679694">
        <ele>694.9</ele>
      </trkpt>
      <trkpt lat="46.80557996034622" lon="7.141219982877374">
        <ele>694.93</ele>
      </trkpt>
      <trkpt lat="46.80551483295858" lon="7.140974393114448">
        <ele>694.88</ele>
      </trkpt>
      <trkpt lat="46.80544995702803" lon="7.1407299768179655">
        <ele>694.83</ele>
      </trkpt>
      <trkpt lat="46.80531224235892" lon="7.140429485589266">
        <ele>694.77</ele>
      </trkpt>
      <trkpt lat="46.80517494678497" lon="7.140129916369915">
        <ele>694.79</ele>
      </trkpt>
      <trkpt lat="46.805037232115865" lon="7.139829425141215">
        <ele>694.81</ele>
      </trkpt>
      <trkpt lat="46.804899936541915" lon="7.139529939740896">
        <ele>694.91</ele>
      </trkpt>
      <trkpt lat="46.804774794727564" lon="7.139304634183645">
        <ele>694.97</ele>
      </trkpt>
      <trkpt lat="46.80464998818934" lon="7.139079999178648">
        <ele>694.97</ele>
      </trkpt>
      <trkpt lat="46.804639929905534" lon="7.139079999178648">
        <ele>695.1</ele>
      </trkpt>
      <trkpt lat="46.8044897262007" lon="7.138794511556625">
        <ele>695.21</ele>
      </trkpt>
      <trkpt lat="46.804339941591024" lon="7.138509945943952">
        <ele>695.34</ele>
      </trkpt>
      <trkpt lat="46.80419468320906" lon="7.138184392824769">
        <ele>695.7</ele>
      </trkpt>
      <trkpt lat="46.80404992774129" lon="7.137859929352999">
        <ele>696.15</ele>
      </trkpt>
      <trkpt lat="46.803919756785035" lon="7.137644682079554">
        <ele>696.54</ele>
      </trkpt>
      <trkpt lat="46.80378992110491" lon="7.137429937720299">
        <ele>696.97</ele>
      </trkpt>
      <trkpt lat="46.803799979388714" lon="7.1373699232935905">
        <ele>697.26</ele>
      </trkpt>
      <trkpt lat="46.803659833967686" lon="7.137174792587757">
        <ele>697.52</ele>
      </trkpt>
      <trkpt lat="46.80351994000375" lon="7.1369799971580505">
        <ele>697.81</ele>
      </trkpt>
      <trkpt lat="46.803319696336985" lon="7.136639524251223">
        <ele>698.08</ele>
      </trkpt>
      <trkpt lat="46.80311995558441" lon="7.1362999733537436">
        <ele>698.31</ele>
      </trkpt>
      <trkpt lat="46.80311995558441" lon="7.136289998888969">
        <ele>698.54</ele>
      </trkpt>
      <trkpt lat="46.802919963374734" lon="7.135999985039234">
        <ele>698.88</ele>
      </trkpt>
      <trkpt lat="46.802729945629835" lon="7.136079948395491">
        <ele>699.03</ele>
      </trkpt>
      <trkpt lat="46.80270999670029" lon="7.136099981144071">
        <ele>699.18</ele>
      </trkpt>
      <trkpt lat="46.80252006277442" lon="7.136114984750748">
        <ele>699.27</ele>
      </trkpt>
      <trkpt lat="46.80232996121049" lon="7.136129988357425">
        <ele>699.35</ele>
      </trkpt>
      <trkpt lat="46.802055118605494" lon="7.136162426322699">
        <ele>699.56</ele>
      </trkpt>
      <trkpt lat="46.80177994072437" lon="7.136194948107004">
        <ele>699.7</ele>
      </trkpt>
      <trkpt lat="46.80150509811938" lon="7.13622746989131">
        <ele>699.78</ele>
      </trkpt>
      <trkpt lat="46.80122992023826" lon="7.136259991675615">
        <ele>699.78</ele>
      </trkpt>
      <trkpt lat="46.80121994577348" lon="7.136229984462261">
        <ele>699.73</ele>
      </trkpt>
      <trkpt lat="46.801159931346774" lon="7.136189918965101">
        <ele>699.63</ele>
      </trkpt>
      <trkpt lat="46.80118993856013" lon="7.1358199417591095">
        <ele>699.44</ele>
      </trkpt>
      <trkpt lat="46.80113478563726" lon="7.135444013401866">
        <ele>699.28</ele>
      </trkpt>
      <trkpt lat="46.80107996799052" lon="7.13506992906332">
        <ele>699.35</ele>
      </trkpt>
      <trkpt lat="46.80102992802858" lon="7.1349799912422895">
        <ele>699.34</ele>
      </trkpt>
      <trkpt lat="46.8009599391371" lon="7.1349299512803555">
        <ele>699.34</ele>
      </trkpt>
      <trkpt lat="46.80081996135414" lon="7.134989965707064">
        <ele>699.26</ele>
      </trkpt>
      <trkpt lat="46.80065995082259" lon="7.1351399179548025">
        <ele>699.07</ele>
      </trkpt>
      <trkpt lat="46.80060999467969" lon="7.135119969025254">
        <ele>699.12</ele>
      </trkpt>
      <trkpt lat="46.80054998025298" lon="7.134989965707064">
        <ele>699.31</ele>
      </trkpt>
      <trkpt lat="46.80056992918253" lon="7.134839929640293">
        <ele>699.62</ele>
      </trkpt>
      <trkpt lat="46.80060999467969" lon="7.134669944643974">
        <ele>699.95</ele>
      </trkpt>
      <trkpt lat="46.80069993250072" lon="7.134429970756173">
        <ele>700.33</ele>
      </trkpt>
      <trkpt lat="46.800729939714074" lon="7.134169964119792">
        <ele>700.61</ele>
      </trkpt>
      <trkpt lat="46.8007199652493" lon="7.13393434882164">
        <ele>700.95</ele>
      </trkpt>
      <trkpt lat="46.800709990784526" lon="7.133699990808964">
        <ele>701.3</ele>
      </trkpt>
      <trkpt lat="46.80065995082259" lon="7.133399918675423">
        <ele>701.7</ele>
      </trkpt>
      <trkpt lat="46.80061996914446" lon="7.13332992978394">
        <ele>702.13</ele>
      </trkpt>
      <trkpt lat="46.800669925287366" lon="7.133189952000976">
        <ele>702.64</ele>
      </trkpt>
      <trkpt lat="46.80061234161258" lon="7.132839085534215">
        <ele>703.2</ele>
      </trkpt>
      <trkpt lat="46.80055492557585" lon="7.13248997926712">
        <ele>703.82</ele>
      </trkpt>
      <trkpt lat="46.800497341901064" lon="7.13213911280036">
        <ele>704.39</ele>
      </trkpt>
      <trkpt lat="46.80043992586434" lon="7.131789922714233">
        <ele>704.88</ele>
      </trkpt>
      <trkpt lat="46.80039986036718" lon="7.131479205563664">
        <ele>705.39</ele>
      </trkpt>
      <trkpt lat="46.80035996250808" lon="7.131169997155666">
        <ele>705.91</ele>
      </trkpt>
      <trkpt lat="46.80035996250808" lon="7.1309799794107676">
        <ele>706.37</ele>
      </trkpt>
      <trkpt lat="46.80043992586434" lon="7.1307299472391605">
        <ele>706.78</ele>
      </trkpt>
      <trkpt lat="46.8003848567605" lon="7.130499444901943">
        <ele>707.09</ele>
      </trkpt>
      <trkpt lat="46.80032995529473" lon="7.1302699483931065">
        <ele>707.4</ele>
      </trkpt>
      <trkpt lat="46.80034998804331" lon="7.130139945074916">
        <ele>707.67</ele>
      </trkpt>
      <trkpt lat="46.80027480237186" lon="7.12983425706625">
        <ele>707.88</ele>
      </trkpt>
      <trkpt lat="46.80019995197654" lon="7.129529993981123">
        <ele>708.06</ele>
      </trkpt>
      <trkpt lat="46.80017991922796" lon="7.129329917952418">
        <ele>708.14</ele>
      </trkpt>
      <trkpt lat="46.80003994144499" lon="7.12928993627429">
        <ele>708.18</ele>
      </trkpt>
      <trkpt lat="46.79974992759526" lon="7.129269987344742">
        <ele>708.08</ele>
      </trkpt>
      <trkpt lat="46.799699971452355" lon="7.129229921847582">
        <ele>708.03</ele>
      </trkpt>
      <trkpt lat="46.79965998977423" lon="7.1291599329560995">
        <ele>707.96</ele>
      </trkpt>
      <trkpt lat="46.79960986599326" lon="7.128799092024565">
        <ele>707.88</ele>
      </trkpt>
      <trkpt lat="46.79955999366939" lon="7.128439927473664">
        <ele>707.82</ele>
      </trkpt>
      <trkpt lat="46.799514815211296" lon="7.128184363245964">
        <ele>707.69</ele>
      </trkpt>
      <trkpt lat="46.79946997202933" lon="7.127929972484708">
        <ele>707.55</ele>
      </trkpt>
      <trkpt lat="46.799419932067394" lon="7.1278599835932255">
        <ele>707.44</ele>
      </trkpt>
      <trkpt lat="46.799359917640686" lon="7.127829976379871">
        <ele>707.33</ele>
      </trkpt>
      <trkpt lat="46.79920996539295" lon="7.127669965848327">
        <ele>707.22</ele>
      </trkpt>
      <trkpt lat="46.79912991821766" lon="7.127559995278716">
        <ele>707.26</ele>
      </trkpt>
      <trkpt lat="46.79906998760998" lon="7.12745999917388">
        <ele>707.35</ele>
      </trkpt>
      <trkpt lat="46.79897996596992" lon="7.127099996432662">
        <ele>707.61</ele>
      </trkpt>
      <trkpt lat="46.7989999987185" lon="7.127079963684082">
        <ele>707.78</ele>
      </trkpt>
      <trkpt lat="46.79897996596992" lon="7.127029923722148">
        <ele>707.99</ele>
      </trkpt>
      <trkpt lat="46.79895993322134" lon="7.127029923722148">
        <ele>708.17</ele>
      </trkpt>
      <trkpt lat="46.798949958756566" lon="7.126959934830666">
        <ele>708.41</ele>
      </trkpt>
      <trkpt lat="46.79895993322134" lon="7.126779975369573">
        <ele>708.72</ele>
      </trkpt>
      <trkpt lat="46.79893990047276" lon="7.126549389213324">
        <ele>708.91</ele>
      </trkpt>
      <trkpt lat="46.79891995154321" lon="7.126319976523519">
        <ele>709.1</ele>
      </trkpt>
      <trkpt lat="46.79878994822502" lon="7.125969948247075">
        <ele>709.05</ele>
      </trkpt>
      <trkpt lat="46.79874996654689" lon="7.125739948824048">
        <ele>708.97</ele>
      </trkpt>
      <trkpt lat="46.79877997376025" lon="7.1254099532961845">
        <ele>708.83</ele>
      </trkpt>
      <trkpt lat="46.79874988272786" lon="7.124978872016072">
        <ele>708.73</ele>
      </trkpt>
      <trkpt lat="46.79871995933354" lon="7.124549970030785">
        <ele>708.58</ele>
      </trkpt>
      <trkpt lat="46.79867654107511" lon="7.124245874583721">
        <ele>708.35</ele>
      </trkpt>
      <trkpt lat="46.79863303899765" lon="7.123941779136658">
        <ele>708.06</ele>
      </trkpt>
      <trkpt lat="46.79858995601535" lon="7.123639946803451">
        <ele>707.69</ele>
      </trkpt>
      <trkpt lat="46.7986199632287" lon="7.123549925163388">
        <ele>707.19</ele>
      </trkpt>
      <trkpt lat="46.79876497015357" lon="7.123439954593778">
        <ele>706.52</ele>
      </trkpt>
      <trkpt lat="46.79890997707844" lon="7.123329984024167">
        <ele>705.79</ele>
      </trkpt>
      <trkpt lat="46.7991432454437" lon="7.123233340680599">
        <ele>705.0</ele>
      </trkpt>
      <trkpt lat="46.799376513808966" lon="7.123136697337031">
        <ele>704.26</ele>
      </trkpt>
      <trkpt lat="46.79960994981229" lon="7.123039970174432">
        <ele>703.53</ele>
      </trkpt>
      <trkpt lat="46.79984321817756" lon="7.122943326830864">
        <ele>702.9</ele>
      </trkpt>
      <trkpt lat="46.80007648654282" lon="7.122846683487296">
        <ele>702.37</ele>
      </trkpt>
      <trkpt lat="46.80030992254615" lon="7.1227499563246965">
        <ele>701.95</ele>
      </trkpt>
      <trkpt lat="46.80030992254615" lon="7.1226999163627625">
        <ele>701.84</ele>
      </trkpt>
      <trkpt lat="46.80043992586434" lon="7.12264996021986">
        <ele>701.9</ele>
      </trkpt>
      <trkpt lat="46.80038996972144" lon="7.122409986332059">
        <ele>702.26</ele>
      </trkpt>
      <trkpt lat="46.80034998804331" lon="7.122419960796833">
        <ele>702.88</ele>
      </trkpt>
      <trkpt lat="46.800264744088054" lon="7.122014025226235">
        <ele>703.85</ele>
      </trkpt>
      <trkpt lat="46.80017991922796" lon="7.1216099336743355">
        <ele>705.19</ele>
      </trkpt>
      <trkpt lat="46.8000999558717" lon="7.121389992535114">
        <ele>706.37</ele>
      </trkpt>
      <trkpt lat="46.80002996698022" lon="7.121259989216924">
        <ele>707.3</ele>
      </trkpt>
      <trkpt lat="46.79995997808874" lon="7.121169967576861">
        <ele>708.02</ele>
      </trkpt>
      <trkpt lat="46.799849923700094" lon="7.121069971472025">
        <ele>708.66</ele>
      </trkpt>
      <trkpt lat="46.79960994981229" lon="7.1208899281919">
        <ele>708.92</ele>
      </trkpt>
      <trkpt lat="46.79958991706371" lon="7.120959917083383">
        <ele>709.25</ele>
      </trkpt>
      <trkpt lat="46.7994799464941" lon="7.121009957045317">
        <ele>709.27</ele>
      </trkpt>
      <trkpt lat="46.79933996871114" lon="7.120899902656674">
        <ele>708.99</ele>
      </trkpt>
      <trkpt lat="46.79919999092817" lon="7.120789932087064">
        <ele>708.9</ele>
      </trkpt>
    </trkseg>
  </trk>
</gpx>
