<?xml version="1.0" encoding="UTF-8"?>
<gpx creator="Garmin Connect" version="1.1"
  xsi:schemaLocation="http://www.topografix.com/GPX/1/1 http://www.topografix.com/GPX/11.xsd"
  xmlns:ns3="http://www.garmin.com/xmlschemas/TrackPointExtension/v1"
  xmlns="http://www.topografix.com/GPX/1/1"
  xmlns:xsi="http://www.w3.org/2001/XMLSchema-instance" xmlns:ns2="http://www.garmin.com/xmlschemas/GpxExtensions/v3">
  <metadata>
    <name>GPMF_04022026</name>
    <link href="connect.garmin.com">
      <text>Garmin Connect</text>
    </link>
    <time>2026-02-04T14:50:43.000Z</time>
  </metadata>
  <trk>
    <name>GPMF_04022026</name>
    <trkseg>
      <trkpt lat="46.79889991879463" lon="7.120559932664037">
        <ele>710.73</ele>
      </trkpt>
      <trkpt lat="46.7990932893008" lon="7.120709968730807">
        <ele>710.54</ele>
      </trkpt>
      <trkpt lat="46.79928665980697" lon="7.120860004797578">
        <ele>710.43</ele>
      </trkpt>
      <trkpt lat="46.7994799464941" lon="7.121009957045317">
        <ele>710.76</ele>
      </trkpt>
      <trkpt lat="46.79958991706371" lon="7.120959917083383">
        <ele>710.74</ele>
      </trkpt>
      <trkpt lat="46.79960994981229" lon="7.1208899281919">
        <ele>710.41</ele>
      </trkpt>
      <trkpt lat="46.799849923700094" lon="7.121069971472025">
        <ele>710.1</ele>
      </trkpt>
      <trkpt lat="46.79995997808874" lon="7.121169967576861">
        <ele>709.35</ele>
      </trkpt>
      <trkpt lat="46.80002996698022" lon="7.121259989216924">
        <ele>708.46</ele>
      </trkpt>
      <trkpt lat="46.8000999558717" lon="7.121389992535114">
        <ele>707.28</ele>
      </trkpt>
      <trkpt lat="46.80017991922796" lon="7.1216099336743355">
        <ele>705.79</ele>
      </trkpt>
      <trkpt lat="46.80026516318321" lon="7.122015869244933">
        <ele>704.07</ele>
      </trkpt>
      <trkpt lat="46.80034998804331" lon="7.122419960796833">
        <ele>702.62</ele>
      </trkpt>
      <trkpt lat="46.80038996972144" lon="7.122409986332059">
        <ele>701.42</ele>
      </trkpt>
      <trkpt lat="46.80043992586434" lon="7.12264996021986">
        <ele>700.38</ele>
      </trkpt>
      <trkpt lat="46.800599936395884" lon="7.122579971328378">
        <ele>699.48</ele>
      </trkpt>
      <trkpt lat="46.80075994692743" lon="7.122509982436895">
        <ele>698.7</ele>
      </trkpt>
      <trkpt lat="46.80088995024562" lon="7.122489949688315">
        <ele>698.08</ele>
      </trkpt>
      <trkpt lat="46.80108482949436" lon="7.122524902224541">
        <ele>697.45</ele>
      </trkpt>
      <trkpt lat="46.80127996020019" lon="7.122559938579798">
        <ele>696.85</ele>
      </trkpt>
      <trkpt lat="46.80140996351838" lon="7.1225399896502495">
        <ele>696.29</ele>
      </trkpt>
      <trkpt lat="46.80149998515844" lon="7.122599920257926">
        <ele>695.77</ele>
      </trkpt>
      <trkpt lat="46.80174993351102" lon="7.12264996021986">
        <ele>695.21</ele>
      </trkpt>
      <trkpt lat="46.80201237089932" lon="7.122704945504665">
        <ele>694.58</ele>
      </trkpt>
      <trkpt lat="46.802274975925684" lon="7.122759930789471">
        <ele>693.87</ele>
      </trkpt>
      <trkpt lat="46.80253732949495" lon="7.122814916074276">
        <ele>693.09</ele>
      </trkpt>
      <trkpt lat="46.80279993452132" lon="7.122869985178113">
        <ele>692.34</ele>
      </trkpt>
      <trkpt lat="46.803029933944345" lon="7.122899992391467">
        <ele>691.75</ele>
      </trkpt>
      <trkpt lat="46.80319991894066" lon="7.122860010713339">
        <ele>691.42</ele>
      </trkpt>
      <trkpt lat="46.803369987756014" lon="7.122819945216179">
        <ele>691.31</ele>
      </trkpt>
      <trkpt lat="46.8035898450762" lon="7.122764959931374">
        <ele>691.48</ele>
      </trkpt>
      <trkpt lat="46.80380995385349" lon="7.122709974646568">
        <ele>691.92</ele>
      </trkpt>
      <trkpt lat="46.80402318947017" lon="7.122652223333716">
        <ele>692.46</ele>
      </trkpt>
      <trkpt lat="46.804236425086856" lon="7.1225944720208645">
        <ele>693.05</ele>
      </trkpt>
      <trkpt lat="46.80444999597967" lon="7.122536636888981">
        <ele>693.63</ele>
      </trkpt>
      <trkpt lat="46.80466323159635" lon="7.122478885576129">
        <ele>693.94</ele>
      </trkpt>
      <trkpt lat="46.804876467213035" lon="7.122421134263277">
        <ele>694.07</ele>
      </trkpt>
      <trkpt lat="46.805089954286814" lon="7.122363299131393">
        <ele>693.93</ele>
      </trkpt>
      <trkpt lat="46.8053031899035" lon="7.1223055478185415">
        <ele>693.45</ele>
      </trkpt>
      <trkpt lat="46.80551642552018" lon="7.12224779650569">
        <ele>692.98</ele>
      </trkpt>
      <trkpt lat="46.80572999641299" lon="7.122189961373806">
        <ele>692.34</ele>
      </trkpt>
      <trkpt lat="46.80589998140931" lon="7.12219993583858">
        <ele>691.6</ele>
      </trkpt>
      <trkpt lat="46.80598991923034" lon="7.122229943051934">
        <ele>690.9</ele>
      </trkpt>
      <trkpt lat="46.80606996640563" lon="7.1222899574786425">
        <ele>690.14</ele>
      </trkpt>
      <trkpt lat="46.806163508445024" lon="7.122650798410177">
        <ele>689.23</ele>
      </trkpt>
      <trkpt lat="46.80625705048442" lon="7.12301155552268">
        <ele>688.26</ele>
      </trkpt>
      <trkpt lat="46.80634992197156" lon="7.123369965702295">
        <ele>687.29</ele>
      </trkpt>
      <trkpt lat="46.806419994682074" lon="7.123559983447194">
        <ele>686.28</ele>
      </trkpt>
      <trkpt lat="46.806549998000264" lon="7.123799957334995">
        <ele>685.2</ele>
      </trkpt>
      <trkpt lat="46.80670992471278" lon="7.123969942331314">
        <ele>684.13</ele>
      </trkpt>
      <trkpt lat="46.80692500434816" lon="7.124149985611439">
        <ele>683.04</ele>
      </trkpt>
      <trkpt lat="46.80713991634548" lon="7.124329945072532">
        <ele>681.96</ele>
      </trkpt>
      <trkpt lat="46.80720998905599" lon="7.124439999461174">
        <ele>680.9</ele>
      </trkpt>
      <trkpt lat="46.80724997073412" lon="7.124589951708913">
        <ele>679.84</ele>
      </trkpt>
      <trkpt lat="46.8072855938226" lon="7.1249007526785135">
        <ele>678.76</ele>
      </trkpt>
      <trkpt lat="46.80732121691108" lon="7.125211553648114">
        <ele>677.65</ele>
      </trkpt>
      <trkpt lat="46.80735667236149" lon="7.125519923865795">
        <ele>676.42</ele>
      </trkpt>
      <trkpt lat="46.80739229544997" lon="7.125830724835396">
        <ele>675.17</ele>
      </trkpt>
      <trkpt lat="46.80742791853845" lon="7.1261415258049965">
        <ele>673.87</ele>
      </trkpt>
      <trkpt lat="46.807463290169835" lon="7.126449979841709">
        <ele>672.55</ele>
      </trkpt>
      <trkpt lat="46.807498913258314" lon="7.12676078081131">
        <ele>671.22</ele>
      </trkpt>
      <trkpt lat="46.807534620165825" lon="7.127071497961879">
        <ele>669.84</ele>
      </trkpt>
      <trkpt lat="46.80756999179721" lon="7.127379951998591">
        <ele>668.42</ele>
      </trkpt>
      <trkpt lat="46.807784819975495" lon="7.127414904534817">
        <ele>666.7</ele>
      </trkpt>
      <trkpt lat="46.80799998342991" lon="7.127449940890074">
        <ele>665.04</ele>
      </trkpt>
      <trkpt lat="46.80827993899584" lon="7.1274399664253">
        <ele>663.43</ele>
      </trkpt>
      <trkpt lat="46.80849661119282" lon="7.127336617559195">
        <ele>661.81</ele>
      </trkpt>
      <trkpt lat="46.808713199570775" lon="7.127233352512121">
        <ele>660.23</ele>
      </trkpt>
      <trkpt lat="46.80892995558679" lon="7.127129919826984">
        <ele>658.68</ele>
      </trkpt>
      <trkpt lat="46.80920320563018" lon="7.127003353089094">
        <ele>656.93</ele>
      </trkpt>
      <trkpt lat="46.809476455673575" lon="7.126876702532172">
        <ele>655.25</ele>
      </trkpt>
      <trkpt lat="46.80974995717406" lon="7.1267499681562185">
        <ele>653.74</ele>
      </trkpt>
      <trkpt lat="46.809989931061864" lon="7.126659946516156">
        <ele>652.25</ele>
      </trkpt>
      <trkpt lat="46.81017994880676" lon="7.126619964838028">
        <ele>650.72</ele>
      </trkpt>
      <trkpt lat="46.81040315888822" lon="7.126616612076759">
        <ele>649.16</ele>
      </trkpt>
      <trkpt lat="46.81040324270725" lon="7.126616528257728">
        <ele>649.15</ele>
      </trkpt>
      <trkpt lat="46.81062636896968" lon="7.126613259315491">
        <ele>647.78</ele>
      </trkpt>
      <trkpt lat="46.810849998146296" lon="7.126609990373254">
        <ele>646.53</ele>
      </trkpt>
      <trkpt lat="46.81103984825313" lon="7.126594986766577">
        <ele>645.52</ele>
      </trkpt>
      <trkpt lat="46.81122994981706" lon="7.1265799831599">
        <ele>644.69</ele>
      </trkpt>
      <trkpt lat="46.811483167111874" lon="7.12650328874588">
        <ele>643.94</ele>
      </trkpt>
      <trkpt lat="46.811736384406686" lon="7.126426678150892">
        <ele>643.23</ele>
      </trkpt>
      <trkpt lat="46.811989936977625" lon="7.126349983736873">
        <ele>642.5</ele>
      </trkpt>
      <trkpt lat="46.81186999194324" lon="7.126049995422363">
        <ele>641.73</ele>
      </trkpt>
      <trkpt lat="46.811819951981306" lon="7.1258399449288845">
        <ele>641.09</ele>
      </trkpt>
      <trkpt lat="46.81180997751653" lon="7.125559989362955">
        <ele>640.52</ele>
      </trkpt>
      <trkpt lat="46.811819951981306" lon="7.125449934974313">
        <ele>640.03</ele>
      </trkpt>
      <trkpt lat="46.81190016679466" lon="7.125104181468487">
        <ele>639.6</ele>
      </trkpt>
      <trkpt lat="46.81197996251285" lon="7.124759936705232">
        <ele>639.25</ele>
      </trkpt>
      <trkpt lat="46.81207995861769" lon="7.124339919537306">
        <ele>638.79</ele>
      </trkpt>
      <trkpt lat="46.81212002411485" lon="7.123989053070545">
        <ele>638.19</ele>
      </trkpt>
      <trkpt lat="46.812159921973944" lon="7.123639946803451">
        <ele>637.59</ele>
      </trkpt>
      <trkpt lat="46.81216998025775" lon="7.123289918527007">
        <ele>637.22</ele>
      </trkpt>
      <trkpt lat="46.81216495111585" lon="7.123039299622178">
        <ele>636.94</ele>
      </trkpt>
      <trkpt lat="46.812159921973944" lon="7.122789938002825">
        <ele>636.6</ele>
      </trkpt>
      <trkpt lat="46.81213486008346" lon="7.12248919531703">
        <ele>636.29</ele>
      </trkpt>
      <trkpt lat="46.81210996583104" lon="7.122189961373806">
        <ele>635.99</ele>
      </trkpt>
      <trkpt lat="46.81208658032119" lon="7.1218691021203995">
        <ele>635.71</ele>
      </trkpt>
      <trkpt lat="46.812063194811344" lon="7.121548326686025">
        <ele>635.41</ele>
      </trkpt>
      <trkpt lat="46.81203997693956" lon="7.12122998200357">
        <ele>635.25</ele>
      </trkpt>
      <trkpt lat="46.811989936977625" lon="7.120919935405254">
        <ele>635.22</ele>
      </trkpt>
      <trkpt lat="46.81192313320935" lon="7.120627574622631">
        <ele>635.27</ele>
      </trkpt>
      <trkpt lat="46.81185632944107" lon="7.1203352976590395">
        <ele>635.42</ele>
      </trkpt>
      <trkpt lat="46.81178994476795" lon="7.120044948533177">
        <ele>635.63</ele>
      </trkpt>
      <trkpt lat="46.811723140999675" lon="7.119752587750554">
        <ele>635.92</ele>
      </trkpt>
      <trkpt lat="46.8116563372314" lon="7.1194603107869625">
        <ele>636.19</ele>
      </trkpt>
      <trkpt lat="46.81158995255828" lon="7.1191699616611">
        <ele>636.49</ele>
      </trkpt>
      <trkpt lat="46.81148995645344" lon="7.118819933384657">
        <ele>636.95</ele>
      </trkpt>
      <trkpt lat="46.811369927600026" lon="7.1185399778187275">
        <ele>637.52</ele>
      </trkpt>
      <trkpt lat="46.81116993539035" lon="7.118199924007058">
        <ele>638.24</ele>
      </trkpt>
      <trkpt lat="46.811013109982014" lon="7.117974702268839">
        <ele>638.93</ele>
      </trkpt>
      <trkpt lat="46.810856284573674" lon="7.11774948053062">
        <ele>639.64</ele>
      </trkpt>
      <trkpt lat="46.810699962079525" lon="7.117524929344654">
        <ele>640.38</ele>
      </trkpt>
      <trkpt lat="46.810543136671185" lon="7.117299707606435">
        <ele>641.12</ele>
      </trkpt>
      <trkpt lat="46.810386311262846" lon="7.117074485868216">
        <ele>641.82</ele>
      </trkpt>
      <trkpt lat="46.8102299887687" lon="7.11684993468225">
        <ele>642.53</ele>
      </trkpt>
      <trkpt lat="46.810029996559024" lon="7.116499990224838">
        <ele>643.21</ele>
      </trkpt>
      <trkpt lat="46.809954810887575" lon="7.116294549778104">
        <ele>643.77</ele>
      </trkpt>
      <trkpt lat="46.80987996049225" lon="7.1160899475216866">
        <ele>644.24</ele>
      </trkpt>
      <trkpt lat="46.809799997136" lon="7.115779984742403">
        <ele>644.63</ele>
      </trkpt>
      <trkpt lat="46.80976487696171" lon="7.115534311160445">
        <ele>644.84</ele>
      </trkpt>
      <trkpt lat="46.80972992442548" lon="7.115289978682995">
        <ele>644.97</ele>
      </trkpt>
      <trkpt lat="46.8097098916769" lon="7.114838780835271">
        <ele>645.05</ele>
      </trkpt>
      <trkpt lat="46.809689942747355" lon="7.114389929920435">
        <ele>644.99</ele>
      </trkpt>
      <trkpt lat="46.80968491360545" lon="7.11400561966002">
        <ele>644.82</ele>
      </trkpt>
      <trkpt lat="46.80967996828258" lon="7.113621309399605">
        <ele>644.42</ele>
      </trkpt>
      <trkpt lat="46.80967493914068" lon="7.1132399328053">
        <ele>643.95</ele>
      </trkpt>
      <trkpt lat="46.809669909998775" lon="7.112855622544885">
        <ele>643.37</ele>
      </trkpt>
      <trkpt lat="46.8096649646759" lon="7.11247131228447">
        <ele>642.66</ele>
      </trkpt>
      <trkpt lat="46.809659935534" lon="7.112089935690165">
        <ele>641.89</ele>
      </trkpt>
      <trkpt lat="46.80961651727557" lon="7.111732363700867">
        <ele>640.99</ele>
      </trkpt>
      <trkpt lat="46.80957309901714" lon="7.111374791711569">
        <ele>640.0</ele>
      </trkpt>
      <trkpt lat="46.80952993221581" lon="7.111019985750318">
        <ele>639.04</ele>
      </trkpt>
      <trkpt lat="46.809499925002456" lon="7.111029960215092">
        <ele>638.27</ele>
      </trkpt>
      <trkpt lat="46.80944996885955" lon="7.110669957473874">
        <ele>637.48</ele>
      </trkpt>
      <trkpt lat="46.809366485103965" lon="7.110382709652185">
        <ele>636.71</ele>
      </trkpt>
      <trkpt lat="46.809282917529345" lon="7.110095378011465">
        <ele>636.02</ele>
      </trkpt>
      <trkpt lat="46.809199936687946" lon="7.109809974208474">
        <ele>635.47</ele>
      </trkpt>
      <trkpt lat="46.80907303467393" lon="7.1094960719347">
        <ele>634.92</ele>
      </trkpt>
      <trkpt lat="46.80894613265991" lon="7.109182169660926">
        <ele>634.3</ele>
      </trkpt>
      <trkpt lat="46.80881998501718" lon="7.108869943767786">
        <ele>633.73</ele>
      </trkpt>
      <trkpt lat="46.80875997059047" lon="7.108669951558113">
        <ele>633.29</ele>
      </trkpt>
      <trkpt lat="46.80869727395475" lon="7.1082790195941925">
        <ele>632.94</ele>
      </trkpt>
      <trkpt lat="46.808634996414185" lon="7.10788993164897">
        <ele>632.62</ele>
      </trkpt>
      <trkpt lat="46.80863491259515" lon="7.107889847829938">
        <ele>632.62</ele>
      </trkpt>
      <trkpt lat="46.80857229977846" lon="7.107498999685049">
        <ele>632.38</ele>
      </trkpt>
      <trkpt lat="46.808509938418865" lon="7.107109995558858">
        <ele>632.16</ele>
      </trkpt>
      <trkpt lat="46.80849996395409" lon="7.106819981709123">
        <ele>632.07</ele>
      </trkpt>
      <trkpt lat="46.80846995674074" lon="7.106779916211963">
        <ele>631.98</ele>
      </trkpt>
      <trkpt lat="46.808353029191494" lon="7.106435922905803">
        <ele>631.89</ele>
      </trkpt>
      <trkpt lat="46.80823618546128" lon="7.106091929599643">
        <ele>631.85</ele>
      </trkpt>
      <trkpt lat="46.80811992846429" lon="7.105749947950244">
        <ele>631.82</ele>
      </trkpt>
      <trkpt lat="46.80805999785662" lon="7.105659926310182">
        <ele>631.81</ele>
      </trkpt>
      <trkpt lat="46.80782999843359" lon="7.105429926887155">
        <ele>631.78</ele>
      </trkpt>
      <trkpt lat="46.807819940149784" lon="7.105389945209026">
        <ele>631.8</ele>
      </trkpt>
      <trkpt lat="46.80787995457649" lon="7.105279974639416">
        <ele>631.83</ele>
      </trkpt>
      <trkpt lat="46.80786998011172" lon="7.105259941890836">
        <ele>631.86</ele>
      </trkpt>
      <trkpt lat="46.80773486383259" lon="7.105119880288839">
        <ele>631.92</ele>
      </trkpt>
      <trkpt lat="46.80759999901056" lon="7.104979986324906">
        <ele>631.99</ele>
      </trkpt>
      <trkpt lat="46.8075099773705" lon="7.104919971898198">
        <ele>632.0</ele>
      </trkpt>
      <trkpt lat="46.80732658132911" lon="7.104753255844116">
        <ele>632.01</ele>
      </trkpt>
      <trkpt lat="46.807143185287714" lon="7.104586539790034">
        <ele>631.96</ele>
      </trkpt>
      <trkpt lat="46.806959956884384" lon="7.104419991374016">
        <ele>631.93</ele>
      </trkpt>
      <trkpt lat="46.80679994635284" lon="7.104199966415763">
        <ele>631.87</ele>
      </trkpt>
      <trkpt lat="46.80675996467471" lon="7.1040799375623465">
        <ele>631.8</ele>
      </trkpt>
      <trkpt lat="46.80660992860794" lon="7.103859996423125">
        <ele>631.73</ele>
      </trkpt>
      <trkpt lat="46.80648478679359" lon="7.1036396361887455">
        <ele>631.62</ele>
      </trkpt>
      <trkpt lat="46.806359980255365" lon="7.1034199465066195">
        <ele>631.53</ele>
      </trkpt>
      <trkpt lat="46.80626476183534" lon="7.103124316781759">
        <ele>631.48</ele>
      </trkpt>
      <trkpt lat="46.80616996251047" lon="7.102829944342375">
        <ele>631.38</ele>
      </trkpt>
      <trkpt lat="46.8061198387295" lon="7.102589383721352">
        <ele>631.27</ele>
      </trkpt>
      <trkpt lat="46.80606996640563" lon="7.1023499965667725">
        <ele>631.12</ele>
      </trkpt>
      <trkpt lat="46.80603484623134" lon="7.102089319378138">
        <ele>631.03</ele>
      </trkpt>
      <trkpt lat="46.80599997751415" lon="7.10182998329401">
        <ele>631.0</ele>
      </trkpt>
      <trkpt lat="46.80591993033886" lon="7.101529994979501">
        <ele>630.88</ele>
      </trkpt>
      <trkpt lat="46.805949937552214" lon="7.101209973916411">
        <ele>630.82</ele>
      </trkpt>
      <trkpt lat="46.80587994866073" lon="7.100999923422933">
        <ele>630.78</ele>
      </trkpt>
      <trkpt lat="46.805759919807315" lon="7.100849971175194">
        <ele>630.77</ele>
      </trkpt>
      <trkpt lat="46.80573997087777" lon="7.100749975070357">
        <ele>630.77</ele>
      </trkpt>
      <trkpt lat="46.805759919807315" lon="7.100629946216941">
        <ele>630.8</ele>
      </trkpt>
      <trkpt lat="46.80574994534254" lon="7.100409921258688">
        <ele>630.86</ele>
      </trkpt>
      <trkpt lat="46.80571993812919" lon="7.100359965115786">
        <ele>630.94</ele>
      </trkpt>
      <trkpt lat="46.80568993091583" lon="7.100129965692759">
        <ele>631.06</ele>
      </trkpt>
      <trkpt lat="46.805629916489124" lon="7.10006995126605">
        <ele>631.2</ele>
      </trkpt>
      <trkpt lat="46.8055999930948" lon="7.100059976801276">
        <ele>631.37</ele>
      </trkpt>
      <trkpt lat="46.80554995313287" lon="7.1000799257308245">
        <ele>631.57</ele>
      </trkpt>
      <trkpt lat="46.805519945919514" lon="7.100059976801276">
        <ele>631.8</ele>
      </trkpt>
      <trkpt lat="46.80548490956426" lon="7.099784296005964">
        <ele>632.05</ele>
      </trkpt>
      <trkpt lat="46.80544995702803" lon="7.09950995631516">
        <ele>632.35</ele>
      </trkpt>
      <trkpt lat="46.805459931492805" lon="7.099149953573942">
        <ele>632.66</ele>
      </trkpt>
      <trkpt lat="46.80543486960232" lon="7.098775617778301">
        <ele>633.05</ele>
      </trkpt>
      <trkpt lat="46.80540980771184" lon="7.098401365801692">
        <ele>633.42</ele>
      </trkpt>
      <trkpt lat="46.80538499727845" lon="7.098029963672161">
        <ele>633.81</ele>
      </trkpt>
      <trkpt lat="46.80535993538797" lon="7.09765562787652">
        <ele>634.1</ele>
      </trkpt>
      <trkpt lat="46.805334873497486" lon="7.097281375899911">
        <ele>634.27</ele>
      </trkpt>
      <trkpt lat="46.80530997924507" lon="7.09690997377038">
        <ele>634.48</ele>
      </trkpt>
      <trkpt lat="46.80535993538797" lon="7.096629934385419">
        <ele>634.67</ele>
      </trkpt>
      <trkpt lat="46.80553503334522" lon="7.096795057877898">
        <ele>634.79</ele>
      </trkpt>
      <trkpt lat="46.80570996366441" lon="7.096959929913282">
        <ele>634.93</ele>
      </trkpt>
      <trkpt lat="46.805779952555895" lon="7.096999995410442">
        <ele>635.06</ele>
      </trkpt>
      <trkpt lat="46.80576997809112" lon="7.097099991515279">
        <ele>635.17</ele>
      </trkpt>
      <trkpt lat="46.80598991923034" lon="7.097389921545982">
        <ele>635.25</ele>
      </trkpt>
      <trkpt lat="46.806079940870404" lon="7.097589997574687">
        <ele>635.31</ele>
      </trkpt>
      <trkpt lat="46.80608999915421" lon="7.097739949822426">
        <ele>635.33</ele>
      </trkpt>
      <trkpt lat="46.806079940870404" lon="7.098109927028418">
        <ele>635.27</ele>
      </trkpt>
      <trkpt lat="46.806079940870404" lon="7.0980999525636435">
        <ele>635.24</ele>
      </trkpt>
      <trkpt lat="46.80608999915421" lon="7.0983099192380905">
        <ele>635.17</ele>
      </trkpt>
      <trkpt lat="46.80615009739995" lon="7.098700935021043">
        <ele>635.13</ele>
      </trkpt>
      <trkpt lat="46.806209944188595" lon="7.099089939147234">
        <ele>635.0</ele>
      </trkpt>
      <trkpt lat="46.80621991865337" lon="7.09907996468246">
        <ele>634.94</ele>
      </trkpt>
      <trkpt lat="46.80631522089243" lon="7.099508447572589">
        <ele>634.85</ele>
      </trkpt>
      <trkpt lat="46.80640993639827" lon="7.099934918805957">
        <ele>634.8</ele>
      </trkpt>
      <trkpt lat="46.806505154818296" lon="7.100363485515118">
        <ele>634.73</ele>
      </trkpt>
      <trkpt lat="46.80659995414317" lon="7.100789956748486">
        <ele>634.69</ele>
      </trkpt>
      <trkpt lat="46.806699950248" lon="7.1007399167865515">
        <ele>634.69</ele>
      </trkpt>
      <trkpt lat="46.80688686668873" lon="7.101073767989874">
        <ele>634.6</ele>
      </trkpt>
      <trkpt lat="46.807073783129454" lon="7.101407535374165">
        <ele>634.47</ele>
      </trkpt>
      <trkpt lat="46.80725994519889" lon="7.101739961653948">
        <ele>634.41</ele>
      </trkpt>
      <trkpt lat="46.80728995241225" lon="7.101719928905368">
        <ele>634.35</ele>
      </trkpt>
      <trkpt lat="46.80744686163962" lon="7.1020036563277245">
        <ele>634.28</ele>
      </trkpt>
      <trkpt lat="46.80760368704796" lon="7.102287383750081">
        <ele>634.24</ele>
      </trkpt>
      <trkpt lat="46.807759925723076" lon="7.102569937705994">
        <ele>634.24</ele>
      </trkpt>
      <trkpt lat="46.8079399690032" lon="7.102939998731017">
        <ele>634.25</ele>
      </trkpt>
      <trkpt lat="46.808045161888" lon="7.103255577385426">
        <ele>634.25</ele>
      </trkpt>
      <trkpt lat="46.80814993567765" lon="7.10356998257339">
        <ele>634.19</ele>
      </trkpt>
      <trkpt lat="46.80825521238148" lon="7.1038855612277985">
        <ele>634.18</ele>
      </trkpt>
      <trkpt lat="46.808359986171126" lon="7.104199966415763">
        <ele>634.23</ele>
      </trkpt>
      <trkpt lat="46.808339953422546" lon="7.104209940880537">
        <ele>634.31</ele>
      </trkpt>
      <trkpt lat="46.80838999338448" lon="7.104369951412082">
        <ele>634.42</ele>
      </trkpt>
      <trkpt lat="46.808545142412186" lon="7.104645296931267">
        <ele>634.61</ele>
      </trkpt>
      <trkpt lat="46.808699956163764" lon="7.104919971898198">
        <ele>634.86</ele>
      </trkpt>
      <trkpt lat="46.8088551890105" lon="7.105195317417383">
        <ele>635.17</ele>
      </trkpt>
      <trkpt lat="46.80900991894305" lon="7.1054699923843145">
        <ele>635.49</ele>
      </trkpt>
      <trkpt lat="46.809069933369756" lon="7.105589937418699">
        <ele>635.96</ele>
      </trkpt>
      <trkpt lat="46.809069933369756" lon="7.1056299190968275">
        <ele>636.47</ele>
      </trkpt>
      <trkpt lat="46.809069933369756" lon="7.105619944632053">
        <ele>637.04</ele>
      </trkpt>
      <trkpt lat="46.80905995890498" lon="7.105779955163598">
        <ele>637.63</ele>
      </trkpt>
      <trkpt lat="46.809089966118336" lon="7.1058799512684345">
        <ele>638.28</ele>
      </trkpt>
      <trkpt lat="46.80924997664988" lon="7.105709966272116">
        <ele>639.16</ele>
      </trkpt>
      <trkpt lat="46.809409987181425" lon="7.1058599185198545">
        <ele>639.99</ele>
      </trkpt>
      <trkpt lat="46.80961995385587" lon="7.106019929051399">
        <ele>640.9</ele>
      </trkpt>
      <trkpt lat="46.80982992053032" lon="7.106139957904816">
        <ele>641.82</ele>
      </trkpt>
      <trkpt lat="46.81002991273999" lon="7.106224950402975">
        <ele>642.61</ele>
      </trkpt>
      <trkpt lat="46.8102299887687" lon="7.1063099429011345">
        <ele>643.25</ele>
      </trkpt>
      <trkpt lat="46.810419922694564" lon="7.106339950114489">
        <ele>643.8</ele>
      </trkpt>
      <trkpt lat="46.8106599804014" lon="7.10627993568778">
        <ele>644.17</ele>
      </trkpt>
      <trkpt lat="46.8108999542892" lon="7.106109950691462">
        <ele>644.57</ele>
      </trkpt>
      <trkpt lat="46.810979917645454" lon="7.106099976226687">
        <ele>644.74</ele>
      </trkpt>
      <trkpt lat="46.81111997924745" lon="7.106009954586625">
        <ele>644.81</ele>
      </trkpt>
      <trkpt lat="46.81115996092558" lon="7.106049936264753">
        <ele>644.7</ele>
      </trkpt>
      <trkpt lat="46.81118996813893" lon="7.106029987335205">
        <ele>644.48</ele>
      </trkpt>
      <trkpt lat="46.811239924281836" lon="7.10614993236959">
        <ele>644.04</ele>
      </trkpt>
      <trkpt lat="46.81118996813893" lon="7.106029987335205">
        <ele>644.48</ele>
      </trkpt>
      <trkpt lat="46.81131016463041" lon="7.106327125802636">
        <ele>642.85</ele>
      </trkpt>
      <trkpt lat="46.81143036112189" lon="7.106624348089099">
        <ele>642.0</ele>
      </trkpt>
      <trkpt lat="46.81154997088015" lon="7.106919977813959">
        <ele>641.17</ele>
      </trkpt>
      <trkpt lat="46.81167687289417" lon="7.107193730771542">
        <ele>640.22</ele>
      </trkpt>
      <trkpt lat="46.81180369108915" lon="7.107467483729124">
        <ele>639.17</ele>
      </trkpt>
      <trkpt lat="46.81192992255092" lon="7.107739979401231">
        <ele>638.01</ele>
      </trkpt>
      <trkpt lat="46.81191994808614" lon="7.107739979401231">
        <ele>636.98</ele>
      </trkpt>
      <trkpt lat="46.81205020286143" lon="7.108023790642619">
        <ele>635.83</ele>
      </trkpt>
      <trkpt lat="46.81218037381768" lon="7.108307518064976">
        <ele>634.71</ele>
      </trkpt>
      <trkpt lat="46.812309958040714" lon="7.108589988201857">
        <ele>633.63</ele>
      </trkpt>
      <trkpt lat="46.812269976362586" lon="7.108619995415211">
        <ele>632.56</ele>
      </trkpt>
      <trkpt lat="46.81231993250549" lon="7.108719991520047">
        <ele>631.51</ele>
      </trkpt>
      <trkpt lat="46.812309958040714" lon="7.108839936554432">
        <ele>630.44</ele>
      </trkpt>
      <trkpt lat="46.812289925292134" lon="7.108849994838238">
        <ele>629.44</ele>
      </trkpt>
      <trkpt lat="46.81229998357594" lon="7.108839936554432">
        <ele>628.52</ele>
      </trkpt>
      <trkpt lat="46.8121621850878" lon="7.109235730022192">
        <ele>627.33</ele>
      </trkpt>
      <trkpt lat="46.81202497333288" lon="7.1096299309283495">
        <ele>626.42</ele>
      </trkpt>
      <trkpt lat="46.81188717484474" lon="7.11002572439611">
        <ele>625.59</ele>
      </trkpt>
      <trkpt lat="46.811749963089824" lon="7.110419925302267">
        <ele>624.91</ele>
      </trkpt>
      <trkpt lat="46.81177997030318" lon="7.110499972477555">
        <ele>624.28</ele>
      </trkpt>
      <trkpt lat="46.81185515597463" lon="7.11076551117003">
        <ele>623.67</ele>
      </trkpt>
      <trkpt lat="46.81192992255092" lon="7.111029960215092">
        <ele>623.2</ele>
      </trkpt>
      <trkpt lat="46.812006784603" lon="7.111415276303887">
        <ele>622.91</ele>
      </trkpt>
      <trkpt lat="46.81208364665508" lon="7.111800676211715">
        <ele>622.65</ele>
      </trkpt>
      <trkpt lat="46.812160005792975" lon="7.1121833100914955">
        <ele>622.47</ele>
      </trkpt>
      <trkpt lat="46.81223678402603" lon="7.112568626180291">
        <ele>622.34</ele>
      </trkpt>
      <trkpt lat="46.81231364607811" lon="7.1129540260881186">
        <ele>622.22</ele>
      </trkpt>
      <trkpt lat="46.812390005216" lon="7.113336576148868">
        <ele>622.15</ele>
      </trkpt>
      <trkpt lat="46.812466783449054" lon="7.113721976056695">
        <ele>622.11</ele>
      </trkpt>
      <trkpt lat="46.81254364550114" lon="7.114107375964522">
        <ele>622.17</ele>
      </trkpt>
      <trkpt lat="46.81261992082" lon="7.114489926025271">
        <ele>622.43</ele>
      </trkpt>
      <trkpt lat="46.812629979103804" lon="7.114609954878688">
        <ele>622.66</ele>
      </trkpt>
      <trkpt lat="46.81257993914187" lon="7.11467994377017">
        <ele>622.88</ele>
      </trkpt>
      <trkpt lat="46.81261992082" lon="7.114879935979843">
        <ele>623.06</ele>
      </trkpt>
      <trkpt lat="46.812699967995286" lon="7.11497993208468">
        <ele>623.17</ele>
      </trkpt>
      <trkpt lat="46.81272997520864" lon="7.115069953724742">
        <ele>623.29</ele>
      </trkpt>
      <trkpt lat="46.81279342621565" lon="7.115386286750436">
        <ele>623.36</ele>
      </trkpt>
      <trkpt lat="46.81285696104169" lon="7.115702535957098">
        <ele>623.41</ele>
      </trkpt>
      <trkpt lat="46.81291999295354" lon="7.116016605868936">
        <ele>623.4</ele>
      </trkpt>
      <trkpt lat="46.81298344396055" lon="7.1163329388946295">
        <ele>623.23</ele>
      </trkpt>
      <trkpt lat="46.813046894967556" lon="7.116649188101292">
        <ele>623.04</ele>
      </trkpt>
      <trkpt lat="46.813109926879406" lon="7.116963258013129">
        <ele>622.83</ele>
      </trkpt>
      <trkpt lat="46.813173461705446" lon="7.117279591038823">
        <ele>622.65</ele>
      </trkpt>
      <trkpt lat="46.813236912712455" lon="7.117595924064517">
        <ele>622.42</ele>
      </trkpt>
      <trkpt lat="46.813299944624305" lon="7.117909993976355">
        <ele>622.09</ele>
      </trkpt>
      <trkpt lat="46.813299944624305" lon="7.117889961227775">
        <ele>621.75</ele>
      </trkpt>
      <trkpt lat="46.81338267400861" lon="7.1183026023209095">
        <ele>621.39</ele>
      </trkpt>
      <trkpt lat="46.81346540339291" lon="7.118715243414044">
        <ele>620.99</ele>
      </trkpt>
      <trkpt lat="46.81354746222496" lon="7.119124950841069">
        <ele>620.55</ele>
      </trkpt>
      <trkpt lat="46.81363019160926" lon="7.119537591934204">
        <ele>620.11</ele>
      </trkpt>
      <trkpt lat="46.813712837174535" lon="7.119950233027339">
        <ele>619.6</ele>
      </trkpt>
      <trkpt lat="46.813794979825616" lon="7.120359940454364">
        <ele>619.16</ele>
      </trkpt>
      <trkpt lat="46.81387770920992" lon="7.120772581547499">
        <ele>618.62</ele>
      </trkpt>
      <trkpt lat="46.81396018713713" lon="7.121184384450316">
        <ele>618.02</ele>
      </trkpt>
      <trkpt lat="46.81396035477519" lon="7.121185222640634">
        <ele>618.02</ele>
      </trkpt>
      <trkpt lat="46.81404249742627" lon="7.121594930067658">
        <ele>617.71</ele>
      </trkpt>
      <trkpt lat="46.81412514299154" lon="7.122007571160793">
        <ele>617.65</ele>
      </trkpt>
      <trkpt lat="46.814207872375846" lon="7.122420212253928">
        <ele>617.61</ele>
      </trkpt>
      <trkpt lat="46.814289931207895" lon="7.122829919680953">
        <ele>617.52</ele>
      </trkpt>
      <trkpt lat="46.814325051382184" lon="7.123080622404814">
        <ele>617.52</ele>
      </trkpt>
      <trkpt lat="46.81435992009938" lon="7.123329984024167">
        <ele>617.58</ele>
      </trkpt>
      <trkpt lat="46.81440996006131" lon="7.123419921845198">
        <ele>617.68</ele>
      </trkpt>
      <trkpt lat="46.814486822113395" lon="7.1238375920802355">
        <ele>617.9</ele>
      </trkpt>
      <trkpt lat="46.81456368416548" lon="7.124255262315273">
        <ele>618.2</ele>
      </trkpt>
      <trkpt lat="46.81463995948434" lon="7.124669915065169">
        <ele>618.62</ele>
      </trkpt>
      <trkpt lat="46.81471682153642" lon="7.125087585300207">
        <ele>618.98</ele>
      </trkpt>
      <trkpt lat="46.814793683588505" lon="7.125505255535245">
        <ele>619.29</ele>
      </trkpt>
      <trkpt lat="46.814869958907366" lon="7.125919992104173">
        <ele>619.6</ele>
      </trkpt>
      <trkpt lat="46.814869958907366" lon="7.126029962673783">
        <ele>619.96</ele>
      </trkpt>
      <trkpt lat="46.81483995169401" lon="7.126099951565266">
        <ele>620.35</ele>
      </trkpt>
      <trkpt lat="46.81487993337214" lon="7.1262699365615845">
        <ele>620.69</ele>
      </trkpt>
      <trkpt lat="46.81494992226362" lon="7.126349983736873">
        <ele>620.99</ele>
      </trkpt>
      <trkpt lat="46.815050169825554" lon="7.126730773597956">
        <ele>621.49</ele>
      </trkpt>
      <trkpt lat="46.81514999829233" lon="7.127109970897436">
        <ele>621.99</ele>
      </trkpt>
      <trkpt lat="46.815265165641904" lon="7.127420520409942">
        <ele>622.27</ele>
      </trkpt>
      <trkpt lat="46.815379997715354" lon="7.127729980275035">
        <ele>622.38</ele>
      </trkpt>
      <trkpt lat="46.81545996107161" lon="7.12784992530942">
        <ele>622.6</ele>
      </trkpt>
      <trkpt lat="46.81550991721451" lon="7.127989986911416">
        <ele>622.89</ele>
      </trkpt>
      <trkpt lat="46.81549994274974" lon="7.128049917519093">
        <ele>623.25</ele>
      </trkpt>
      <trkpt lat="46.81549994274974" lon="7.128209928050637">
        <ele>623.64</ele>
      </trkpt>
      <trkpt lat="46.81555995717645" lon="7.1282699424773455">
        <ele>623.94</ele>
      </trkpt>
      <trkpt lat="46.81544638238847" lon="7.128560459241271">
        <ele>624.52</ele>
      </trkpt>
      <trkpt lat="46.81533289141953" lon="7.128851059824228">
        <ele>624.89</ele>
      </trkpt>
      <trkpt lat="46.81521998718381" lon="7.129139984026551">
        <ele>625.3</ele>
      </trkpt>
      <trkpt lat="46.815069699659944" lon="7.129455478861928">
        <ele>625.8</ele>
      </trkpt>
      <trkpt lat="46.8149199988693" lon="7.129769967868924">
        <ele>626.56</ele>
      </trkpt>
      <trkpt lat="46.814809776842594" lon="7.129960237070918">
        <ele>627.38</ele>
      </trkpt>
      <trkpt lat="46.81469997391105" lon="7.13014991953969">
        <ele>628.21</ele>
      </trkpt>
      <trkpt lat="46.81451481766999" lon="7.130390144884586">
        <ele>629.09</ele>
      </trkpt>
      <trkpt lat="46.814329996705055" lon="7.130629951134324">
        <ele>630.09</ele>
      </trkpt>
      <trkpt lat="46.81421994231641" lon="7.130679991096258">
        <ele>631.18</ele>
      </trkpt>
      <trkpt lat="46.81416998617351" lon="7.130679991096258">
        <ele>632.28</ele>
      </trkpt>
      <trkpt lat="46.81399991735816" lon="7.130489973351359">
        <ele>633.54</ele>
      </trkpt>
      <trkpt lat="46.813766565173864" lon="7.130276570096612">
        <ele>634.83</ele>
      </trkpt>
      <trkpt lat="46.81353312917054" lon="7.130063166841865">
        <ele>636.16</ele>
      </trkpt>
      <trkpt lat="46.813299944624305" lon="7.129849931225181">
        <ele>637.53</ele>
      </trkpt>
      <trkpt lat="46.8131947517395" lon="7.12962462566793">
        <ele>638.85</ele>
      </trkpt>
      <trkpt lat="46.81308997794986" lon="7.129399990662932">
        <ele>640.09</ele>
      </trkpt>
      <trkpt lat="46.81299978867173" lon="7.129169572144747">
        <ele>641.3</ele>
      </trkpt>
      <trkpt lat="46.81290993466973" lon="7.128939991816878">
        <ele>642.47</ele>
      </trkpt>
      <trkpt lat="46.812803065404296" lon="7.128609241917729">
        <ele>643.64</ele>
      </trkpt>
      <trkpt lat="46.81269619613886" lon="7.128278575837612">
        <ele>644.77</ele>
      </trkpt>
      <trkpt lat="46.812589997425675" lon="7.127949921414256">
        <ele>645.77</ele>
      </trkpt>
      <trkpt lat="46.81257993914187" lon="7.1278199180960655">
        <ele>646.68</ele>
      </trkpt>
      <trkpt lat="46.81238992139697" lon="7.127959979698062">
        <ele>647.59</ele>
      </trkpt>
      <trkpt lat="46.812199987471104" lon="7.128179920837283">
        <ele>648.45</ele>
      </trkpt>
      <trkpt lat="46.81207995861769" lon="7.128349989652634">
        <ele>649.23</ele>
      </trkpt>
      <trkpt lat="46.81195992976427" lon="7.128569930791855">
        <ele>649.98</ele>
      </trkpt>
      <trkpt lat="46.811833111569285" lon="7.128847120329738">
        <ele>650.63</ele>
      </trkpt>
      <trkpt lat="46.81170620955527" lon="7.129124226048589">
        <ele>651.32</ele>
      </trkpt>
      <trkpt lat="46.811579978093505" lon="7.129399990662932">
        <ele>652.02</ele>
      </trkpt>
      <trkpt lat="46.81150982156396" lon="7.1296806167811155">
        <ele>652.73</ele>
      </trkpt>
      <trkpt lat="46.81143991649151" lon="7.129959985613823">
        <ele>653.49</ele>
      </trkpt>
      <trkpt lat="46.81135995313525" lon="7.129909945651889">
        <ele>654.04</ele>
      </trkpt>
      <trkpt lat="46.8113299459219" lon="7.129969960078597">
        <ele>654.62</ele>
      </trkpt>
      <trkpt lat="46.81120991706848" lon="7.130079930648208">
        <ele>655.19</ele>
      </trkpt>
      <trkpt lat="46.81098670698702" lon="7.1300899889320135">
        <ele>655.72</ele>
      </trkpt>
      <trkpt lat="46.810763496905565" lon="7.130099963396788">
        <ele>656.29</ele>
      </trkpt>
      <trkpt lat="46.81053995154798" lon="7.130109937861562">
        <ele>656.85</ele>
      </trkpt>
      <trkpt lat="46.81031674146652" lon="7.130119912326336">
        <ele>657.32</ele>
      </trkpt>
      <trkpt lat="46.810093531385064" lon="7.130129970610142">
        <ele>657.83</ele>
      </trkpt>
      <trkpt lat="46.80986998602748" lon="7.130139945074916">
        <ele>658.27</ele>
      </trkpt>
      <trkpt lat="46.809600088745356" lon="7.13014748878777">
        <ele>658.77</ele>
      </trkpt>
      <trkpt lat="46.80932994000614" lon="7.130154948681593">
        <ele>659.33</ele>
      </trkpt>
      <trkpt lat="46.809060126543045" lon="7.130162492394447">
        <ele>659.8</ele>
      </trkpt>
      <trkpt lat="46.808789977803826" lon="7.13016995228827">
        <ele>660.24</ele>
      </trkpt>
      <trkpt lat="46.808789977803826" lon="7.130139945074916">
        <ele>660.7</ele>
      </trkpt>
      <trkpt lat="46.80853994563222" lon="7.1302699483931065">
        <ele>661.13</ele>
      </trkpt>
      <trkpt lat="46.808509938418865" lon="7.130349995568395">
        <ele>661.6</ele>
      </trkpt>
      <trkpt lat="46.8082526139915" lon="7.13036248460412">
        <ele>662.12</ele>
      </trkpt>
      <trkpt lat="46.808252446353436" lon="7.13036248460412">
        <ele>662.12</ele>
      </trkpt>
      <trkpt lat="46.807994954288006" lon="7.130374973639846">
        <ele>662.7</ele>
      </trkpt>
      <trkpt lat="46.80773762986064" lon="7.130387462675571">
        <ele>663.33</ele>
      </trkpt>
      <trkpt lat="46.80747997015715" lon="7.130399951711297">
        <ele>664.09</ele>
      </trkpt>
      <trkpt lat="46.80746991187334" lon="7.129978844895959">
        <ele>664.91</ele>
      </trkpt>
      <trkpt lat="46.80745993740857" lon="7.129559917375445">
        <ele>665.75</ele>
      </trkpt>
      <trkpt lat="46.80741995573044" lon="7.129629990085959">
        <ele>666.41</ele>
      </trkpt>
      <trkpt lat="46.80729992687702" lon="7.129619931802154">
        <ele>667.12</ele>
      </trkpt>
      <trkpt lat="46.80720998905599" lon="7.129509961232543">
        <ele>667.84</ele>
      </trkpt>
      <trkpt lat="46.80715994909406" lon="7.129379957914352">
        <ele>668.56</ele>
      </trkpt>
      <trkpt lat="46.80715659633279" lon="7.129002269357443">
        <ele>669.18</ele>
      </trkpt>
      <trkpt lat="46.80715324357152" lon="7.128624664619565">
        <ele>669.89</ele>
      </trkpt>
      <trkpt lat="46.80714997462928" lon="7.128249993547797">
        <ele>670.79</ele>
      </trkpt>
      <trkpt lat="46.80713991634548" lon="7.1280899830162525">
        <ele>671.56</ele>
      </trkpt>
      <trkpt lat="46.80709993466735" lon="7.12799996137619">
        <ele>672.28</ele>
      </trkpt>
      <trkpt lat="46.80703992024064" lon="7.127929972484708">
        <ele>672.98</ele>
      </trkpt>
      <trkpt lat="46.80690991692245" lon="7.127899965271354">
        <ele>673.61</ele>
      </trkpt>
      <trkpt lat="46.8068899679929" lon="7.1278599835932255">
        <ele>674.21</ele>
      </trkpt>
      <trkpt lat="46.80683992803097" lon="7.12784992530942">
        <ele>674.78</ele>
      </trkpt>
      <trkpt lat="46.80684495717287" lon="7.127594277262688">
        <ele>675.39</ele>
      </trkpt>
      <trkpt lat="46.806849986314774" lon="7.127339970320463">
        <ele>675.95</ele>
      </trkpt>
      <trkpt lat="46.80685996077955" lon="7.127309963107109">
        <ele>676.45</ele>
      </trkpt>
      <trkpt lat="46.80655997246504" lon="7.127299988642335">
        <ele>676.97</ele>
      </trkpt>
      <trkpt lat="46.80628680624068" lon="7.127309963107109">
        <ele>677.39</ele>
      </trkpt>
      <trkpt lat="46.806013556197286" lon="7.127319937571883">
        <ele>677.84</ele>
      </trkpt>
      <trkpt lat="46.80573997087777" lon="7.127329995855689">
        <ele>678.35</ele>
      </trkpt>
      <trkpt lat="46.805523382499814" lon="7.127304933965206">
        <ele>678.86</ele>
      </trkpt>
      <trkpt lat="46.80530687794089" lon="7.127279955893755">
        <ele>679.36</ele>
      </trkpt>
      <trkpt lat="46.805089954286814" lon="7.127254977822304">
        <ele>679.79</ele>
      </trkpt>
      <trkpt lat="46.80487336590886" lon="7.127229999750853">
        <ele>680.18</ele>
      </trkpt>
      <trkpt lat="46.80465686134994" lon="7.127205021679401">
        <ele>680.59</ele>
      </trkpt>
      <trkpt lat="46.80443993769586" lon="7.1271799597889185">
        <ele>680.96</ele>
      </trkpt>
      <trkpt lat="46.80437992326915" lon="7.12713997811079">
        <ele>681.11</ele>
      </trkpt>
      <trkpt lat="46.80432996712625" lon="7.127039982005954">
        <ele>681.18</ele>
      </trkpt>
      <trkpt lat="46.80437992326915" lon="7.126829931512475">
        <ele>681.08</ele>
      </trkpt>
      <trkpt lat="46.80436994880438" lon="7.126509994268417">
        <ele>680.99</ele>
      </trkpt>
      <trkpt lat="46.804339941591024" lon="7.126429947093129">
        <ele>680.93</ele>
      </trkpt>
      <trkpt lat="46.80419996380806" lon="7.126219980418682">
        <ele>680.86</ele>
      </trkpt>
      <trkpt lat="46.804109774529934" lon="7.125926027074456">
        <ele>680.84</ele>
      </trkpt>
      <trkpt lat="46.80401958525181" lon="7.12563207373023">
        <ele>680.8</ele>
      </trkpt>
      <trkpt lat="46.803929982706904" lon="7.125339964404702">
        <ele>680.88</ele>
      </trkpt>
      <trkpt lat="46.80384473875165" lon="7.124996641650796">
        <ele>681.07</ele>
      </trkpt>
      <trkpt lat="46.803759997710586" lon="7.124654995277524">
        <ele>681.4</ele>
      </trkpt>
      <trkpt lat="46.80367475375533" lon="7.124311672523618">
        <ele>681.94</ele>
      </trkpt>
      <trkpt lat="46.803589928895235" lon="7.123969942331314">
        <ele>682.65</ele>
      </trkpt>
      <trkpt lat="46.80350476875901" lon="7.123569035902619">
        <ele>683.52</ele>
      </trkpt>
      <trkpt lat="46.803419943898916" lon="7.123169973492622">
        <ele>684.44</ele>
      </trkpt>
      <trkpt lat="46.803369987756014" lon="7.122819945216179">
        <ele>691.31</ele>
      </trkpt>
      <trkpt lat="46.803200002759695" lon="7.122859926894307">
        <ele>686.55</ele>
      </trkpt>
      <trkpt lat="46.803029933944345" lon="7.122899992391467">
        <ele>691.75</ele>
      </trkpt>
      <trkpt lat="46.80279993452132" lon="7.122869985178113">
        <ele>692.34</ele>
      </trkpt>
      <trkpt lat="46.80250011384487" lon="7.122807456180453">
        <ele>691.03</ele>
      </trkpt>
      <trkpt lat="46.8021999578923" lon="7.122744927182794">
        <ele>692.61</ele>
      </trkpt>
      <trkpt lat="46.80190013721585" lon="7.122682482004166">
        <ele>694.01</ele>
      </trkpt>
      <trkpt lat="46.80159998126328" lon="7.122619953006506">
        <ele>695.2</ele>
      </trkpt>
      <trkpt lat="46.80149998515844" lon="7.122599920257926">
        <ele>695.77</ele>
      </trkpt>
      <trkpt lat="46.80140996351838" lon="7.1225399896502495">
        <ele>696.29</ele>
      </trkpt>
      <trkpt lat="46.80127996020019" lon="7.122559938579798">
        <ele>696.85</ele>
      </trkpt>
      <trkpt lat="46.80108508095145" lon="7.122524986043572">
        <ele>698.72</ele>
      </trkpt>
      <trkpt lat="46.80088995024562" lon="7.122489949688315">
        <ele>698.08</ele>
      </trkpt>
      <trkpt lat="46.80075994692743" lon="7.122509982436895">
        <ele>698.7</ele>
      </trkpt>
      <trkpt lat="46.800600020214915" lon="7.122579971328378">
        <ele>700.39</ele>
      </trkpt>
      <trkpt lat="46.80043992586434" lon="7.12264996021986">
        <ele>700.38</ele>
      </trkpt>
      <trkpt lat="46.800366416573524" lon="7.1222958248108625">
        <ele>701.35</ele>
      </trkpt>
      <trkpt lat="46.80029290728271" lon="7.121941605582833">
        <ele>701.94</ele>
      </trkpt>
      <trkpt lat="46.80021998472512" lon="7.121589984744787">
        <ele>702.66</ele>
      </trkpt>
      <trkpt lat="46.80030514486134" lon="7.122000949457288">
        <ele>702.62</ele>
      </trkpt>
      <trkpt lat="46.80038996972144" lon="7.122409986332059">
        <ele>701.42</ele>
      </trkpt>
      <trkpt lat="46.80034998804331" lon="7.122419960796833">
        <ele>702.62</ele>
      </trkpt>
      <trkpt lat="46.800264744088054" lon="7.122014025226235">
        <ele>705.31</ele>
      </trkpt>
      <trkpt lat="46.80017991922796" lon="7.1216099336743355">
        <ele>705.79</ele>
      </trkpt>
      <trkpt lat="46.8000999558717" lon="7.121389992535114">
        <ele>707.28</ele>
      </trkpt>
      <trkpt lat="46.80002996698022" lon="7.121259989216924">
        <ele>708.46</ele>
      </trkpt>
      <trkpt lat="46.79995997808874" lon="7.121169967576861">
        <ele>709.35</ele>
      </trkpt>
      <trkpt lat="46.799849923700094" lon="7.121069971472025">
        <ele>710.1</ele>
      </trkpt>
      <trkpt lat="46.79963995702565" lon="7.12090996094048">
        <ele>710.33</ele>
      </trkpt>
      <trkpt lat="46.7994299903512" lon="7.1207499504089355">
        <ele>710.04</ele>
      </trkpt>
    </trkseg>
  </trk>
</gpx>
