<?xml version="1.0" encoding="UTF-8"?>
<gpx creator="Garmin Connect" version="1.1"
  xsi:schemaLocation="http://www.topografix.com/GPX/1/1 http://www.topografix.com/GPX/11.xsd"
  xmlns:ns3="http://www.garmin.com/xmlschemas/TrackPointExtension/v1"
  xmlns="http://www.topografix.com/GPX/1/1"
  xmlns:xsi="http://www.w3.org/2001/XMLSchema-instance" xmlns:ns2="http://www.garmin.com/xmlschemas/GpxExtensions/v3">
  <metadata>
    <name>18.02.2026_GPMF</name>
    <link href="connect.garmin.com">
      <text>Garmin Connect</text>
    </link>
    <time>2026-02-18T09:31:46.000Z</time>
  </metadata>
  <trk>
    <name>18.02.2026_GPMF</name>
    <trkseg>
      <trkpt lat="46.79903998039663" lon="7.120669903233647">
        <ele>710.79</ele>
      </trkpt>
      <trkpt lat="46.79926000535488" lon="7.120839972048998">
        <ele>710.69</ele>
      </trkpt>
      <trkpt lat="46.7994799464941" lon="7.121009957045317">
        <ele>711.22</ele>
      </trkpt>
      <trkpt lat="46.79958991706371" lon="7.120959917083383">
        <ele>711.34</ele>
      </trkpt>
      <trkpt lat="46.79960994981229" lon="7.1208899281919">
        <ele>711.12</ele>
      </trkpt>
      <trkpt lat="46.799849923700094" lon="7.121069971472025">
        <ele>710.92</ele>
      </trkpt>
      <trkpt lat="46.79995997808874" lon="7.121169967576861">
        <ele>710.26</ele>
      </trkpt>
      <trkpt lat="46.80002996698022" lon="7.121259989216924">
        <ele>709.45</ele>
      </trkpt>
      <trkpt lat="46.8000999558717" lon="7.121389992535114">
        <ele>708.35</ele>
      </trkpt>
      <trkpt lat="46.80017991922796" lon="7.1216099336743355">
        <ele>706.91</ele>
      </trkpt>
      <trkpt lat="46.80026516318321" lon="7.122015869244933">
        <ele>705.22</ele>
      </trkpt>
      <trkpt lat="46.80034998804331" lon="7.122419960796833">
        <ele>703.79</ele>
      </trkpt>
      <trkpt lat="46.80038996972144" lon="7.122409986332059">
        <ele>702.6</ele>
      </trkpt>
      <trkpt lat="46.80043992586434" lon="7.12264996021986">
        <ele>701.55</ele>
      </trkpt>
      <trkpt lat="46.800599936395884" lon="7.122579971328378">
        <ele>700.61</ele>
      </trkpt>
      <trkpt lat="46.80075994692743" lon="7.122509982436895">
        <ele>699.75</ele>
      </trkpt>
      <trkpt lat="46.80088995024562" lon="7.122489949688315">
        <ele>698.99</ele>
      </trkpt>
      <trkpt lat="46.80108482949436" lon="7.122524902224541">
        <ele>698.18</ele>
      </trkpt>
      <trkpt lat="46.80127996020019" lon="7.122559938579798">
        <ele>697.32</ele>
      </trkpt>
      <trkpt lat="46.80140996351838" lon="7.1225399896502495">
        <ele>696.43</ele>
      </trkpt>
      <trkpt lat="46.80149998515844" lon="7.122599920257926">
        <ele>695.51</ele>
      </trkpt>
      <trkpt lat="46.80174993351102" lon="7.12264996021986">
        <ele>694.48</ele>
      </trkpt>
      <trkpt lat="46.80201237089932" lon="7.122704945504665">
        <ele>693.28</ele>
      </trkpt>
      <trkpt lat="46.802274975925684" lon="7.122759930789471">
        <ele>691.93</ele>
      </trkpt>
      <trkpt lat="46.80253732949495" lon="7.122814916074276">
        <ele>690.44</ele>
      </trkpt>
      <trkpt lat="46.80279993452132" lon="7.122869985178113">
        <ele>688.9</ele>
      </trkpt>
      <trkpt lat="46.803029933944345" lon="7.122899992391467">
        <ele>687.47</ele>
      </trkpt>
      <trkpt lat="46.80325482040644" lon="7.122845007106662">
        <ele>686.26</ele>
      </trkpt>
      <trkpt lat="46.803479958325624" lon="7.122789938002825">
        <ele>685.29</ele>
      </trkpt>
      <trkpt lat="46.803369987756014" lon="7.122819945216179">
        <ele>684.36</ele>
      </trkpt>
      <trkpt lat="46.803419943898916" lon="7.123169973492622">
        <ele>683.56</ele>
      </trkpt>
      <trkpt lat="46.80350518785417" lon="7.123570879921317">
        <ele>682.83</ele>
      </trkpt>
      <trkpt lat="46.803589928895235" lon="7.123969942331314">
        <ele>682.15</ele>
      </trkpt>
      <trkpt lat="46.80367517285049" lon="7.12431326508522">
        <ele>681.61</ele>
      </trkpt>
      <trkpt lat="46.803759997710586" lon="7.124654995277524">
        <ele>681.22</ele>
      </trkpt>
      <trkpt lat="46.80384515784681" lon="7.1249982342123985">
        <ele>681.01</ele>
      </trkpt>
      <trkpt lat="46.803929982706904" lon="7.125339964404702">
        <ele>680.93</ele>
      </trkpt>
      <trkpt lat="46.80402017198503" lon="7.125633917748928">
        <ele>680.95</ele>
      </trkpt>
      <trkpt lat="46.804110361263156" lon="7.125927871093154">
        <ele>681.07</ele>
      </trkpt>
      <trkpt lat="46.80419996380806" lon="7.126219980418682">
        <ele>681.17</ele>
      </trkpt>
      <trkpt lat="46.804339941591024" lon="7.126429947093129">
        <ele>681.29</ele>
      </trkpt>
      <trkpt lat="46.80436994880438" lon="7.126509994268417">
        <ele>681.41</ele>
      </trkpt>
      <trkpt lat="46.80437992326915" lon="7.126829931512475">
        <ele>681.53</ele>
      </trkpt>
      <trkpt lat="46.80432996712625" lon="7.127039982005954">
        <ele>681.66</ele>
      </trkpt>
      <trkpt lat="46.80437992326915" lon="7.12713997811079">
        <ele>681.62</ele>
      </trkpt>
      <trkpt lat="46.80440993048251" lon="7.1271599270403385">
        <ele>681.51</ele>
      </trkpt>
      <trkpt lat="46.80443993769586" lon="7.1271799597889185">
        <ele>681.32</ele>
      </trkpt>
      <trkpt lat="46.80465652607381" lon="7.12720493786037">
        <ele>680.9</ele>
      </trkpt>
      <trkpt lat="46.804873030632734" lon="7.127229915931821">
        <ele>680.43</ele>
      </trkpt>
      <trkpt lat="46.805089954286814" lon="7.127254977822304">
        <ele>679.99</ele>
      </trkpt>
      <trkpt lat="46.805306542664766" lon="7.127279955893755">
        <ele>679.51</ele>
      </trkpt>
      <trkpt lat="46.80552304722369" lon="7.127304933965206">
        <ele>678.96</ele>
      </trkpt>
      <trkpt lat="46.80573997087777" lon="7.127329995855689">
        <ele>678.42</ele>
      </trkpt>
      <trkpt lat="46.80596485733986" lon="7.127322452142835">
        <ele>677.87</ele>
      </trkpt>
      <trkpt lat="46.80618999525905" lon="7.127314992249012">
        <ele>677.39</ele>
      </trkpt>
      <trkpt lat="46.80641479790211" lon="7.127307448536158">
        <ele>676.96</ele>
      </trkpt>
      <trkpt lat="46.806639935821295" lon="7.127299988642335">
        <ele>676.5</ele>
      </trkpt>
      <trkpt lat="46.80685996077955" lon="7.127309963107109">
        <ele>675.99</ele>
      </trkpt>
      <trkpt lat="46.806849986314774" lon="7.127339970320463">
        <ele>675.51</ele>
      </trkpt>
      <trkpt lat="46.80684495717287" lon="7.127595618367195">
        <ele>674.99</ele>
      </trkpt>
      <trkpt lat="46.80683992803097" lon="7.12784992530942">
        <ele>674.42</ele>
      </trkpt>
      <trkpt lat="46.8068899679929" lon="7.1278599835932255">
        <ele>673.91</ele>
      </trkpt>
      <trkpt lat="46.80690991692245" lon="7.127899965271354">
        <ele>673.38</ele>
      </trkpt>
      <trkpt lat="46.80703992024064" lon="7.127929972484708">
        <ele>672.84</ele>
      </trkpt>
      <trkpt lat="46.80709993466735" lon="7.12799996137619">
        <ele>672.25</ele>
      </trkpt>
      <trkpt lat="46.80713991634548" lon="7.1280899830162525">
        <ele>671.63</ele>
      </trkpt>
      <trkpt lat="46.80714997462928" lon="7.128249993547797">
        <ele>671.0</ele>
      </trkpt>
      <trkpt lat="46.80714997462928" lon="7.128691133111715">
        <ele>670.22</ele>
      </trkpt>
      <trkpt lat="46.80714997462928" lon="7.129129925742745">
        <ele>669.73</ele>
      </trkpt>
      <trkpt lat="46.80714997462928" lon="7.129109976813197">
        <ele>669.2</ele>
      </trkpt>
      <trkpt lat="46.80715994909406" lon="7.129379957914352">
        <ele>668.71</ele>
      </trkpt>
      <trkpt lat="46.80720998905599" lon="7.129509961232543">
        <ele>668.17</ele>
      </trkpt>
      <trkpt lat="46.80729992687702" lon="7.129619931802154">
        <ele>667.64</ele>
      </trkpt>
      <trkpt lat="46.80741995573044" lon="7.129629990085959">
        <ele>667.11</ele>
      </trkpt>
      <trkpt lat="46.80745993740857" lon="7.129559917375445">
        <ele>666.64</ele>
      </trkpt>
      <trkpt lat="46.80747997015715" lon="7.129499986767769">
        <ele>666.16</ele>
      </trkpt>
      <trkpt lat="46.807539984583855" lon="7.129539968445897">
        <ele>665.66</ele>
      </trkpt>
      <trkpt lat="46.80776487104595" lon="7.129529993981123">
        <ele>665.02</ele>
      </trkpt>
      <trkpt lat="46.8079899251461" lon="7.129519935697317">
        <ele>664.45</ele>
      </trkpt>
      <trkpt lat="46.808214811608195" lon="7.129509961232543">
        <ele>663.94</ele>
      </trkpt>
      <trkpt lat="46.80843994952738" lon="7.129499986767769">
        <ele>663.46</ele>
      </trkpt>
      <trkpt lat="46.80849996395409" lon="7.129559917375445">
        <ele>663.05</ele>
      </trkpt>
      <trkpt lat="46.80856995284557" lon="7.129499986767769">
        <ele>662.65</ele>
      </trkpt>
      <trkpt lat="46.80870993062854" lon="7.129479954019189">
        <ele>662.23</ele>
      </trkpt>
      <trkpt lat="46.8087999522686" lon="7.129419939592481">
        <ele>661.86</ele>
      </trkpt>
      <trkpt lat="46.80888997390866" lon="7.129559917375445">
        <ele>661.52</ele>
      </trkpt>
      <trkpt lat="46.80889994837344" lon="7.129810620099306">
        <ele>661.18</ele>
      </trkpt>
      <trkpt lat="46.80890992283821" lon="7.130059981718659">
        <ele>660.77</ele>
      </trkpt>
      <trkpt lat="46.80891998112202" lon="7.130159977823496">
        <ele>660.37</ele>
      </trkpt>
      <trkpt lat="46.809157356619835" lon="7.130154948681593">
        <ele>659.99</ele>
      </trkpt>
      <trkpt lat="46.80939498357475" lon="7.13014991953969">
        <ele>659.52</ele>
      </trkpt>
      <trkpt lat="46.80939506739378" lon="7.130149835720658">
        <ele>659.51</ele>
      </trkpt>
      <trkpt lat="46.809632359072566" lon="7.130144974216819">
        <ele>659.01</ele>
      </trkpt>
      <trkpt lat="46.80986998602748" lon="7.130139945074916">
        <ele>658.54</ele>
      </trkpt>
      <trkpt lat="46.810102332383394" lon="7.130129970610142">
        <ele>658.1</ele>
      </trkpt>
      <trkpt lat="46.810334930196404" lon="7.130119996145368">
        <ele>657.6</ele>
      </trkpt>
      <trkpt lat="46.81056736037135" lon="7.130109937861562">
        <ele>657.13</ele>
      </trkpt>
      <trkpt lat="46.81079995818436" lon="7.130099963396788">
        <ele>656.55</ele>
      </trkpt>
      <trkpt lat="46.811004811897874" lon="7.1300899889320135">
        <ele>656.0</ele>
      </trkpt>
      <trkpt lat="46.81120991706848" lon="7.130079930648208">
        <ele>655.47</ele>
      </trkpt>
      <trkpt lat="46.81122994981706" lon="7.1300499234348536">
        <ele>654.96</ele>
      </trkpt>
      <trkpt lat="46.8113299459219" lon="7.129969960078597">
        <ele>654.4</ele>
      </trkpt>
      <trkpt lat="46.81135995313525" lon="7.129909945651889">
        <ele>653.82</ele>
      </trkpt>
      <trkpt lat="46.81143991649151" lon="7.129959985613823">
        <ele>653.27</ele>
      </trkpt>
      <trkpt lat="46.811510156840086" lon="7.12967935949564">
        <ele>652.54</ele>
      </trkpt>
      <trkpt lat="46.811579978093505" lon="7.129399990662932">
        <ele>651.85</ele>
      </trkpt>
      <trkpt lat="46.81170679628849" lon="7.12912280112505">
        <ele>651.2</ele>
      </trkpt>
      <trkpt lat="46.81183369830251" lon="7.1288456954061985">
        <ele>650.56</ele>
      </trkpt>
      <trkpt lat="46.81195992976427" lon="7.128569930791855">
        <ele>649.98</ele>
      </trkpt>
      <trkpt lat="46.81207995861769" lon="7.128349989652634">
        <ele>649.31</ele>
      </trkpt>
      <trkpt lat="46.812199987471104" lon="7.128179920837283">
        <ele>648.63</ele>
      </trkpt>
      <trkpt lat="46.81238992139697" lon="7.127959979698062">
        <ele>647.88</ele>
      </trkpt>
      <trkpt lat="46.81257993914187" lon="7.1278199180960655">
        <ele>647.1</ele>
      </trkpt>
      <trkpt lat="46.812589997425675" lon="7.127949921414256">
        <ele>646.33</ele>
      </trkpt>
      <trkpt lat="46.81263995356858" lon="7.1280899830162525">
        <ele>645.51</ele>
      </trkpt>
      <trkpt lat="46.8127301428467" lon="7.1283738780766726">
        <ele>644.6</ele>
      </trkpt>
      <trkpt lat="46.81282033212483" lon="7.128657773137093">
        <ele>643.6</ele>
      </trkpt>
      <trkpt lat="46.81290993466973" lon="7.128939991816878">
        <ele>642.59</ele>
      </trkpt>
      <trkpt lat="46.81300012394786" lon="7.129170410335064">
        <ele>641.56</ele>
      </trkpt>
      <trkpt lat="46.81308997794986" lon="7.129399990662932">
        <ele>640.51</ele>
      </trkpt>
      <trkpt lat="46.81319508701563" lon="7.129625296220183">
        <ele>639.42</ele>
      </trkpt>
      <trkpt lat="46.813299944624305" lon="7.129849931225181">
        <ele>638.27</ele>
      </trkpt>
      <trkpt lat="46.81353338062763" lon="7.130063334479928">
        <ele>637.06</ele>
      </trkpt>
      <trkpt lat="46.81376681663096" lon="7.130276737734675">
        <ele>635.89</ele>
      </trkpt>
      <trkpt lat="46.81399991735816" lon="7.130489973351359">
        <ele>634.75</ele>
      </trkpt>
      <trkpt lat="46.814029924571514" lon="7.130449991673231">
        <ele>633.75</ele>
      </trkpt>
      <trkpt lat="46.81420996785164" lon="7.13061997666955">
        <ele>632.67</ele>
      </trkpt>
      <trkpt lat="46.81426998227835" lon="7.130539929494262">
        <ele>631.7</ele>
      </trkpt>
      <trkpt lat="46.814289931207895" lon="7.130809994414449">
        <ele>630.89</ele>
      </trkpt>
      <trkpt lat="46.814309963956475" lon="7.130849976092577">
        <ele>630.07</ele>
      </trkpt>
      <trkpt lat="46.8143499456346" lon="7.130819968879223">
        <ele>629.28</ele>
      </trkpt>
      <trkpt lat="46.81438992731273" lon="7.130799936130643">
        <ele>628.52</ele>
      </trkpt>
      <trkpt lat="46.81438992731273" lon="7.130879983305931">
        <ele>627.8</ele>
      </trkpt>
      <trkpt lat="46.81466988287866" lon="7.130997413769364">
        <ele>627.03</ele>
      </trkpt>
      <trkpt lat="46.81494992226362" lon="7.131114928051829">
        <ele>626.36</ele>
      </trkpt>
      <trkpt lat="46.81522987782955" lon="7.131232442334294">
        <ele>625.66</ele>
      </trkpt>
      <trkpt lat="46.81550991721451" lon="7.131349956616759">
        <ele>624.87</ele>
      </trkpt>
      <trkpt lat="46.81566992774606" lon="7.131469985470176">
        <ele>624.13</ele>
      </trkpt>
      <trkpt lat="46.81583999656141" lon="7.131549948826432">
        <ele>623.38</ele>
      </trkpt>
      <trkpt lat="46.81584997102618" lon="7.131659919396043">
        <ele>622.77</ele>
      </trkpt>
      <trkpt lat="46.815899927169085" lon="7.131709959357977">
        <ele>622.12</ele>
      </trkpt>
      <trkpt lat="46.81594996713102" lon="7.131719933822751">
        <ele>621.46</ele>
      </trkpt>
      <trkpt lat="46.816069995984435" lon="7.132009947672486">
        <ele>620.81</ele>
      </trkpt>
      <trkpt lat="46.81610997766256" lon="7.131979940459132">
        <ele>620.15</ele>
      </trkpt>
      <trkpt lat="46.8162601813674" lon="7.132295435294509">
        <ele>619.42</ele>
      </trkpt>
      <trkpt lat="46.81640996597707" lon="7.132609924301505">
        <ele>618.64</ele>
      </trkpt>
      <trkpt lat="46.8165001552552" lon="7.132840342819691">
        <ele>617.97</ele>
      </trkpt>
      <trkpt lat="46.816589925438166" lon="7.133069923147559">
        <ele>617.33</ele>
      </trkpt>
      <trkpt lat="46.816669972613454" lon="7.133429925888777">
        <ele>616.69</ele>
      </trkpt>
      <trkpt lat="46.816739961504936" lon="7.133869975805283">
        <ele>616.09</ele>
      </trkpt>
      <trkpt lat="46.81678170338273" lon="7.134224195033312">
        <ele>615.38</ele>
      </trkpt>
      <trkpt lat="46.81682352907956" lon="7.134578414261341">
        <ele>614.69</ele>
      </trkpt>
      <trkpt lat="46.816864935681224" lon="7.1349299512803555">
        <ele>614.03</ele>
      </trkpt>
      <trkpt lat="46.81690676137805" lon="7.135284170508385">
        <ele>613.38</ele>
      </trkpt>
      <trkpt lat="46.816948503255844" lon="7.135638389736414">
        <ele>612.8</ele>
      </trkpt>
      <trkpt lat="46.81698999367654" lon="7.135989926755428">
        <ele>612.22</ele>
      </trkpt>
      <trkpt lat="46.81704992428422" lon="7.136349929496646">
        <ele>611.65</ele>
      </trkpt>
      <trkpt lat="46.817099964246154" lon="7.136489991098642">
        <ele>611.03</ele>
      </trkpt>
      <trkpt lat="46.817169953137636" lon="7.136619994416833">
        <ele>610.39</ele>
      </trkpt>
      <trkpt lat="46.81728998199105" lon="7.136769946664572">
        <ele>609.71</ele>
      </trkpt>
      <trkpt lat="46.81737991981208" lon="7.13684999383986">
        <ele>609.13</ele>
      </trkpt>
      <trkpt lat="46.81753993034363" lon="7.1369299571961164">
        <ele>608.56</ele>
      </trkpt>
      <trkpt lat="46.81769994087517" lon="7.136969938874245">
        <ele>608.09</ele>
      </trkpt>
      <trkpt lat="46.81781996972859" lon="7.136969938874245">
        <ele>607.68</ele>
      </trkpt>
      <trkpt lat="46.81798995472491" lon="7.136959964409471">
        <ele>607.36</ele>
      </trkpt>
      <trkpt lat="46.81820997968316" lon="7.136919982731342">
        <ele>607.14</ele>
      </trkpt>
      <trkpt lat="46.81837493553758" lon="7.136834990233183">
        <ele>607.07</ele>
      </trkpt>
      <trkpt lat="46.818539975211024" lon="7.1367499977350235">
        <ele>607.11</ele>
      </trkpt>
      <trkpt lat="46.81855992414057" lon="7.1368099283427">
        <ele>607.15</ele>
      </trkpt>
      <trkpt lat="46.81876000016928" lon="7.136634914204478">
        <ele>607.36</ele>
      </trkpt>
      <trkpt lat="46.81895999237895" lon="7.136459983885288">
        <ele>607.51</ele>
      </trkpt>
      <trkpt lat="46.81900994852185" lon="7.136569954454899">
        <ele>607.78</ele>
      </trkpt>
      <trkpt lat="46.81895999237895" lon="7.136459983885288">
        <ele>607.51</ele>
      </trkpt>
      <trkpt lat="46.81919007562101" lon="7.136229816824198">
        <ele>608.53</ele>
      </trkpt>
      <trkpt lat="46.81942015886307" lon="7.135999733582139">
        <ele>609.19</ele>
      </trkpt>
      <trkpt lat="46.81964999064803" lon="7.135769985616207">
        <ele>609.88</ele>
      </trkpt>
      <trkpt lat="46.81966993957758" lon="7.135829916223884">
        <ele>610.37</ele>
      </trkpt>
      <trkpt lat="46.819719979539514" lon="7.135809967294335">
        <ele>610.91</ele>
      </trkpt>
      <trkpt lat="46.81977999396622" lon="7.1358199417591095">
        <ele>611.46</ele>
      </trkpt>
      <trkpt lat="46.8198399245739" lon="7.135859923437238">
        <ele>612.0</ele>
      </trkpt>
      <trkpt lat="46.81988996453583" lon="7.135919937863946">
        <ele>612.53</ele>
      </trkpt>
      <trkpt lat="46.81988996453583" lon="7.135920021682978">
        <ele>612.53</ele>
      </trkpt>
      <trkpt lat="46.820040168240666" lon="7.136215399950743">
        <ele>612.94</ele>
      </trkpt>
      <trkpt lat="46.82018995285034" lon="7.136509940028191">
        <ele>613.49</ele>
      </trkpt>
      <trkpt lat="46.82039991952479" lon="7.136769946664572">
        <ele>614.18</ele>
      </trkpt>
      <trkpt lat="46.820519948378205" lon="7.136879917234182">
        <ele>614.94</ele>
      </trkpt>
      <trkpt lat="46.820799987763166" lon="7.137079993262887">
        <ele>615.83</ele>
      </trkpt>
      <trkpt lat="46.821079943329096" lon="7.13727998547256">
        <ele>616.53</ele>
      </trkpt>
      <trkpt lat="46.82135998271406" lon="7.137479977682233">
        <ele>617.21</ele>
      </trkpt>
      <trkpt lat="46.821639938279986" lon="7.137679969891906">
        <ele>617.97</ele>
      </trkpt>
      <trkpt lat="46.82188997045159" lon="7.137869987636805">
        <ele>618.78</ele>
      </trkpt>
      <trkpt lat="46.82213991880417" lon="7.138059921562672">
        <ele>619.56</ele>
      </trkpt>
      <trkpt lat="46.822279980406165" lon="7.138209957629442">
        <ele>620.24</ele>
      </trkpt>
      <trkpt lat="46.822369918227196" lon="7.138359993696213">
        <ele>620.85</ele>
      </trkpt>
      <trkpt lat="46.82246010750532" lon="7.138550262898207">
        <ele>621.4</ele>
      </trkpt>
      <trkpt lat="46.82254996150732" lon="7.138739945366979">
        <ele>621.88</ele>
      </trkpt>
      <trkpt lat="46.822579968720675" lon="7.1387299709022045">
        <ele>622.42</ele>
      </trkpt>
      <trkpt lat="46.82273997925222" lon="7.138989977538586">
        <ele>622.86</ele>
      </trkpt>
      <trkpt lat="46.82290996424854" lon="7.139169936999679">
        <ele>623.35</ele>
      </trkpt>
      <trkpt lat="46.82312998920679" lon="7.139339921995997">
        <ele>623.91</ele>
      </trkpt>
      <trkpt lat="46.82336250320077" lon="7.139502447098494">
        <ele>624.36</ele>
      </trkpt>
      <trkpt lat="46.823594933375716" lon="7.13966497220099">
        <ele>624.72</ele>
      </trkpt>
      <trkpt lat="46.823827447369695" lon="7.139827497303486">
        <ele>624.93</ele>
      </trkpt>
      <trkpt lat="46.82405996136367" lon="7.13998993858695">
        <ele>624.95</ele>
      </trkpt>
      <trkpt lat="46.82426992803812" lon="7.140209963545203">
        <ele>624.77</ele>
      </trkpt>
      <trkpt lat="46.82439506985247" lon="7.140415236353874">
        <ele>624.61</ele>
      </trkpt>
      <trkpt lat="46.82451996020973" lon="7.140619922429323">
        <ele>624.44</ele>
      </trkpt>
      <trkpt lat="46.82465993799269" lon="7.140989983454347">
        <ele>624.1</ele>
      </trkpt>
      <trkpt lat="46.82474685832858" lon="7.141334060579538">
        <ele>623.61</ele>
      </trkpt>
      <trkpt lat="46.82483369484544" lon="7.14167813770473">
        <ele>623.07</ele>
      </trkpt>
      <trkpt lat="46.82491994462907" lon="7.142019951716065">
        <ele>622.44</ele>
      </trkpt>
      <trkpt lat="46.8249099701643" lon="7.14215992949903">
        <ele>621.71</ele>
      </trkpt>
      <trkpt lat="46.82496998459101" lon="7.142239976674318">
        <ele>620.94</ele>
      </trkpt>
      <trkpt lat="46.82507459074259" lon="7.142561757937074">
        <ele>619.89</ele>
      </trkpt>
      <trkpt lat="46.8251792807132" lon="7.142883455380797">
        <ele>618.8</ele>
      </trkpt>
      <trkpt lat="46.82528330013156" lon="7.143203308805823">
        <ele>617.74</ele>
      </trkpt>
      <trkpt lat="46.82538799010217" lon="7.143525006249547">
        <ele>616.68</ele>
      </trkpt>
      <trkpt lat="46.82549259625375" lon="7.143846787512302">
        <ele>615.6</ele>
      </trkpt>
      <trkpt lat="46.82559661567211" lon="7.144166640937328">
        <ele>614.38</ele>
      </trkpt>
      <trkpt lat="46.825701305642724" lon="7.144488422200084">
        <ele>613.02</ele>
      </trkpt>
      <trkpt lat="46.825805911794305" lon="7.144810119643807">
        <ele>611.59</ele>
      </trkpt>
      <trkpt lat="46.825909931212664" lon="7.145129973068833">
        <ele>610.09</ele>
      </trkpt>
      <trkpt lat="46.825849916785955" lon="7.14520993642509">
        <ele>608.41</ele>
      </trkpt>
      <trkpt lat="46.825849916785955" lon="7.145249918103218">
        <ele>606.8</ele>
      </trkpt>
      <trkpt lat="46.825849916785955" lon="7.145239943638444">
        <ele>605.18</ele>
      </trkpt>
      <trkpt lat="46.825889982283115" lon="7.145469943061471">
        <ele>603.36</ele>
      </trkpt>
      <trkpt lat="46.825849916785955" lon="7.145849978551269">
        <ele>601.52</ele>
      </trkpt>
      <trkpt lat="46.82580993510783" lon="7.145979981869459">
        <ele>599.71</ele>
      </trkpt>
      <trkpt lat="46.82572997175157" lon="7.146039996296167">
        <ele>597.87</ele>
      </trkpt>
      <trkpt lat="46.82544507086277" lon="7.146094897761941">
        <ele>596.01</ele>
      </trkpt>
      <trkpt lat="46.825159918516874" lon="7.146149966865778">
        <ele>594.23</ele>
      </trkpt>
      <trkpt lat="46.82512999512255" lon="7.146509969606996">
        <ele>592.39</ele>
      </trkpt>
      <trkpt lat="46.82494509033859" lon="7.1464949660003185">
        <ele>590.84</ele>
      </trkpt>
      <trkpt lat="46.82475993409753" lon="7.1464799623936415">
        <ele>589.42</ele>
      </trkpt>
      <trkpt lat="46.82454493828118" lon="7.146634943783283">
        <ele>587.97</ele>
      </trkpt>
      <trkpt lat="46.82432994246483" lon="7.146789925172925">
        <ele>586.74</ele>
      </trkpt>
      <trkpt lat="46.8240999430418" lon="7.146974997594953">
        <ele>585.69</ele>
      </trkpt>
      <trkpt lat="46.823869943618774" lon="7.1471599861979485">
        <ele>584.8</ele>
      </trkpt>
      <trkpt lat="46.82363994419575" lon="7.147344974800944">
        <ele>584.19</ele>
      </trkpt>
      <trkpt lat="46.82340994477272" lon="7.14752996340394">
        <ele>584.02</ele>
      </trkpt>
      <trkpt lat="46.823159996420145" lon="7.147729955613613">
        <ele>584.32</ele>
      </trkpt>
      <trkpt lat="46.82302488014102" lon="7.147864988073707">
        <ele>584.89</ele>
      </trkpt>
      <trkpt lat="46.82288993149996" lon="7.147999936714768">
        <ele>585.71</ele>
      </trkpt>
      <trkpt lat="46.82271466590464" lon="7.148330435156822">
        <ele>586.73</ele>
      </trkpt>
      <trkpt lat="46.822539987042546" lon="7.148659927770495">
        <ele>587.74</ele>
      </trkpt>
      <trkpt lat="46.82238718494773" lon="7.1489829663187265">
        <ele>589.01</ele>
      </trkpt>
      <trkpt lat="46.822234969586134" lon="7.149304999038577">
        <ele>590.4</ele>
      </trkpt>
      <trkpt lat="46.82208225131035" lon="7.1496279537677765">
        <ele>591.75</ele>
      </trkpt>
      <trkpt lat="46.82192995212972" lon="7.149949986487627">
        <ele>592.84</ele>
      </trkpt>
      <trkpt lat="46.82187999598682" lon="7.1500099170953035">
        <ele>593.94</ele>
      </trkpt>
      <trkpt lat="46.82201687246561" lon="7.150320466607809">
        <ele>594.86</ele>
      </trkpt>
      <trkpt lat="46.8221537489444" lon="7.150631016120315">
        <ele>595.78</ele>
      </trkpt>
      <trkpt lat="46.82228995487094" lon="7.1509399730712175">
        <ele>596.61</ele>
      </trkpt>
      <trkpt lat="46.822049813345075" lon="7.151164524257183">
        <ele>597.55</ele>
      </trkpt>
      <trkpt lat="46.822049897164106" lon="7.151164524257183">
        <ele>597.56</ele>
      </trkpt>
      <trkpt lat="46.82180975563824" lon="7.151389075443149">
        <ele>598.35</ele>
      </trkpt>
      <trkpt lat="46.821569949388504" lon="7.151613291352987">
        <ele>599.02</ele>
      </trkpt>
      <trkpt lat="46.82132989168167" lon="7.151837842538953">
        <ele>599.61</ele>
      </trkpt>
      <trkpt lat="46.82108975015581" lon="7.152062393724918">
        <ele>600.15</ele>
      </trkpt>
      <trkpt lat="46.82084994390607" lon="7.152286609634757">
        <ele>600.54</ele>
      </trkpt>
      <trkpt lat="46.820609886199236" lon="7.152511160820723">
        <ele>600.92</ele>
      </trkpt>
      <trkpt lat="46.82036974467337" lon="7.152735712006688">
        <ele>601.2</ele>
      </trkpt>
      <trkpt lat="46.820129938423634" lon="7.152959927916527">
        <ele>601.37</ele>
      </trkpt>
      <trkpt lat="46.8200299423188" lon="7.153039975091815">
        <ele>601.55</ele>
      </trkpt>
      <trkpt lat="46.81994997896254" lon="7.153019942343235">
        <ele>601.7</ele>
      </trkpt>
      <trkpt lat="46.81989993900061" lon="7.153059924021363">
        <ele>601.83</ele>
      </trkpt>
      <trkpt lat="46.81986993178725" lon="7.153109963983297">
        <ele>601.93</ele>
      </trkpt>
      <trkpt lat="46.819849982857704" lon="7.15319998562336">
        <ele>602.03</ele>
      </trkpt>
      <trkpt lat="46.81968494318426" lon="7.153339963406324">
        <ele>602.17</ele>
      </trkpt>
      <trkpt lat="46.81951998732984" lon="7.153479941189289">
        <ele>602.25</ele>
      </trkpt>
      <trkpt lat="46.81925998069346" lon="7.153654955327511">
        <ele>602.49</ele>
      </trkpt>
      <trkpt lat="46.81899997405708" lon="7.153829969465733">
        <ele>602.61</ele>
      </trkpt>
      <trkpt lat="46.81869998574257" lon="7.153959972783923">
        <ele>602.77</ele>
      </trkpt>
      <trkpt lat="46.81857995688915" lon="7.153999954462051">
        <ele>602.92</ele>
      </trkpt>
      <trkpt lat="46.81830000132322" lon="7.154139932245016">
        <ele>603.11</ele>
      </trkpt>
      <trkpt lat="46.818020045757294" lon="7.154279910027981">
        <ele>603.28</ele>
      </trkpt>
      <trkpt lat="46.8177399225533" lon="7.154419971629977">
        <ele>603.48</ele>
      </trkpt>
      <trkpt lat="46.8176899664104" lon="7.1544599533081055">
        <ele>603.66</ele>
      </trkpt>
      <trkpt lat="46.81758997030556" lon="7.154609989374876">
        <ele>603.84</ele>
      </trkpt>
      <trkpt lat="46.81737338192761" lon="7.154713254421949">
        <ele>604.14</ele>
      </trkpt>
      <trkpt lat="46.817156709730625" lon="7.1548166032880545">
        <ele>604.38</ele>
      </trkpt>
      <trkpt lat="46.81693995371461" lon="7.1549199521541595">
        <ele>604.59</ele>
      </trkpt>
      <trkpt lat="46.81672336533666" lon="7.155023301020265">
        <ele>604.78</ele>
      </trkpt>
      <trkpt lat="46.81650669313967" lon="7.155126566067338">
        <ele>605.0</ele>
      </trkpt>
      <trkpt lat="46.816289937123656" lon="7.155229998752475">
        <ele>605.34</ele>
      </trkpt>
      <trkpt lat="46.816073348745704" lon="7.155333263799548">
        <ele>605.74</ele>
      </trkpt>
      <trkpt lat="46.81585676036775" lon="7.155436612665653">
        <ele>606.14</ele>
      </trkpt>
      <trkpt lat="46.8156399205327" lon="7.155539961531758">
        <ele>606.56</ele>
      </trkpt>
      <trkpt lat="46.81551997549832" lon="7.155619924888015">
        <ele>606.97</ele>
      </trkpt>
      <trkpt lat="46.815279917791486" lon="7.155829975381494">
        <ele>607.41</ele>
      </trkpt>
      <trkpt lat="46.8152099289" lon="7.155859982594848">
        <ele>607.86</ele>
      </trkpt>
      <trkpt lat="46.81504991836846" lon="7.1560299675911665">
        <ele>608.23</ele>
      </trkpt>
      <trkpt lat="46.815019994974136" lon="7.155999960377812">
        <ele>608.74</ele>
      </trkpt>
      <trkpt lat="46.814909940585494" lon="7.156119989231229">
        <ele>609.21</ele>
      </trkpt>
      <trkpt lat="46.81466653011739" lon="7.1558865532279015">
        <ele>609.9</ele>
      </trkpt>
      <trkpt lat="46.81442311964929" lon="7.155653117224574">
        <ele>610.58</ele>
      </trkpt>
      <trkpt lat="46.814179960638285" lon="7.155419932678342">
        <ele>611.21</ele>
      </trkpt>
      <trkpt lat="46.81397317908704" lon="7.155189849436283">
        <ele>611.88</ele>
      </trkpt>
      <trkpt lat="46.8137663975358" lon="7.154959682375193">
        <ele>612.68</ele>
      </trkpt>
      <trkpt lat="46.813559951260686" lon="7.154729934409261">
        <ele>613.58</ele>
      </trkpt>
      <trkpt lat="46.813299944624305" lon="7.154499934986234">
        <ele>614.43</ele>
      </trkpt>
      <trkpt lat="46.81309995241463" lon="7.154349982738495">
        <ele>615.18</ele>
      </trkpt>
      <trkpt lat="46.81287498213351" lon="7.154234983026981">
        <ele>615.94</ele>
      </trkpt>
      <trkpt lat="46.81264992803335" lon="7.154119983315468">
        <ele>616.79</ele>
      </trkpt>
      <trkpt lat="46.81239997968078" lon="7.154019987210631">
        <ele>617.51</ele>
      </trkpt>
      <trkpt lat="46.812135111540556" lon="7.153949998319149">
        <ele>618.03</ele>
      </trkpt>
      <trkpt lat="46.81186999194324" lon="7.153879925608635">
        <ele>618.54</ele>
      </trkpt>
      <trkpt lat="46.81169003248215" lon="7.153819995000958">
        <ele>619.03</ele>
      </trkpt>
      <trkpt lat="46.81150998920202" lon="7.15375998057425">
        <ele>619.53</ele>
      </trkpt>
      <trkpt lat="46.8113299459219" lon="7.153659984469414">
        <ele>620.06</ele>
      </trkpt>
      <trkpt lat="46.81110338307917" lon="7.1536532789468765">
        <ele>620.58</ele>
      </trkpt>
      <trkpt lat="46.810876904055476" lon="7.153646657243371">
        <ele>621.24</ele>
      </trkpt>
      <trkpt lat="46.81064992211759" lon="7.153639951720834">
        <ele>622.0</ele>
      </trkpt>
      <trkpt lat="46.81039678864181" lon="7.1536532789468765">
        <ele>622.78</ele>
      </trkpt>
      <trkpt lat="46.810143571347" lon="7.153666606172919">
        <ele>623.63</ele>
      </trkpt>
      <trkpt lat="46.80988993495703" lon="7.153679933398962">
        <ele>624.48</ele>
      </trkpt>
      <trkpt lat="46.80974995717406" lon="7.153729973360896">
        <ele>625.33</ele>
      </trkpt>
      <trkpt lat="46.80951006710529" lon="7.1537799295037985">
        <ele>626.22</ele>
      </trkpt>
      <trkpt lat="46.80926992557943" lon="7.153829969465733">
        <ele>627.08</ele>
      </trkpt>
      <trkpt lat="46.80909994058311" lon="7.153889983892441">
        <ele>627.89</ele>
      </trkpt>
      <trkpt lat="46.80886005051434" lon="7.153924936428666">
        <ele>628.71</ele>
      </trkpt>
      <trkpt lat="46.80861999280751" lon="7.153959972783923">
        <ele>629.51</ele>
      </trkpt>
      <trkpt lat="46.80836509913206" lon="7.1539749763906">
        <ele>630.17</ele>
      </trkpt>
      <trkpt lat="46.80810995399952" lon="7.153989979997277">
        <ele>630.72</ele>
      </trkpt>
      <trkpt lat="46.807799991220236" lon="7.153999954462051">
        <ele>631.16</ele>
      </trkpt>
      <trkpt lat="46.80750017054379" lon="7.153939940035343">
        <ele>631.58</ele>
      </trkpt>
      <trkpt lat="46.807499919086695" lon="7.153939940035343">
        <ele>631.59</ele>
      </trkpt>
      <trkpt lat="46.807277547195554" lon="7.153874980285764">
        <ele>631.99</ele>
      </trkpt>
      <trkpt lat="46.80705492384732" lon="7.153809936717153">
        <ele>632.45</ele>
      </trkpt>
      <trkpt lat="46.80683255195618" lon="7.153744976967573">
        <ele>632.86</ele>
      </trkpt>
      <trkpt lat="46.80660992860794" lon="7.153679933398962">
        <ele>633.29</ele>
      </trkpt>
      <trkpt lat="46.8066499941051" lon="7.153509948402643">
        <ele>633.68</ele>
      </trkpt>
      <trkpt lat="46.806549998000264" lon="7.1533499378710985">
        <ele>634.08</ele>
      </trkpt>
      <trkpt lat="46.80672995746136" lon="7.153129996731877">
        <ele>634.52</ele>
      </trkpt>
      <trkpt lat="46.806939924135804" lon="7.152949953451753">
        <ele>635.01</ele>
      </trkpt>
      <trkpt lat="46.806763065978885" lon="7.152669662609696">
        <ele>635.55</ele>
      </trkpt>
      <trkpt lat="46.806586207821965" lon="7.152389287948608">
        <ele>636.12</ele>
      </trkpt>
      <trkpt lat="46.80640993639827" lon="7.152109919115901">
        <ele>636.74</ele>
      </trkpt>
      <trkpt lat="46.80653993971646" lon="7.151919985190034">
        <ele>637.33</ele>
      </trkpt>
      <trkpt lat="46.80642477236688" lon="7.1516594756394625">
        <ele>637.96</ele>
      </trkpt>
      <trkpt lat="46.80630994029343" lon="7.151399971917272">
        <ele>638.55</ele>
      </trkpt>
      <trkpt lat="46.80629996582866" lon="7.151279943063855">
        <ele>639.14</ele>
      </trkpt>
      <trkpt lat="46.80631999857724" lon="7.151189921423793">
        <ele>639.71</ele>
      </trkpt>
      <trkpt lat="46.806419994682074" lon="7.1511399652808905">
        <ele>640.32</ele>
      </trkpt>
      <trkpt lat="46.806399961933494" lon="7.15098992921412">
        <ele>640.88</ele>
      </trkpt>
      <trkpt lat="46.806359980255365" lon="7.150999987497926">
        <ele>641.41</ele>
      </trkpt>
      <trkpt lat="46.80631999857724" lon="7.150979954749346">
        <ele>641.95</ele>
      </trkpt>
      <trkpt lat="46.8062699586153" lon="7.1510099619627">
        <ele>642.5</ele>
      </trkpt>
      <trkpt lat="46.80621991865337" lon="7.150919940322638">
        <ele>643.07</ele>
      </trkpt>
      <trkpt lat="46.806016489863396" lon="7.150683989748359">
        <ele>643.65</ele>
      </trkpt>
      <trkpt lat="46.80581297725439" lon="7.150447955355048">
        <ele>644.4</ele>
      </trkpt>
      <trkpt lat="46.805609967559576" lon="7.150212423875928">
        <ele>645.23</ele>
      </trkpt>
      <trkpt lat="46.80540645495057" lon="7.149976473301649">
        <ele>645.88</ele>
      </trkpt>
      <trkpt lat="46.8052030261606" lon="7.1497404389083385">
        <ele>646.62</ele>
      </trkpt>
      <trkpt lat="46.80499993264675" lon="7.149504907429218">
        <ele>647.42</ele>
      </trkpt>
      <trkpt lat="46.80479650385678" lon="7.1492689568549395">
        <ele>648.24</ele>
      </trkpt>
      <trkpt lat="46.80459299124777" lon="7.149032922461629">
        <ele>648.98</ele>
      </trkpt>
      <trkpt lat="46.80438998155296" lon="7.14879747480154">
        <ele>649.59</ele>
      </trkpt>
      <trkpt lat="46.80418646894395" lon="7.14856144040823">
        <ele>650.2</ele>
      </trkpt>
      <trkpt lat="46.80398304015398" lon="7.148325489833951">
        <ele>650.85</ele>
      </trkpt>
      <trkpt lat="46.803779946640134" lon="7.148089958354831">
        <ele>651.44</ele>
      </trkpt>
      <trkpt lat="46.803719932213426" lon="7.148059951141477">
        <ele>651.92</ele>
      </trkpt>
      <trkpt lat="46.80372999049723" lon="7.147839926183224">
        <ele>652.46</ele>
      </trkpt>
      <trkpt lat="46.80370987392962" lon="7.147544212639332">
        <ele>652.94</ele>
      </trkpt>
      <trkpt lat="46.80368992500007" lon="7.147249924018979">
        <ele>653.26</ele>
      </trkpt>
      <trkpt lat="46.80370995774865" lon="7.147199967876077">
        <ele>653.42</ele>
      </trkpt>
      <trkpt lat="46.803739964962006" lon="7.1471399534493685">
        <ele>653.47</ele>
      </trkpt>
      <trkpt lat="46.80378992110491" lon="7.1471199207007885">
        <ele>653.4</ele>
      </trkpt>
      <trkpt lat="46.80389997549355" lon="7.1471199207007885">
        <ele>653.26</ele>
      </trkpt>
      <trkpt lat="46.80372999049723" lon="7.14694993570447">
        <ele>652.77</ele>
      </trkpt>
      <trkpt lat="46.803739964962006" lon="7.146859997883439">
        <ele>652.34</ele>
      </trkpt>
      <trkpt lat="46.80369998328388" lon="7.146819932386279">
        <ele>651.81</ele>
      </trkpt>
      <trkpt lat="46.80365991778672" lon="7.146809957921505">
        <ele>651.25</ele>
      </trkpt>
      <trkpt lat="46.803629994392395" lon="7.146849939599633">
        <ele>650.68</ele>
      </trkpt>
      <trkpt lat="46.803439976647496" lon="7.14664994738996">
        <ele>649.92</ele>
      </trkpt>
      <trkpt lat="46.80325993336737" lon="7.14653997682035">
        <ele>649.25</ele>
      </trkpt>
      <trkpt lat="46.80299992673099" lon="7.146509969606996">
        <ele>648.63</ele>
      </trkpt>
      <trkpt lat="46.80278996005654" lon="7.14651994407177">
        <ele>648.05</ele>
      </trkpt>
      <trkpt lat="46.802600026130676" lon="7.146584903821349">
        <ele>647.52</ele>
      </trkpt>
      <trkpt lat="46.802409924566746" lon="7.14664994738996">
        <ele>647.12</ele>
      </trkpt>
      <trkpt lat="46.80223993957043" lon="7.1467099618166685">
        <ele>646.75</ele>
      </trkpt>
      <trkpt lat="46.802109936252236" lon="7.1467299945652485">
        <ele>646.53</ele>
      </trkpt>
      <trkpt lat="46.802087388932705" lon="7.146353982388973">
        <ele>646.65</ele>
      </trkpt>
      <trkpt lat="46.802064925432205" lon="7.145979981869459">
        <ele>646.79</ele>
      </trkpt>
      <trkpt lat="46.802042378112674" lon="7.145603969693184">
        <ele>647.03</ele>
      </trkpt>
      <trkpt lat="46.802019998431206" lon="7.14522996917367">
        <ele>647.5</ele>
      </trkpt>
      <trkpt lat="46.80198999121785" lon="7.145009944215417">
        <ele>648.19</ele>
      </trkpt>
      <trkpt lat="46.80189996957779" lon="7.14477994479239">
        <ele>649.06</ele>
      </trkpt>
      <trkpt lat="46.8017699662596" lon="7.144579952582717">
        <ele>650.09</ele>
      </trkpt>
      <trkpt lat="46.801534770056605" lon="7.144284741953015">
        <ele>651.35</ele>
      </trkpt>
      <trkpt lat="46.80129999294877" lon="7.143989950418472">
        <ele>652.71</ele>
      </trkpt>
      <trkpt lat="46.80119480006397" lon="7.143779648467898">
        <ele>654.1</ele>
      </trkpt>
      <trkpt lat="46.80108994245529" lon="7.1435699332505465">
        <ele>655.64</ele>
      </trkpt>
      <trkpt lat="46.80094996467233" lon="7.143179923295975">
        <ele>657.43</ele>
      </trkpt>
      <trkpt lat="46.8008547462523" lon="7.14287431910634">
        <ele>659.15</ele>
      </trkpt>
      <trkpt lat="46.80075994692743" lon="7.142569972202182">
        <ele>660.78</ele>
      </trkpt>
      <trkpt lat="46.8006647285074" lon="7.142264284193516">
        <ele>662.34</ele>
      </trkpt>
      <trkpt lat="46.80056992918253" lon="7.141959937289357">
        <ele>663.76</ele>
      </trkpt>
      <trkpt lat="46.80056992918253" lon="7.141949962824583">
        <ele>665.05</ele>
      </trkpt>
      <trkpt lat="46.80051997303963" lon="7.141759945079684">
        <ele>666.27</ele>
      </trkpt>
      <trkpt lat="46.800463143736124" lon="7.1414559334516525">
        <ele>667.44</ele>
      </trkpt>
      <trkpt lat="46.80040631443262" lon="7.141151838004589">
        <ele>668.48</ele>
      </trkpt>
      <trkpt lat="46.80034998804331" lon="7.14084992185235">
        <ele>669.52</ele>
      </trkpt>
      <trkpt lat="46.80032995529473" lon="7.140859980136156">
        <ele>670.4</ele>
      </trkpt>
      <trkpt lat="46.800299948081374" lon="7.140669962391257">
        <ele>671.3</ele>
      </trkpt>
      <trkpt lat="46.80007506161928" lon="7.140754954889417">
        <ele>671.99</ele>
      </trkpt>
      <trkpt lat="46.799849923700094" lon="7.140839947387576">
        <ele>672.69</ele>
      </trkpt>
      <trkpt lat="46.799809942021966" lon="7.14084992185235">
        <ele>673.32</ele>
      </trkpt>
      <trkpt lat="46.799809942021966" lon="7.14088998734951">
        <ele>673.89</ele>
      </trkpt>
      <trkpt lat="46.799809942021966" lon="7.14084992185235">
        <ele>673.32</ele>
      </trkpt>
      <trkpt lat="46.799849923700094" lon="7.140839947387576">
        <ele>672.69</ele>
      </trkpt>
      <trkpt lat="46.79978311993182" lon="7.140539288520813">
        <ele>675.52</ele>
      </trkpt>
      <trkpt lat="46.79971631616354" lon="7.140238545835018">
        <ele>676.0</ele>
      </trkpt>
      <trkpt lat="46.79964993149042" lon="7.139939982444048">
        <ele>676.52</ele>
      </trkpt>
      <trkpt lat="46.79956988431513" lon="7.139509404078126">
        <ele>677.03</ele>
      </trkpt>
      <trkpt lat="46.7995698004961" lon="7.139508901163936">
        <ele>677.04</ele>
      </trkpt>
      <trkpt lat="46.79948992095888" lon="7.139079999178648">
        <ele>677.47</ele>
      </trkpt>
      <trkpt lat="46.79943979717791" lon="7.138643888756633">
        <ele>677.95</ele>
      </trkpt>
      <trkpt lat="46.79938992485404" lon="7.138209957629442">
        <ele>678.42</ele>
      </trkpt>
      <trkpt lat="46.79936486296356" lon="7.137773847207427">
        <ele>678.86</ele>
      </trkpt>
      <trkpt lat="46.79933996871114" lon="7.137339999899268">
        <ele>679.16</ele>
      </trkpt>
      <trkpt lat="46.7993332631886" lon="7.136935573071241">
        <ele>679.41</ele>
      </trkpt>
      <trkpt lat="46.79932655766606" lon="7.136531146243215">
        <ele>679.6</ele>
      </trkpt>
      <trkpt lat="46.79931993596256" lon="7.136129988357425">
        <ele>679.86</ele>
      </trkpt>
      <trkpt lat="46.799269979819655" lon="7.136079948395491">
        <ele>679.91</ele>
      </trkpt>
      <trkpt lat="46.79920996539295" lon="7.135859923437238">
        <ele>680.0</ele>
      </trkpt>
      <trkpt lat="46.79911977611482" lon="7.135604443028569">
        <ele>679.97</ele>
      </trkpt>
      <trkpt lat="46.79902992211282" lon="7.135349968448281">
        <ele>679.81</ele>
      </trkpt>
      <trkpt lat="46.79889991879463" lon="7.135119969025254">
        <ele>679.61</ele>
      </trkpt>
      <trkpt lat="46.79886999540031" lon="7.13510999456048">
        <ele>679.53</ele>
      </trkpt>
      <trkpt lat="46.79884996265173" lon="7.135249972343445">
        <ele>679.47</ele>
      </trkpt>
      <trkpt lat="46.79862675257027" lon="7.135203285142779">
        <ele>679.31</ele>
      </trkpt>
      <trkpt lat="46.79840354248881" lon="7.135156681761146">
        <ele>679.36</ele>
      </trkpt>
      <trkpt lat="46.79817999713123" lon="7.13510999456048">
        <ele>679.64</ele>
      </trkpt>
      <trkpt lat="46.79821335710585" lon="7.134789135307074">
        <ele>680.13</ele>
      </trkpt>
      <trkpt lat="46.798246800899506" lon="7.134468359872699">
        <ele>680.62</ele>
      </trkpt>
      <trkpt lat="46.798279993236065" lon="7.134149931371212">
        <ele>681.29</ele>
      </trkpt>
      <trkpt lat="46.79832341149449" lon="7.13376235216856">
        <ele>682.16</ele>
      </trkpt>
      <trkpt lat="46.79836682975292" lon="7.133374689146876">
        <ele>683.19</ele>
      </trkpt>
      <trkpt lat="46.798409996554255" lon="7.132989959791303">
        <ele>684.21</ele>
      </trkpt>
      <trkpt lat="46.798409996554255" lon="7.132679158821702">
        <ele>685.28</ele>
      </trkpt>
      <trkpt lat="46.798409996554255" lon="7.132369950413704">
        <ele>686.43</ele>
      </trkpt>
      <trkpt lat="46.79835987277329" lon="7.131943898275495">
        <ele>687.79</ele>
      </trkpt>
      <trkpt lat="46.79830991663039" lon="7.131519941613078">
        <ele>689.08</ele>
      </trkpt>
      <trkpt lat="46.798213105648756" lon="7.131142420694232">
        <ele>690.31</ele>
      </trkpt>
      <trkpt lat="46.79811621084809" lon="7.130764899775386">
        <ele>691.49</ele>
      </trkpt>
      <trkpt lat="46.798019986599684" lon="7.130389977246523">
        <ele>692.72</ele>
      </trkpt>
      <trkpt lat="46.79800992831588" lon="7.1302699483931065">
        <ele>693.9</ele>
      </trkpt>
      <trkpt lat="46.798239927738905" lon="7.130229966714978">
        <ele>695.07</ele>
      </trkpt>
      <trkpt lat="46.79829994216561" lon="7.130199959501624">
        <ele>696.26</ele>
      </trkpt>
      <trkpt lat="46.79815971292555" lon="7.129904497414827">
        <ele>697.53</ele>
      </trkpt>
      <trkpt lat="46.798019986599684" lon="7.1296099573373795">
        <ele>698.71</ele>
      </trkpt>
      <trkpt lat="46.79799987003207" lon="7.129205614328384">
        <ele>699.94</ele>
      </trkpt>
      <trkpt lat="46.79797983728349" lon="7.128801187500358">
        <ele>701.22</ele>
      </trkpt>
      <trkpt lat="46.797959972172976" lon="7.128399945795536">
        <ele>702.61</ele>
      </trkpt>
      <trkpt lat="46.79792996495962" lon="7.1282999496907">
        <ele>703.62</ele>
      </trkpt>
      <trkpt lat="46.79787992499769" lon="7.128259968012571">
        <ele>704.5</ele>
      </trkpt>
      <trkpt lat="46.79784991778433" lon="7.128259968012571">
        <ele>705.2</ele>
      </trkpt>
      <trkpt lat="46.79783994331956" lon="7.128109931945801">
        <ele>705.87</ele>
      </trkpt>
      <trkpt lat="46.79778998717666" lon="7.12801999412477">
        <ele>706.42</ele>
      </trkpt>
      <trkpt lat="46.79792996495962" lon="7.1278199180960655">
        <ele>706.53</ele>
      </trkpt>
      <trkpt lat="46.79803993552923" lon="7.127579944208264">
        <ele>706.62</ele>
      </trkpt>
      <trkpt lat="46.79809994995594" lon="7.127399984747171">
        <ele>706.86</ele>
      </trkpt>
      <trkpt lat="46.79818016476929" lon="7.127016596496105">
        <ele>707.16</ele>
      </trkpt>
      <trkpt lat="46.798259960487485" lon="7.126634968444705">
        <ele>707.55</ele>
      </trkpt>
      <trkpt lat="46.79834017530084" lon="7.126251580193639">
        <ele>708.06</ele>
      </trkpt>
      <trkpt lat="46.79841997101903" lon="7.125869952142239">
        <ele>708.39</ele>
      </trkpt>
      <trkpt lat="46.798470094799995" lon="7.125448929145932">
        <ele>708.77</ele>
      </trkpt>
      <trkpt lat="46.798519967123866" lon="7.125029917806387">
        <ele>708.99</ele>
      </trkpt>
      <trkpt lat="46.798499934375286" lon="7.124619958922267">
        <ele>709.22</ele>
      </trkpt>
      <trkpt lat="46.798443188890815" lon="7.124245706945658">
        <ele>709.48</ele>
      </trkpt>
      <trkpt lat="46.79838635958731" lon="7.1238714549690485">
        <ele>709.8</ele>
      </trkpt>
      <trkpt lat="46.79832994937897" lon="7.123499969020486">
        <ele>710.0</ele>
      </trkpt>
      <trkpt lat="46.79829994216561" lon="7.1231999807059765">
        <ele>710.13</ele>
      </trkpt>
      <trkpt lat="46.79845995269716" lon="7.123109959065914">
        <ele>710.15</ele>
      </trkpt>
      <trkpt lat="46.79839314892888" lon="7.122732354328036">
        <ele>710.31</ele>
      </trkpt>
      <trkpt lat="46.7983263451606" lon="7.12235483340919">
        <ele>710.53</ele>
      </trkpt>
      <trkpt lat="46.798259960487485" lon="7.121979994699359">
        <ele>710.8</ele>
      </trkpt>
      <trkpt lat="46.79819315671921" lon="7.121602389961481">
        <ele>710.93</ele>
      </trkpt>
      <trkpt lat="46.7981262691319" lon="7.121224785223603">
        <ele>710.93</ele>
      </trkpt>
      <trkpt lat="46.79805996827781" lon="7.120849946513772">
        <ele>710.86</ele>
      </trkpt>
      <trkpt lat="46.79804999381304" lon="7.120739975944161">
        <ele>710.72</ele>
      </trkpt>
      <trkpt lat="46.798293236643076" lon="7.120653307065368">
        <ele>710.45</ele>
      </trkpt>
      <trkpt lat="46.798536479473114" lon="7.120566722005606">
        <ele>710.13</ele>
      </trkpt>
      <trkpt lat="46.79877997376025" lon="7.12047996930778">
        <ele>709.89</ele>
      </trkpt>
      <trkpt lat="46.79889975115657" lon="7.120559765025973">
        <ele>709.78</ele>
      </trkpt>
    </trkseg>
  </trk>
</gpx>
